{"type":"FeatureCollection","name":"Political territories within contemporary Belarus reference, 1945","license":"GPL-3.0-only","attribution":"André Ourednik and historical-basemaps contributors","upstream":"https://raw.githubusercontent.com/aourednik/historical-basemaps/62d8f1a03a71f2d3ff17f2d166f7553f256bce68/geojson/world_1945.geojson","revision":"62d8f1a03a71f2d3ff17f2d166f7553f256bce68","modified":"2026-09-08","method":"Boolean polygon intersection; polygon-clipping 0.15.7 (MIT). No invented historical dividing lines. The modern reference is only a constant comparison window.","reference":"belarus-reference.geojson","accuracy":"Original source precision is unchanged. Small edge slivers may result from dataset alignment, not historical territorial claims. Display fractions are planar diagnostic ratios, NOT historical area estimates.","unmatchedGeometry":{"type":"MultiPolygon","coordinates":[[[[23.58135,51.7624],[23.6083312893915,51.790963769707716],[23.62568,51.80933],[23.58135,51.7624]]]]},"features":[{"type":"Feature","properties":{"NAME":"Poland","SUBJECTO":"Poland","PARTOF":"Poland","BORDERPRECISION":3,"displayFraction":0.00282207160653915,"comparisonScope":"Intersection with the contemporary Belarus reference; not the original polity extent."},"geometry":{"type":"MultiPolygon","coordinates":[[[[23.1751,52.28662],[23.19697,52.25693],[23.32715,52.20845],[23.4584,52.16953],[23.50117,52.14038],[23.59795,52.10308],[23.6333,52.06958],[23.65244,52.04038],[23.65107,51.973],[23.60742,51.87979],[23.621988324423835,51.823575096445595],[23.67438,51.94868],[23.66863,52.06129],[23.57069,52.12706],[23.50338,52.20634],[23.31397,52.27196],[23.18414,52.27757],[23.214735404217823,52.347588562523974],[23.2041,52.33789],[23.18125,52.30698],[23.1751,52.28662]]],[[[23.48467,53.9398],[23.59893,53.59922],[23.78926,53.27095],[23.85918,53.11211],[23.88711,53.02754],[23.90938,52.90488],[23.91631,52.81875],[23.91543,52.77026],[23.909928225287892,52.74436358159873],[23.94606,52.773],[23.95681,52.87941],[23.8792,53.10521],[23.60259,53.7802],[23.5305,53.91629],[23.523583526247858,53.929351239693155],[23.48467,53.9398]]],[[[23.54017752238439,51.628220922594565],[23.6083312893915,51.790963769707716],[23.58135,51.7624],[23.54482,51.71025],[23.54017752238439,51.628220922594565]]],[[[23.576100454720734,51.5628078494712],[23.60527,51.51792],[23.611874873484872,51.5237245182273],[23.58926,51.54843],[23.576100454720734,51.5628078494712]]]]}},{"type":"Feature","properties":{"NAME":"USSR","SUBJECTO":"USSR","PARTOF":"USSR","BORDERPRECISION":3,"displayFraction":0.9971779283934609,"comparisonScope":"Intersection with the contemporary Belarus reference; not the original polity extent."},"geometry":{"type":"MultiPolygon","coordinates":[[[[23.18414,52.27757],[23.31397,52.27196],[23.50338,52.20634],[23.57069,52.12706],[23.66863,52.06129],[23.67438,51.94868],[23.621988324423835,51.823575096445595],[23.62568,51.80933],[23.6083312893915,51.790963769707716],[23.54017752238439,51.628220922594565],[23.53965,51.6189],[23.576100454720734,51.5628078494712],[23.58926,51.54843],[23.611874873484872,51.5237245182273],[23.61377,51.52539],[23.60859,51.6105],[23.64668,51.62886],[23.70684,51.64131],[23.7917,51.63711],[23.86426,51.62398],[23.95117,51.58506],[23.97832,51.59131],[24.12686,51.66465],[24.28008,51.77471],[24.32373,51.83843],[24.36191,51.86753],[24.49522,51.88306],[24.61133,51.8895],[24.68516,51.88828],[24.86641,51.89912],[24.97383,51.91113],[25.0667,51.93052],[25.26719,51.93774],[25.58027,51.92476],[25.78574,51.92383],[25.92529,51.91353],[26.26709,51.85503],[26.39434,51.84443],[26.45342,51.81343],[26.5669,51.8019],[26.77344,51.7707],[26.95283,51.754],[27.07412,51.76084],[27.14199,51.75205],[27.27012,51.61357],[27.29629,51.59741],[27.34766,51.59414],[27.45234,51.6061],[27.60137,51.60161],[27.68975,51.57241],[27.67676,51.48994],[27.7,51.47798],[27.74131,51.48257],[27.78887,51.52915],[27.82881,51.57744],[27.85859,51.59238],[28.01074,51.55977],[28.08027,51.56504],[28.14443,51.60166],[28.18379,51.60786],[28.2916,51.58184],[28.42461,51.56362],[28.53203,51.56245],[28.59902,51.54263],[28.64775,51.45654],[28.69023,51.43887],[28.73125,51.4334],[28.79326,51.51035],[28.84951,51.54019],[28.92754,51.56216],[28.97773,51.57178],[29.01309,51.59893],[29.06074,51.62544],[29.10205,51.62754],[29.13565,51.61729],[29.17422,51.58062],[29.23047,51.49702],[29.29883,51.41304],[29.34648,51.38257],[29.46963,51.40835],[29.55313,51.43457],[29.70606,51.43955],[29.90879,51.45801],[30.06377,51.48203],[30.16074,51.47788],[30.21953,51.45122],[30.30898,51.39961],[30.3334,51.32554],[30.44951,51.27432],[30.54453,51.26504],[30.57695,51.31836],[30.63252,51.35542],[30.61172,51.40635],[30.60234,51.47124],[30.56074,51.53149],[30.53301,51.59634],[30.58389,51.68897],[30.63945,51.77007],[30.66729,51.81411],[30.75527,51.89517],[30.8457,51.95308],[30.98066,52.04619],[31.0793,52.07695],[31.16846,52.06294],[31.21797,52.05024],[31.346,52.10537],[31.57373,52.10811],[31.76338,52.10107],[31.75859,52.12583],[31.69063,52.22065],[31.6499,52.26221],[31.60156,52.28481],[31.57734,52.31231],[31.57656,52.42603],[31.58555,52.53247],[31.61592,52.54619],[31.52617,52.63301],[31.51943,52.69873],[31.56348,52.73145],[31.56484,52.75923],[31.53516,52.79824],[31.44277,52.86182],[31.35303,52.93345],[31.29512,52.9898],[31.25879,53.0167],[31.30293,53.06089],[31.36455,53.13897],[31.38838,53.18481],[31.41787,53.19605],[31.56299,53.20249],[31.66826,53.20093],[31.74746,53.18418],[31.77744,53.14688],[31.84971,53.1062],[32.05547,53.08945],[32.14199,53.09116],[32.25068,53.12837],[32.42627,53.2106],[32.46934,53.27031],[32.57803,53.3124],[32.64443,53.32891],[32.7043,53.33633],[32.71025,53.37144],[32.70645,53.41943],[32.68574,53.44815],[32.46963,53.54697],[32.44238,53.57925],[32.4252,53.61729],[32.45098,53.65332],[32.4502,53.69292],[32.20039,53.78125],[31.99219,53.79688],[31.8208,53.79194],[31.7542,53.81045],[31.78301,53.85498],[31.82529,53.93501],[31.83779,54.00078],[31.82598,54.03071],[31.79199,54.05591],[31.62842,54.11118],[31.40361,54.19595],[31.29912,54.2917],[31.24551,54.39165],[31.18477,54.45298],[31.07481,54.4918],[31.08193,54.51709],[31.15488,54.61094],[31.15215,54.62534],[31.12129,54.64849],[30.98418,54.6959],[30.79883,54.78325],[30.79102,54.80601],[30.80449,54.86094],[30.82988,54.91499],[30.8668,54.94072],[30.97773,55.05049],[30.97773,55.08779],[30.95889,55.1376],[30.87744,55.22344],[30.81445,55.27871],[30.81055,55.30698],[30.821,55.33027],[30.86182,55.3604],[30.90059,55.39741],[30.90879,55.52534],[30.90684,55.57002],[30.88223,55.59639],[30.85596,55.60752],[30.80078,55.60112],[30.72168,55.62212],[30.66231,55.65547],[30.62559,55.66626],[30.58672,55.70029],[30.47539,55.7688],[30.45625,55.78682],[30.23359,55.84522],[30.04268,55.83643],[29.93701,55.84526],[29.88164,55.83232],[29.82393,55.79512],[29.74414,55.77041],[29.68457,55.76973],[29.63008,55.75117],[29.48223,55.68457],[29.41299,55.72485],[29.35342,55.78438],[29.37315,55.83472],[29.39795,55.88106],[29.39609,55.91221],[29.375,55.93872],[29.28301,55.96787],[29.0874,56.02114],[29.03174,56.02178],[28.94746,56.0021],[28.79473,55.94258],[28.74082,55.95537],[28.69082,56.00264],[28.63691,56.06177],[28.56397,56.09199],[28.40703,56.08901],[28.39209,56.08672],[28.31631,56.05254],[28.28428,56.05591],[28.14795,56.14292],[28.11787,56.1458],[28.03203,56.1333],[27.89629,56.07617],[27.69424,55.94155],[27.64229,55.91172],[27.58945,55.80918],[27.57676,55.79878],[27.45918,55.80352],[27.42715,55.80596],[27.30918,55.80391],[27.05254,55.83057],[26.95303,55.81294],[26.82246,55.70923],[26.77188,55.69399],[26.62022,55.67964],[26.59356,55.66753],[26.59082,55.62266],[26.5666,55.54648],[26.51924,55.44815],[26.46953,55.37192],[26.45762,55.34248],[26.49531,55.31802],[26.68125,55.30645],[26.76016,55.29336],[26.77568,55.2731],[26.73438,55.24678],[26.675,55.2249],[26.64844,55.2042],[26.60117,55.13018],[26.2918,55.1396],[26.25078,55.12451],[26.23125,55.09014],[26.21582,55.05039],[26.1752,55.00327],[26.09297,54.96231],[25.96445,54.94717],[25.85928,54.91929],[25.78086,54.83325],[25.72246,54.71787],[25.72393,54.63604],[25.73164,54.59038],[25.72481,54.56426],[25.68516,54.53579],[25.62031,54.4604],[25.56758,54.37705],[25.54736,54.33184],[25.55752,54.31069],[25.6169,54.31011],[25.70254,54.29297],[25.74815,54.25967],[25.76504,54.22119],[25.76523,54.17979],[25.74922,54.15698],[25.68057,54.14048],[25.57305,54.13989],[25.51035,54.15962],[25.49736,54.17524],[25.52734,54.21514],[25.50566,54.26494],[25.46113,54.29277],[25.37061,54.25122],[25.28369,54.25127],[25.17949,54.21426],[25.11143,54.15493],[25.04609,54.13306],[24.86953,54.14517],[24.82568,54.11899],[24.78926,53.99824],[24.76816,53.97466],[24.6207,53.97983],[24.47852,53.93184],[24.31797,53.89297],[24.23662,53.91997],[24.19131,53.95044],[24.10391,53.94502],[24.0085,53.93164],[23.94443,53.93897],[23.87256,53.93569],[23.73369,53.91226],[23.55908,53.91982],[23.523583526247858,53.929351239693155],[23.5305,53.91629],[23.60259,53.7802],[23.8792,53.10521],[23.95681,52.87941],[23.94606,52.773],[23.909928225287892,52.74436358159873],[23.90127,52.70361],[23.84473,52.66421],[23.47959,52.55156],[23.41094,52.51621],[23.30332,52.42837],[23.214735404217823,52.347588562523974],[23.18414,52.27757]]]]}}]}