{"type":"FeatureCollection","name":"Political territories within contemporary Belarus reference, 1994","license":"GPL-3.0-only","attribution":"André Ourednik and historical-basemaps contributors","upstream":"https://raw.githubusercontent.com/aourednik/historical-basemaps/62d8f1a03a71f2d3ff17f2d166f7553f256bce68/geojson/world_1994.geojson","revision":"62d8f1a03a71f2d3ff17f2d166f7553f256bce68","modified":"2026-09-08","method":"Boolean polygon intersection; polygon-clipping 0.15.7 (MIT). No invented historical dividing lines. The modern reference is only a constant comparison window.","reference":"belarus-reference.geojson","accuracy":"Original source precision is unchanged. Small edge slivers may result from dataset alignment, not historical territorial claims. Display fractions are planar diagnostic ratios, NOT historical area estimates.","unmatchedGeometry":{"type":"MultiPolygon","coordinates":[[[[23.58135,51.7624],[23.6083312893915,51.790963769707716],[23.62568,51.80933],[23.58135,51.7624]]],[[[26.45762,55.34248],[26.49531,55.31802],[26.462155653558888,55.33953645831652],[26.45762,55.34248]]],[[[26.52166104321843,55.453176629638264],[26.538968456340083,55.489110707599664],[26.5666,55.54648],[26.52166104321843,55.453176629638264]]],[[[29.90879,51.45801],[30.06377,51.48203],[29.940960774380674,51.46299607562669],[29.90879,51.45801]]],[[[30.98066,52.04619],[31.0793,52.07695],[31.06596773745482,52.072792453407445],[30.98066,52.04619]]],[[[32.68574,53.44815],[32.68984851084236,53.4424524417483],[32.70645,53.41943],[32.68574,53.44815]]]]},"features":[{"type":"Feature","properties":{"NAME":"Latvia","SUBJECTO":"Latvia","PARTOF":"Latvia","BORDERPRECISION":3,"displayFraction":0.0004988687723446976,"comparisonScope":"Intersection with the contemporary Belarus reference; not the original polity extent."},"geometry":{"type":"MultiPolygon","coordinates":[[[[26.593440973220595,55.66558082788618],[26.59378,55.66555],[26.60807486848552,55.67412321295423],[26.59356,55.66753],[26.593440973220595,55.66558082788618]]],[[[26.6625252326397,55.68364290180918],[26.67858,55.68097],[26.74795,55.68097],[26.8177056672939,55.70779749643256],[26.77188,55.69399],[26.6625252326397,55.68364290180918]]],[[[26.823426517019435,55.70999769150713],[26.84816,55.71951],[26.86696584702402,55.74458039744858],[26.823426517019435,55.70999769150713]]],[[[26.931936273615857,55.79618553600904],[26.9715,55.81201],[27.13338,55.81201],[27.27984,55.79659],[27.38776,55.78118],[27.49568,55.76576],[27.58047,55.78118],[27.590447488287417,55.81111570115427],[27.58945,55.80918],[27.57676,55.79878],[27.45918,55.80352],[27.42715,55.80596],[27.30918,55.80391],[27.05254,55.83057],[26.95303,55.81294],[26.931936273615857,55.79618553600904]]],[[[27.841274061670195,56.0395144908787],[27.86568,56.04327],[27.900255327128217,56.0778389195435],[27.89629,56.07617],[27.841274061670195,56.0395144908787]]],[[[27.97397235175822,56.10886480444929],[28.02756,56.12035],[28.13642,56.14042],[28.140978964434005,56.14358743957546],[28.11787,56.1458],[28.03203,56.1333],[27.97397235175822,56.10886480444929]]]]}},{"type":"Feature","properties":{"NAME":"Lithuania","SUBJECTO":"Lithuania","PARTOF":"Lithuania","BORDERPRECISION":3,"displayFraction":0.0011506876487820507,"comparisonScope":"Intersection with the contemporary Belarus reference; not the original polity extent."},"geometry":{"type":"MultiPolygon","coordinates":[[[[23.523583526247858,53.929351239693155],[23.5305,53.91629],[23.57206,53.90031],[23.64144,53.91573],[23.77248,53.90031],[23.8804,53.91573],[24.04999,53.92343],[24.15791,53.94656],[24.21187,53.92343],[24.2427,53.87719],[24.37374,53.87719],[24.54333,53.94656],[24.63583,53.96968],[24.6975,53.95427],[24.77458,53.96968],[24.80542,54.02364],[24.80011909650873,54.03424318241157],[24.78926,53.99824],[24.76816,53.97466],[24.6207,53.97983],[24.47852,53.93184],[24.31797,53.89297],[24.23662,53.91997],[24.19131,53.95044],[24.10391,53.94502],[24.0085,53.93164],[23.94443,53.93897],[23.87256,53.93569],[23.73369,53.91226],[23.55908,53.91982],[23.523583526247858,53.929351239693155]]],[[[24.842752817639198,54.129183075616744],[24.882932224510167,54.14425076042808],[24.86953,54.14517],[24.842752817639198,54.129183075616744]]],[[[24.918716686092324,54.14179635495821],[24.97501,54.13156],[25.04438,54.13156],[25.049992250000003,54.134366125],[25.04609,54.13306],[24.918716686092324,54.14179635495821]]],[[[25.138748154150186,54.17874407707509],[25.1523,54.18552],[25.156763643196495,54.19444873421757],[25.138748154150186,54.17874407707509]]],[[[25.25003771544255,54.23931730276899],[25.31418,54.23177],[25.341428451267113,54.25123678644083],[25.28369,54.25127],[25.25003771544255,54.23931730276899]]],[[[25.451552929546228,54.288373985004924],[25.48376,54.26261],[25.49918,54.22406],[25.49918,54.17766221480987],[25.52734,54.21514],[25.50566,54.26494],[25.46113,54.29277],[25.451552929546228,54.288373985004924]]],[[[25.49918,54.15469],[25.59939,54.12386],[25.72273,54.13156],[25.732451178977975,54.15294962058465],[25.68057,54.14048],[25.57305,54.13989],[25.51035,54.15962],[25.49918,54.1730515165512],[25.49918,54.15469]]],[[[25.553221319843416,54.31963853201887],[25.55752,54.31069],[25.60002783221492,54.310274800561054],[25.553221319843416,54.31963853201887]]],[[[25.623145624270705,54.30886],[25.70254,54.29297],[25.717452966499554,54.28208199771026],[25.6996,54.30886],[25.623145624270705,54.30886]]],[[[25.725808035351484,54.624917938502115],[25.7279515189718,54.61222384484405],[25.73044,54.6172],[25.725808035351484,54.624917938502115]]],[[[26.042546697490078,54.95637],[26.04648,54.95637],[26.049591632586043,54.95719991221096],[26.042546697490078,54.95637]]],[[[26.120884497711046,54.97621463123245],[26.16211,54.98721],[26.171632753592352,55.00149310090165],[26.120884497711046,54.97621463123245]]],[[[26.266640316460386,55.13034452402212],[26.306320386570153,55.139157869083974],[26.2918,55.1396],[26.266640316460386,55.13034452402212]]],[[[26.33867048102275,55.13817284180355],[26.4242,55.12596],[26.445137571825153,55.13493102780944],[26.33867048102275,55.13817284180355]]],[[[26.462155653558888,55.33953645831652],[26.49531,55.31802],[26.68125,55.30645],[26.723453153253537,55.29944912208733],[26.71712,55.30325],[26.59378,55.32638],[26.462155653558888,55.33953645831652]]],[[[26.500322665464807,55.13325069816505],[26.53212,55.11054],[26.6092,55.11825],[26.612496758271554,55.14791654849293],[26.60117,55.13018],[26.500322665464807,55.13325069816505]]],[[[26.52166104321843,55.453176629638264],[26.53212,55.46513],[26.538968456340083,55.489110707599664],[26.52166104321843,55.453176629638264]]],[[[26.571750925177703,55.5626813823302],[26.58608,55.58847],[26.588888588465313,55.61658506479305],[26.571750925177703,55.5626813823302]]],[[[26.592902978440776,55.65677067249546],[26.59378,55.66555],[26.593440973220595,55.66558082788618],[26.592902978440776,55.65677067249546]]]]}},{"type":"Feature","properties":{"NAME":"Byelarus","SUBJECTO":"Byelarus","PARTOF":"Byelarus","BORDERPRECISION":3,"displayFraction":0.9900495943235178,"comparisonScope":"Intersection with the contemporary Belarus reference; not the original polity extent."},"geometry":{"type":"MultiPolygon","coordinates":[[[[23.18414,52.27757],[23.31397,52.27196],[23.50338,52.20634],[23.57069,52.12706],[23.66863,52.06129],[23.67438,51.94868],[23.621988324423835,51.823575096445595],[23.62568,51.80933],[23.6083312893915,51.790963769707716],[23.54017752238439,51.628220922594565],[23.53965,51.6189],[23.576100454720734,51.5628078494712],[23.58926,51.54843],[23.58926,51.56875],[23.60606,51.62756],[23.640419297748544,51.62584223960786],[23.64668,51.62886],[23.70684,51.64131],[23.7917,51.63711],[23.86426,51.62398],[23.87502326310381,51.61916],[23.89169,51.61916],[23.905201906648017,51.60564541241813],[23.95117,51.58506],[23.97832,51.59131],[24.025137459501593,51.6144256084546],[24.11011,51.66116],[24.14194884844269,51.67548852408043],[24.28008,51.77471],[24.289658297728042,51.78869233977619],[24.29492,51.81237],[24.38733,51.89638],[24.60575,51.90478],[24.76116844863556,51.89282582942461],[24.86641,51.89912],[24.963464100911544,51.909971049636454],[24.98321030219107,51.91308848023565],[25.0667,51.93052],[25.101570438963048,51.93177574626821],[25.1434,51.93838],[25.169693172849747,51.93422896657177],[25.26719,51.93774],[25.58027,51.92476],[25.593445703812833,51.92470036402129],[25.73145,51.94678],[25.91230669466798,51.9144882805082],[25.92529,51.91353],[25.973547926944136,51.90527052449903],[26.08429,51.91318],[26.125807889587698,51.879210817610065],[26.26709,51.85503],[26.39434,51.84443],[26.407394774193545,51.83758],[26.41192,51.83758],[26.422445689203474,51.8296826004518],[26.45342,51.81343],[26.5669,51.8019],[26.590393566420676,51.798351054167114],[26.70594,51.78717],[26.790002466087216,51.76915814603012],[26.95283,51.754],[27.00711240410557,51.75706118924958],[27.05037,51.77037],[27.17638,51.75357],[27.173422651906403,51.71807830222431],[27.233859061958405,51.65276],[27.25199,51.65276],[27.25199,51.633164493092956],[27.27012,51.61357],[27.29629,51.59741],[27.306244365404584,51.59677634660555],[27.49561,51.63596],[27.57962,51.61076],[27.68883,51.59396],[27.683924635964278,51.57433465071105],[27.68975,51.57241],[27.67676,51.48994],[27.7,51.47798],[27.72963146797183,51.48127238533021],[27.753552154154647,51.494559897824296],[27.782411030246266,51.52282412087618],[27.78964,51.60236],[27.84004,51.60236],[27.868058847402423,51.590350561197546],[28.00923119599267,51.56009337889372],[28.09545247681161,51.57370555955177],[28.14443,51.60166],[28.14618106303273,51.60193582801837],[28.17607,51.62756],[28.27688,51.58555],[28.277012519518735,51.58536069605901],[28.2916,51.58184],[28.42461,51.56362],[28.53203,51.56245],[28.59902,51.54263],[28.64775,51.45654],[28.69023,51.43887],[28.707293142861072,51.43659463697099],[28.76413,51.50154],[28.89854,51.56875],[28.961921715176736,51.56875],[28.97773,51.57178],[29.01309,51.59893],[29.06074,51.62544],[29.10205,51.62754],[29.13565,51.61729],[29.17422,51.58062],[29.23047,51.49702],[29.29883,51.41304],[29.338777460477264,51.38749542243983],[29.46139,51.40914],[29.5454,51.45114],[29.6462,51.48474],[29.69814789947074,51.43929235100611],[29.70606,51.43955],[29.90879,51.45801],[29.940960774380674,51.46299607562669],[29.95703,51.46794],[30.05784,51.48474],[30.077671635384966,51.48143505530734],[30.16074,51.47788],[30.21953,51.45122],[30.288582541757446,51.411378729121274],[30.29306,51.40914],[30.293491883383563,51.40854618444465],[30.30898,51.39961],[30.31643321611446,51.37700313195749],[30.36027,51.31673],[30.42748,51.29153],[30.54508,51.28313],[30.60389,51.37553],[30.57869,51.44274],[30.46948,51.53515],[30.49468,51.62756],[30.60887936540011,51.72544655748648],[30.63945,51.77007],[30.66729,51.81411],[30.685556815077145,51.83094005262734],[30.6963,51.84598],[30.71173369031146,51.855058005645],[30.75527,51.89517],[30.8457,51.95308],[30.89129742711299,51.984538035258524],[30.91472,52.0392],[31.06593,52.0728],[31.06596773745482,52.072792453407445],[31.0793,52.07695],[31.16846,52.06294],[31.21797,52.05024],[31.28302580024073,52.07825317087614],[31.29275,52.0896],[31.314883741846085,52.09197127070198],[31.346,52.10537],[31.451835131939813,52.106643386297435],[31.52797,52.1148],[31.761129779115496,52.11270162194162],[31.75859,52.12583],[31.707096504228517,52.1976753983086],[31.68626,52.20601],[31.64928,52.25778],[31.57533,52.29476],[31.58012568690096,52.30914706070287],[31.57734,52.31231],[31.57656,52.42603],[31.57698616539595,52.43107572244105],[31.57533,52.44267],[31.56053,52.51662],[31.59751,52.561],[31.53095,52.62016],[31.48658,52.68672],[31.53761426834969,52.71223713417484],[31.54574,52.71827286492622],[31.54574,52.784334144204855],[31.537930465242486,52.79459863042084],[31.41263,52.86421],[31.2869,52.98254],[31.28545990184375,52.996952673834386],[31.25879,53.0167],[31.281240955881785,53.03917638741314],[31.27951,53.0565],[31.32388,53.11566],[31.38304,53.18961],[31.403403599329913,53.190536187062335],[31.41787,53.19605],[31.56299,53.20249],[31.66826,53.20093],[31.74746,53.18418],[31.77744,53.14688],[31.835976062652257,53.11393068453447],[32.01166,53.10826],[32.24832,53.15264],[32.44799,53.26357],[32.47018,53.29315],[32.53674,53.33013],[32.65427385444742,53.33013],[32.670672971073074,53.33216242768268],[32.69944,53.40408],[32.68984851084236,53.4424524417483],[32.68574,53.44815],[32.61887189947647,53.478726584580706],[32.55893,53.49283],[32.42581,53.55939],[32.38143,53.64074],[32.41841,53.64814],[32.44799,53.67032],[32.45054458437002,53.67542571659901],[32.4502,53.69292],[32.3524560737368,53.727481150501696],[32.34446,53.72948],[32.18176,53.77386],[32.09282973513476,53.789324769163514],[31.99219,53.79688],[31.972447932573118,53.79631097139221],[31.84896,53.77386],[31.76761,53.80344],[31.768694174822905,53.80642166402445],[31.7542,53.81045],[31.78301,53.85498],[31.793726516350727,53.87526483452102],[31.79719,53.88479],[31.827125524525968,53.94466779584583],[31.835293003265626,53.98764180198242],[31.81198,54.0401],[31.77743077439823,54.060829535361066],[31.62842,54.11118],[31.566420163455494,54.134558524727005],[31.50877,54.15103],[31.45831900744919,54.175320657170644],[31.40361,54.19595],[31.39047683007184,54.20798465423123],[31.30909,54.24717],[31.25732,54.35071],[31.208158663918134,54.42936414952092],[31.18477,54.45298],[31.127009945075088,54.47337146355206],[31.08722,54.47643],[31.085275430525577,54.48810531090393],[31.07481,54.4918],[31.08099880483684,54.513782426169065],[31.07983,54.5208],[31.10941,54.57997],[31.14980347563386,54.627100273463256],[31.13853941043084,54.63555014739229],[31.09462,54.64653],[31.01327,54.62434],[30.97629,54.67611],[30.95027986278172,54.711876136962594],[30.825894428194296,54.77049533151998],[30.76182,54.77965],[30.78401,54.84621],[30.7988,54.92016],[30.84317,54.94235],[30.89494,54.97932],[30.89494,55.0163],[30.943178695454133,55.0163],[30.95016705820745,55.02321528512965],[30.97629,55.07547],[30.957071815169535,55.139516181532805],[30.93660993173205,55.16108092154845],[30.88755,55.19379],[30.8317803251657,55.26350366451963],[30.81445,55.27871],[30.813373588418127,55.286512603953724],[30.7988,55.30473],[30.85796,55.37868],[30.87275,55.45264],[30.87275,55.48961],[30.90234,55.54138],[30.88015,55.59315],[30.81359,55.57836],[30.73963,55.59315],[30.67308,55.63752],[30.652142256074043,55.65845774392596],[30.62559,55.66626],[30.593559695442856,55.694301967174674],[30.50298,55.72627],[30.44381,55.78543],[30.19976,55.8372],[30.08883,55.81502],[30.045720315733988,55.83656998415642],[30.04268,55.83643],[29.944077875944423,55.844669393918906],[29.88176,55.82241],[29.8152,55.77804],[29.768777705382433,55.77804],[29.74414,55.77041],[29.68457,55.76973],[29.63008,55.75117],[29.56044135215791,55.71980081537854],[29.51938,55.6819],[29.43063,55.6819],[29.35668,55.74845],[29.32709,55.81502],[29.33449,55.85939],[29.39700426269138,55.896898557614826],[29.39609,55.91221],[29.375,55.93872],[29.28301,55.96787],[29.17014145959797,55.9986072176638],[29.06825,56.01469],[28.932160464406028,55.996137658884614],[28.79473,55.94258],[28.75042739087665,55.95309067280074],[28.72066,55.94813],[28.68970181463593,56.00386645706877],[28.63691,56.06177],[28.578088057009648,56.08614070355318],[28.528880892346073,56.091323722818856],[28.40703,56.08901],[28.39209,56.08672],[28.34720867498102,56.066476615345096],[28.31391,56.04428],[28.21037,56.07386],[28.13642,56.14042],[28.02756,56.12035],[27.97397235175822,56.10886480444929],[27.900255327128217,56.0778389195435],[27.86568,56.04327],[27.841274061670195,56.0395144908787],[27.69424,55.94155],[27.64229,55.91172],[27.590447488287417,55.81111570115427],[27.58047,55.78118],[27.49568,55.76576],[27.38776,55.78118],[27.27984,55.79659],[27.13338,55.81201],[26.9715,55.81201],[26.931936273615857,55.79618553600904],[26.86696584702402,55.74458039744858],[26.84816,55.71951],[26.823426517019435,55.70999769150713],[26.82246,55.70923],[26.8177056672939,55.70779749643256],[26.74795,55.68097],[26.67858,55.68097],[26.6625252326397,55.68364290180918],[26.62022,55.67964],[26.60807486848552,55.67412321295423],[26.59378,55.66555],[26.592902978440776,55.65677067249546],[26.59082,55.62266],[26.588888588465313,55.61658506479305],[26.58608,55.58847],[26.571750925177703,55.5626813823302],[26.5666,55.54648],[26.538968456340083,55.489110707599664],[26.53212,55.46513],[26.52166104321843,55.453176629638264],[26.51924,55.44815],[26.46953,55.37192],[26.45762,55.34248],[26.462155653558888,55.33953645831652],[26.59378,55.32638],[26.71712,55.30325],[26.723453153253537,55.29944912208733],[26.76016,55.29336],[26.77568,55.2731],[26.73438,55.24678],[26.675,55.2249],[26.64844,55.2042],[26.612496758271554,55.14791654849293],[26.6092,55.11825],[26.53212,55.11054],[26.500322665464807,55.13325069816505],[26.445137571825153,55.13493102780944],[26.4242,55.12596],[26.33867048102275,55.13817284180355],[26.306320386570153,55.139157869083974],[26.266640316460386,55.13034452402212],[26.25078,55.12451],[26.23125,55.09014],[26.21582,55.05039],[26.1752,55.00327],[26.171632753592352,55.00149310090165],[26.16211,54.98721],[26.120884497711046,54.97621463123245],[26.09297,54.96231],[26.049591632586043,54.95719991221096],[26.04648,54.95637],[26.042546697490078,54.95637],[25.96445,54.94717],[25.85928,54.91929],[25.78086,54.83325],[25.72246,54.71787],[25.72393,54.63604],[25.725808035351484,54.624917938502115],[25.73044,54.6172],[25.7279515189718,54.61222384484405],[25.73164,54.59038],[25.72481,54.56426],[25.68516,54.53579],[25.62031,54.4604],[25.56758,54.37705],[25.54736,54.33184],[25.553221319843416,54.31963853201887],[25.60002783221492,54.310274800561054],[25.6169,54.31011],[25.623145624270705,54.30886],[25.6996,54.30886],[25.717452966499554,54.28208199771026],[25.74815,54.25967],[25.76504,54.22119],[25.76523,54.17979],[25.74922,54.15698],[25.732451178977975,54.15294962058465],[25.72273,54.13156],[25.59939,54.12386],[25.49918,54.15469],[25.49918,54.1730515165512],[25.49736,54.17524],[25.49918,54.17766221480987],[25.49918,54.22406],[25.48376,54.26261],[25.451552929546228,54.288373985004924],[25.37061,54.25122],[25.341428451267113,54.25123678644083],[25.31418,54.23177],[25.25003771544255,54.23931730276899],[25.17949,54.21426],[25.156763643196495,54.19444873421757],[25.1523,54.18552],[25.138748154150186,54.17874407707509],[25.11143,54.15493],[25.049992250000003,54.134366125],[25.04438,54.13156],[24.97501,54.13156],[24.918716686092324,54.14179635495821],[24.882932224510167,54.14425076042808],[24.842752817639198,54.129183075616744],[24.82568,54.11899],[24.80011909650873,54.03424318241157],[24.80542,54.02364],[24.77458,53.96968],[24.6975,53.95427],[24.63583,53.96968],[24.54333,53.94656],[24.37374,53.87719],[24.2427,53.87719],[24.21187,53.92343],[24.15791,53.94656],[24.04999,53.92343],[23.8804,53.91573],[23.77248,53.90031],[23.64144,53.91573],[23.57206,53.90031],[23.5305,53.91629],[23.60259,53.7802],[23.8792,53.10521],[23.95681,52.87941],[23.94606,52.773],[23.909928225287892,52.74436358159873],[23.90127,52.70361],[23.84473,52.66421],[23.47959,52.55156],[23.41094,52.51621],[23.30332,52.42837],[23.214735404217823,52.347588562523974],[23.18414,52.27757]]]]}},{"type":"Feature","properties":{"NAME":"Ukraine","SUBJECTO":"Ukraine","PARTOF":"Ukraine","BORDERPRECISION":3,"displayFraction":0.0021793859695434024,"comparisonScope":"Intersection with the contemporary Belarus reference; not the original polity extent."},"geometry":{"type":"MultiPolygon","coordinates":[[[[23.58926,51.54843],[23.611874873484872,51.5237245182273],[23.61377,51.52539],[23.60859,51.6105],[23.640419297748544,51.62584223960786],[23.60606,51.62756],[23.58926,51.56875],[23.58926,51.54843]]],[[[23.87502326310381,51.61916],[23.905201906648017,51.60564541241813],[23.89169,51.61916],[23.87502326310381,51.61916]]],[[[24.025137459501593,51.6144256084546],[24.12686,51.66465],[24.14194884844269,51.67548852408043],[24.11011,51.66116],[24.025137459501593,51.6144256084546]]],[[[24.289658297728042,51.78869233977619],[24.32373,51.83843],[24.36191,51.86753],[24.49522,51.88306],[24.61133,51.8895],[24.68516,51.88828],[24.76116844863556,51.89282582942461],[24.60575,51.90478],[24.38733,51.89638],[24.29492,51.81237],[24.289658297728042,51.78869233977619]]],[[[24.963464100911544,51.909971049636454],[24.97383,51.91113],[24.98321030219107,51.91308848023565],[24.963464100911544,51.909971049636454]]],[[[25.101570438963048,51.93177574626821],[25.169693172849747,51.93422896657177],[25.1434,51.93838],[25.101570438963048,51.93177574626821]]],[[[25.593445703812833,51.92470036402129],[25.78574,51.92383],[25.91230669466798,51.9144882805082],[25.73145,51.94678],[25.593445703812833,51.92470036402129]]],[[[25.973547926944136,51.90527052449903],[26.125807889587698,51.879210817610065],[26.08429,51.91318],[25.973547926944136,51.90527052449903]]],[[[26.407394774193545,51.83758],[26.422445689203474,51.8296826004518],[26.41192,51.83758],[26.407394774193545,51.83758]]],[[[26.590393566420676,51.798351054167114],[26.77344,51.7707],[26.790002466087216,51.76915814603012],[26.70594,51.78717],[26.590393566420676,51.798351054167114]]],[[[27.00711240410557,51.75706118924958],[27.07412,51.76084],[27.14199,51.75205],[27.173422651906403,51.71807830222431],[27.17638,51.75357],[27.05037,51.77037],[27.00711240410557,51.75706118924958]]],[[[27.233859061958405,51.65276],[27.25199,51.633164493092956],[27.25199,51.65276],[27.233859061958405,51.65276]]],[[[27.306244365404584,51.59677634660555],[27.34766,51.59414],[27.45234,51.6061],[27.60137,51.60161],[27.683924635964278,51.57433465071105],[27.68883,51.59396],[27.57962,51.61076],[27.49561,51.63596],[27.306244365404584,51.59677634660555]]],[[[27.72963146797183,51.48127238533021],[27.74131,51.48257],[27.753552154154647,51.494559897824296],[27.72963146797183,51.48127238533021]]],[[[27.782411030246266,51.52282412087618],[27.78887,51.52915],[27.82881,51.57744],[27.85859,51.59238],[27.868058847402423,51.590350561197546],[27.84004,51.60236],[27.78964,51.60236],[27.782411030246266,51.52282412087618]]],[[[28.00923119599267,51.56009337889372],[28.01074,51.55977],[28.08027,51.56504],[28.09545247681161,51.57370555955177],[28.00923119599267,51.56009337889372]]],[[[28.14618106303273,51.60193582801837],[28.18379,51.60786],[28.277012519518735,51.58536069605901],[28.27688,51.58555],[28.17607,51.62756],[28.14618106303273,51.60193582801837]]],[[[28.707293142861072,51.43659463697099],[28.73125,51.4334],[28.79326,51.51035],[28.84951,51.54019],[28.92754,51.56216],[28.961921715176736,51.56875],[28.89854,51.56875],[28.76413,51.50154],[28.707293142861072,51.43659463697099]]],[[[29.338777460477264,51.38749542243983],[29.34648,51.38257],[29.46963,51.40835],[29.55313,51.43457],[29.69814789947074,51.43929235100611],[29.6462,51.48474],[29.5454,51.45114],[29.46139,51.40914],[29.338777460477264,51.38749542243983]]],[[[29.940960774380674,51.46299607562669],[30.06377,51.48203],[30.077671635384966,51.48143505530734],[30.05784,51.48474],[29.95703,51.46794],[29.940960774380674,51.46299607562669]]],[[[30.288582541757446,51.411378729121274],[30.293491883383563,51.40854618444465],[30.29306,51.40914],[30.288582541757446,51.411378729121274]]],[[[30.31643321611446,51.37700313195749],[30.3334,51.32554],[30.44951,51.27432],[30.54453,51.26504],[30.57695,51.31836],[30.63252,51.35542],[30.61172,51.40635],[30.60234,51.47124],[30.56074,51.53149],[30.53301,51.59634],[30.58389,51.68897],[30.60887936540011,51.72544655748648],[30.49468,51.62756],[30.46948,51.53515],[30.57869,51.44274],[30.60389,51.37553],[30.54508,51.28313],[30.42748,51.29153],[30.36027,51.31673],[30.31643321611446,51.37700313195749]]],[[[30.685556815077145,51.83094005262734],[30.71173369031146,51.855058005645],[30.6963,51.84598],[30.685556815077145,51.83094005262734]]],[[[30.89129742711299,51.984538035258524],[30.98066,52.04619],[31.06596773745482,52.072792453407445],[31.06593,52.0728],[30.91472,52.0392],[30.89129742711299,51.984538035258524]]],[[[31.28302580024073,52.07825317087614],[31.314883741846085,52.09197127070198],[31.29275,52.0896],[31.28302580024073,52.07825317087614]]],[[[31.451835131939813,52.106643386297435],[31.57373,52.10811],[31.76338,52.10107],[31.761129779115496,52.11270162194162],[31.52797,52.1148],[31.451835131939813,52.106643386297435]]]]}},{"type":"Feature","properties":{"NAME":"Poland","SUBJECTO":"Poland","PARTOF":"Poland","BORDERPRECISION":3,"displayFraction":0.00282207160653915,"comparisonScope":"Intersection with the contemporary Belarus reference; not the original polity extent."},"geometry":{"type":"MultiPolygon","coordinates":[[[[23.1751,52.28662],[23.19697,52.25693],[23.32715,52.20845],[23.4584,52.16953],[23.50117,52.14038],[23.59795,52.10308],[23.6333,52.06958],[23.65244,52.04038],[23.65107,51.973],[23.60742,51.87979],[23.621988324423835,51.823575096445595],[23.67438,51.94868],[23.66863,52.06129],[23.57069,52.12706],[23.50338,52.20634],[23.31397,52.27196],[23.18414,52.27757],[23.214735404217823,52.347588562523974],[23.2041,52.33789],[23.18125,52.30698],[23.1751,52.28662]]],[[[23.48467,53.9398],[23.59893,53.59922],[23.78926,53.27095],[23.85918,53.11211],[23.88711,53.02754],[23.90938,52.90488],[23.91631,52.81875],[23.91543,52.77026],[23.909928225287892,52.74436358159873],[23.94606,52.773],[23.95681,52.87941],[23.8792,53.10521],[23.60259,53.7802],[23.5305,53.91629],[23.523583526247858,53.929351239693155],[23.48467,53.9398]]],[[[23.54017752238439,51.628220922594565],[23.6083312893915,51.790963769707716],[23.58135,51.7624],[23.54482,51.71025],[23.54017752238439,51.628220922594565]]],[[[23.576100454720734,51.5628078494712],[23.60527,51.51792],[23.611874873484872,51.5237245182273],[23.58926,51.54843],[23.576100454720734,51.5628078494712]]]]}},{"type":"Feature","properties":{"NAME":"Russia","SUBJECTO":"Russia","PARTOF":"Russia","BORDERPRECISION":3,"displayFraction":0.0032993916792931235,"comparisonScope":"Intersection with the contemporary Belarus reference; not the original polity extent."},"geometry":{"type":"MultiPolygon","coordinates":[[[[28.13642,56.14042],[28.21037,56.07386],[28.31391,56.04428],[28.34720867498102,56.066476615345096],[28.31631,56.05254],[28.28428,56.05591],[28.14795,56.14292],[28.140978964434005,56.14358743957546],[28.13642,56.14042]]],[[[28.528880892346073,56.091323722818856],[28.578088057009648,56.08614070355318],[28.56397,56.09199],[28.528880892346073,56.091323722818856]]],[[[28.68970181463593,56.00386645706877],[28.72066,55.94813],[28.75042739087665,55.95309067280074],[28.74082,55.95537],[28.69082,56.00264],[28.68970181463593,56.00386645706877]]],[[[28.932160464406028,55.996137658884614],[29.06825,56.01469],[29.17014145959797,55.9986072176638],[29.0874,56.02114],[29.03174,56.02178],[28.94746,56.0021],[28.932160464406028,55.996137658884614]]],[[[29.32709,55.81502],[29.35668,55.74845],[29.43063,55.6819],[29.51938,55.6819],[29.56044135215791,55.71980081537854],[29.48223,55.68457],[29.41299,55.72485],[29.35342,55.78438],[29.37315,55.83472],[29.39795,55.88106],[29.39700426269138,55.896898557614826],[29.33449,55.85939],[29.32709,55.81502]]],[[[29.768777705382433,55.77804],[29.8152,55.77804],[29.88176,55.82241],[29.944077875944423,55.844669393918906],[29.93701,55.84526],[29.88164,55.83232],[29.82393,55.79512],[29.768777705382433,55.77804]]],[[[30.045720315733988,55.83656998415642],[30.08883,55.81502],[30.19976,55.8372],[30.44381,55.78543],[30.50298,55.72627],[30.593559695442856,55.694301967174674],[30.58672,55.70029],[30.47539,55.7688],[30.45625,55.78682],[30.23359,55.84522],[30.045720315733988,55.83656998415642]]],[[[30.652142256074043,55.65845774392596],[30.67308,55.63752],[30.73963,55.59315],[30.81359,55.57836],[30.88015,55.59315],[30.90234,55.54138],[30.87275,55.48961],[30.87275,55.45264],[30.85796,55.37868],[30.7988,55.30473],[30.813373588418127,55.286512603953724],[30.81055,55.30698],[30.821,55.33027],[30.86182,55.3604],[30.90059,55.39741],[30.90879,55.52534],[30.90684,55.57002],[30.88223,55.59639],[30.85596,55.60752],[30.80078,55.60112],[30.72168,55.62212],[30.66231,55.65547],[30.652142256074043,55.65845774392596]]],[[[30.76182,54.77965],[30.825894428194296,54.77049533151998],[30.79883,54.78325],[30.79102,54.80601],[30.80449,54.86094],[30.82988,54.91499],[30.8668,54.94072],[30.943178695454133,55.0163],[30.89494,55.0163],[30.89494,54.97932],[30.84317,54.94235],[30.7988,54.92016],[30.78401,54.84621],[30.76182,54.77965]]],[[[30.8317803251657,55.26350366451963],[30.88755,55.19379],[30.93660993173205,55.16108092154845],[30.87744,55.22344],[30.8317803251657,55.26350366451963]]],[[[30.95016705820745,55.02321528512965],[30.97773,55.05049],[30.97773,55.08779],[30.95889,55.1376],[30.957071815169535,55.139516181532805],[30.97629,55.07547],[30.95016705820745,55.02321528512965]]],[[[30.95027986278172,54.711876136962594],[30.97629,54.67611],[31.01327,54.62434],[31.09462,54.64653],[31.13853941043084,54.63555014739229],[31.12129,54.64849],[30.98418,54.6959],[30.95027986278172,54.711876136962594]]],[[[31.07983,54.5208],[31.08099880483684,54.513782426169065],[31.08193,54.51709],[31.15488,54.61094],[31.15215,54.62534],[31.14980347563386,54.627100273463256],[31.10941,54.57997],[31.07983,54.5208]]],[[[31.085275430525577,54.48810531090393],[31.08722,54.47643],[31.127009945075088,54.47337146355206],[31.085275430525577,54.48810531090393]]],[[[31.208158663918134,54.42936414952092],[31.25732,54.35071],[31.30909,54.24717],[31.39047683007184,54.20798465423123],[31.29912,54.2917],[31.24551,54.39165],[31.208158663918134,54.42936414952092]]],[[[31.27951,53.0565],[31.281240955881785,53.03917638741314],[31.30293,53.06089],[31.36455,53.13897],[31.38838,53.18481],[31.403403599329913,53.190536187062335],[31.38304,53.18961],[31.32388,53.11566],[31.27951,53.0565]]],[[[31.28545990184375,52.996952673834386],[31.2869,52.98254],[31.41263,52.86421],[31.537930465242486,52.79459863042084],[31.53516,52.79824],[31.44277,52.86182],[31.35303,52.93345],[31.29512,52.9898],[31.28545990184375,52.996952673834386]]],[[[31.45831900744919,54.175320657170644],[31.50877,54.15103],[31.566420163455494,54.134558524727005],[31.45831900744919,54.175320657170644]]],[[[31.48658,52.68672],[31.53095,52.62016],[31.59751,52.561],[31.56053,52.51662],[31.57533,52.44267],[31.57698616539595,52.43107572244105],[31.58555,52.53247],[31.61592,52.54619],[31.52617,52.63301],[31.51943,52.69873],[31.53761426834969,52.71223713417484],[31.48658,52.68672]]],[[[31.54574,52.71827286492622],[31.56348,52.73145],[31.56484,52.75923],[31.54574,52.784334144204855],[31.54574,52.71827286492622]]],[[[31.57533,52.29476],[31.64928,52.25778],[31.68626,52.20601],[31.707096504228517,52.1976753983086],[31.69063,52.22065],[31.6499,52.26221],[31.60156,52.28481],[31.58012568690096,52.30914706070287],[31.57533,52.29476]]],[[[31.76761,53.80344],[31.84896,53.77386],[31.972447932573118,53.79631097139221],[31.8208,53.79194],[31.768694174822905,53.80642166402445],[31.76761,53.80344]]],[[[31.77743077439823,54.060829535361066],[31.81198,54.0401],[31.835293003265626,53.98764180198242],[31.83779,54.00078],[31.82598,54.03071],[31.79199,54.05591],[31.77743077439823,54.060829535361066]]],[[[31.793726516350727,53.87526483452102],[31.82529,53.93501],[31.827125524525968,53.94466779584583],[31.79719,53.88479],[31.793726516350727,53.87526483452102]]],[[[31.835976062652257,53.11393068453447],[31.84971,53.1062],[32.05547,53.08945],[32.14199,53.09116],[32.25068,53.12837],[32.42627,53.2106],[32.46934,53.27031],[32.57803,53.3124],[32.64443,53.32891],[32.65427385444742,53.33013],[32.53674,53.33013],[32.47018,53.29315],[32.44799,53.26357],[32.24832,53.15264],[32.01166,53.10826],[31.835976062652257,53.11393068453447]]],[[[32.09282973513476,53.789324769163514],[32.18176,53.77386],[32.34446,53.72948],[32.3524560737368,53.727481150501696],[32.20039,53.78125],[32.09282973513476,53.789324769163514]]],[[[32.38143,53.64074],[32.42581,53.55939],[32.55893,53.49283],[32.61887189947647,53.478726584580706],[32.46963,53.54697],[32.44238,53.57925],[32.4252,53.61729],[32.45098,53.65332],[32.45054458437002,53.67542571659901],[32.44799,53.67032],[32.41841,53.64814],[32.38143,53.64074]]],[[[32.670672971073074,53.33216242768268],[32.7043,53.33633],[32.71025,53.37144],[32.70645,53.41943],[32.68984851084236,53.4424524417483],[32.69944,53.40408],[32.670672971073074,53.33216242768268]]]]}}]}