{"type":"FeatureCollection","name":"Regional historical snapshot 1938","license":"GPL-3.0-only","attribution":"André Ourednik and historical-basemaps contributors","upstream":"https://raw.githubusercontent.com/aourednik/historical-basemaps/62d8f1a03a71f2d3ff17f2d166f7553f256bce68/geojson/world_1938.geojson","revision":"62d8f1a03a71f2d3ff17f2d166f7553f256bce68","modification":"Clipped to 12–40°E / 46–61°N; coordinates rounded to five decimal places. Display precision remains approximate, not five-decimal historical accuracy.","modified":"2026-09-08","features":[{"type":"Feature","properties":{"NAME":"Estonia","SUBJECTO":"Estonia","PARTOF":"Estonia","BORDERPRECISION":3},"geometry":{"type":"MultiPolygon","coordinates":[[[[28.01309,59.45822],[28.07843,59.43415],[28.15048,59.3752],[28.13083,59.2966],[28.05223,59.27695],[27.96709,59.27695],[27.91469,59.27695],[27.87539,59.2573],[27.84919,59.19836],[27.77059,59.07391],[27.67235,58.98222],[27.52825,58.92327],[27.43656,58.86432],[27.39726,58.79227],[27.41036,58.72023],[27.46931,58.52374],[27.50206,58.43859],[27.51515,58.36654],[27.43656,58.3076],[27.43656,58.229],[27.51515,58.12421],[27.60685,58.08491],[27.64615,58.05216],[27.64615,58.01941],[27.6527,57.98011],[27.67235,57.91462],[27.75095,57.89497],[27.77714,57.86877],[27.69855,57.83602],[27.58065,57.81637],[27.50861,57.79017],[27.48241,57.74432],[27.44311,57.69192],[27.38416,57.69192],[27.37106,57.63953],[27.36451,57.60023],[27.31211,57.57403],[27.34886,57.52636],[27.29246,57.51508],[27.25317,57.52163],[27.11562,57.54128],[27.04358,57.56748],[26.96498,57.60023],[26.87328,57.61988],[26.81434,57.57403],[26.72264,57.58713],[26.66369,57.56748],[26.59165,57.52818],[26.52615,57.52163],[26.46065,57.56093],[26.40825,57.57403],[26.32966,57.57403],[26.23796,57.62643],[26.18556,57.70502],[26.09387,57.75742],[26.02837,57.77707],[25.99562,57.82947],[25.91048,57.82947],[25.79913,57.84912],[25.70743,57.90152],[25.69434,57.90152],[25.56989,57.90807],[25.52404,57.95391],[25.4127,57.97356],[25.3603,58.01941],[25.27515,58.05871],[25.27515,58.02596],[25.22276,57.98666],[25.16381,58.01286],[25.15726,58.04561],[25.11796,58.05871],[25.07211,58.05871],[24.94767,58.00631],[24.90182,57.99321],[24.84287,57.98666],[24.74463,57.98011],[24.67913,57.96046],[24.56123,57.94736],[24.43679,57.90807],[24.38439,57.86222],[24.34565,57.86222],[24.41564,57.94793],[24.4144,58.10589],[24.49679,58.21315],[24.33109,58.30793],[24.05835,58.11153],[23.90807,58.22445],[23.67086,58.24139],[23.69047,58.66548],[23.51187,58.58088],[23.36082,58.76742],[23.43198,58.85808],[23.33789,58.97239],[23.45698,59.00549],[23.41576,59.11896],[23.57018,59.13807],[24.03211,59.17574],[24.02956,59.23542],[24.28195,59.28414],[24.34157,59.36888],[24.53757,59.32341],[24.57092,59.37433],[24.71381,59.35183],[24.75122,59.44846],[25.24829,59.3618],[25.44879,59.49396],[25.48999,59.42004],[25.72112,59.45984],[26.34326,59.44665],[26.8619,59.37175],[26.99902,59.31773],[27.26509,59.33804],[27.70204,59.2975],[27.8936,59.34611],[28.01585,59.45415],[28.01309,59.45822]]]]}},{"type":"Feature","properties":{"NAME":"Latvia","SUBJECTO":"Latvia","PARTOF":"Latvia","BORDERPRECISION":3},"geometry":{"type":"MultiPolygon","coordinates":[[[[27.34886,57.52636],[27.51515,57.52818],[27.50861,57.47578],[27.50861,57.42339],[27.6134,57.39064],[27.7051,57.35134],[27.7444,57.31859],[27.83609,57.29239],[27.82954,57.25309],[27.81644,57.20069],[27.80989,57.1614],[27.76404,57.12865],[27.72475,57.1221],[27.6789,57.109],[27.73785,57.0697],[27.7051,57.01075],[27.7182,56.95835],[27.68545,56.91906],[27.6396,56.88631],[27.61995,56.84046],[27.71165,56.86666],[27.77714,56.87321],[27.83609,56.84046],[27.87539,56.83391],[27.90814,56.81426],[27.88194,56.77496],[27.86229,56.74221],[27.91469,56.69636],[27.97364,56.67017],[27.98674,56.59812],[28.05223,56.55227],[28.12428,56.53262],[28.09808,56.49332],[28.15703,56.44093],[28.15048,56.35578],[28.18978,56.25099],[28.17013,56.21169],[28.16358,56.15929],[28.13642,56.14042],[28.02756,56.12035],[27.91964,56.09722],[27.86568,56.04327],[27.76547,56.02785],[27.7038,55.95847],[27.64214,55.91993],[27.6113,55.87368],[27.58047,55.78118],[27.49568,55.76576],[27.38776,55.78118],[27.27984,55.79659],[27.13338,55.81201],[26.9715,55.81201],[26.89442,55.78118],[26.84816,55.71951],[26.74795,55.68097],[26.67858,55.68097],[26.63233,55.68867],[26.59378,55.66555],[26.4242,55.68097],[26.30086,55.7118],[26.23149,55.78888],[26.16982,55.85826],[26.02336,55.91993],[25.79981,56.02014],[25.64564,56.12806],[25.47606,56.14347],[25.21397,56.15889],[25.06751,56.21285],[24.93646,56.29765],[24.89792,56.41327],[24.81313,56.40556],[24.73604,56.37473],[24.57416,56.29765],[24.39687,56.28994],[24.28895,56.28994],[24.16562,56.25139],[24.0577,56.28994],[23.91894,56.33619],[23.64915,56.34389],[23.5181,56.31306],[23.35623,56.34389],[23.22518,56.36702],[23.15581,56.3516],[23.03247,56.32077],[22.98622,56.34389],[22.93226,56.40556],[22.86288,56.40556],[22.74726,56.37473],[22.66246,56.37473],[22.32329,56.38244],[22.12287,56.42098],[21.7837,56.34389],[21.5139,56.27452],[21.32119,56.22827],[21.20556,56.1666],[21.18244,56.08181],[20.94545,56.06996],[20.91601,56.09667],[20.94905,56.47319],[20.96483,56.60902],[21.02205,56.68388],[21.32438,56.85442],[21.33975,57.17707],[21.45959,57.24961],[21.57951,57.3726],[21.67733,57.46366],[21.81025,57.47538],[22.2854,57.56504],[22.35993,57.58567],[22.43297,57.61556],[22.56364,57.61556],[22.58542,57.50865],[22.88137,57.33414],[23.07089,57.26132],[23.17466,57.04849],[23.21545,56.98067],[23.41447,56.89241],[23.76781,56.86588],[24.15838,56.97549],[24.26631,57.03015],[24.3465,57.15972],[24.32294,57.33689],[24.23619,57.72816],[24.32544,57.83747],[24.34565,57.86222],[24.38439,57.86222],[24.43679,57.90807],[24.56123,57.94736],[24.67913,57.96046],[24.74463,57.98011],[24.84287,57.98666],[24.90182,57.99321],[24.94767,58.00631],[25.07211,58.05871],[25.11796,58.05871],[25.15726,58.04561],[25.16381,58.01286],[25.22276,57.98666],[25.27515,58.02596],[25.27515,58.05871],[25.3603,58.01941],[25.4127,57.97356],[25.52404,57.95391],[25.56989,57.90807],[25.69434,57.90152],[25.70743,57.90152],[25.79913,57.84912],[25.91048,57.82947],[25.99562,57.82947],[26.02837,57.77707],[26.09387,57.75742],[26.18556,57.70502],[26.23796,57.62643],[26.32966,57.57403],[26.40825,57.57403],[26.46065,57.56093],[26.52615,57.52163],[26.59165,57.52818],[26.66369,57.56748],[26.72264,57.58713],[26.81434,57.57403],[26.87328,57.61988],[26.96498,57.60023],[27.04358,57.56748],[27.11562,57.54128],[27.25317,57.52163],[27.29246,57.51508],[27.34886,57.52636]]]]}},{"type":"Feature","properties":{"NAME":"Lithuania","SUBJECTO":"Lithuania","PARTOF":"Lithuania","BORDERPRECISION":3},"geometry":{"type":"MultiPolygon","coordinates":[[[[25.84591,54.94851],[24.94547,54.96547],[24.82153,54.12122],[24.76688,54.10073],[24.80542,54.02364],[24.77458,53.96968],[24.6975,53.95427],[24.63583,53.96968],[24.54333,53.94656],[24.37374,53.87719],[24.2427,53.87719],[24.21187,53.92343],[24.15791,53.94656],[24.04999,53.92343],[23.8804,53.91573],[23.77248,53.90031],[23.64144,53.91573],[23.57206,53.90031],[23.5305,53.91629],[23.48981,53.99313],[23.48289,54.00618],[23.43854,54.08992],[23.31062,54.30889],[23.00508,54.41826],[22.98706,54.42471],[22.69904,54.4149],[22.68559,54.43219],[22.67017,54.49386],[22.66246,54.57095],[22.6933,54.66345],[22.72413,54.73283],[22.82434,54.78678],[22.80122,54.84074],[22.79351,54.90241],[22.71642,54.93325],[22.63163,54.94866],[22.58538,54.99491],[22.54684,55.05658],[22.44663,55.04887],[22.331,55.04887],[22.13058,55.04887],[22.03037,55.02574],[21.99183,55.072],[21.76057,55.10283],[21.64495,55.13367],[21.54474,55.18763],[21.43682,55.18763],[21.39827,55.21075],[21.37515,55.28012],[21.32119,55.26471],[21.16232,55.22138],[21.14303,55.25584],[21.20093,55.26139],[21.2163,55.34367],[21.01845,55.63401],[21.01482,55.69706],[20.99596,56.02413],[20.94545,56.06996],[21.18244,56.08181],[21.20556,56.1666],[21.32119,56.22827],[21.5139,56.27452],[21.7837,56.34389],[22.12287,56.42098],[22.32329,56.38244],[22.66246,56.37473],[22.74726,56.37473],[22.86288,56.40556],[22.93226,56.40556],[22.98622,56.34389],[23.03247,56.32077],[23.15581,56.3516],[23.22518,56.36702],[23.35623,56.34389],[23.5181,56.31306],[23.64915,56.34389],[23.91894,56.33619],[24.0577,56.28994],[24.16562,56.25139],[24.28895,56.28994],[24.39687,56.28994],[24.57416,56.29765],[24.73604,56.37473],[24.81313,56.40556],[24.89792,56.41327],[24.93646,56.29765],[25.06751,56.21285],[25.21397,56.15889],[25.47606,56.14347],[25.64564,56.12806],[25.79981,56.02014],[26.02336,55.91993],[26.16982,55.85826],[26.23149,55.78888],[26.30086,55.7118],[26.4242,55.68097],[26.59378,55.66555],[26.58608,55.58847],[26.54753,55.51909],[26.53212,55.46513],[26.47816,55.40346],[26.43961,55.34179],[26.59378,55.32638],[26.71712,55.30325],[26.75566,55.28012],[26.7017,55.257],[26.66316,55.257],[26.61691,55.18763],[26.6092,55.11825],[26.53212,55.11054],[26.47816,55.14908],[26.4242,55.12596],[26.31628,55.14137],[26.2469,55.12596],[26.20836,55.05658],[26.16211,54.98721],[26.04648,54.95637],[25.85377,54.95637],[25.84591,54.94851]]]]}},{"type":"Feature","properties":{"NAME":"Norway","SUBJECTO":"Norway","PARTOF":"Norway","BORDERPRECISION":3},"geometry":{"type":"MultiPolygon","coordinates":[[[[12,61],[12.4296,61],[12.17404,60.95641],[12.43103,60.62585],[12.54796,60.43387],[12.43586,60.2781],[12.42277,60.03878],[12.07703,59.86592],[12,59.86346],[12,61]]]]}},{"type":"Feature","properties":{"NAME":"Romania","SUBJECTO":"Romania","PARTOF":"Romania","BORDERPRECISION":3},"geometry":{"type":"MultiPolygon","coordinates":[[[[24.32653,48.50856],[24.67756,48.53556],[24.94757,48.85958],[25.48761,48.94059],[25.51462,49.21061],[25.67663,49.21061],[25.94665,48.85958],[26.08166,49.1296],[26.16266,48.94059],[26.9894,48.68076],[27.10773,48.64357],[27.10773,48.83258],[27.48576,48.67057],[27.48576,48.75158],[27.64777,48.75158],[27.70612,48.4397],[27.72314,48.43402],[27.81961,48.3943],[27.88203,48.33756],[27.94444,48.31486],[28.01254,48.30918],[28.05793,48.28081],[28.08063,48.25244],[28.11467,48.21839],[28.16007,48.22407],[28.21681,48.21272],[28.29625,48.22974],[28.34732,48.22974],[28.35867,48.20137],[28.31895,48.15597],[28.30193,48.13328],[28.34732,48.1503],[28.38704,48.13895],[28.38704,48.10491],[28.41542,48.08221],[28.42679,48.09738],[28.90822,47.81839],[29.1156,47.28267],[29.42666,46.81608],[29.80685,46.50501],[30.06607,46.28036],[30.43285,46.17575],[30.22932,46],[20.33792,46],[20.31473,46.13151],[20.39403,46.13076],[20.51258,46.1768],[20.83825,46.19802],[21.00062,46.27027],[21.33972,46.52525],[21.623,46.90353],[22.05867,47.55637],[22.32001,47.74009],[22.8263,47.86007],[22.93338,47.94048],[23.02893,48.01223],[23.0902,48.05048],[23.30014,48.01826],[23.44439,47.99612],[23.55292,48.04447],[23.98369,47.9575],[24.0438,47.95392],[24.20903,47.94409],[24.32653,48.50856]]]]}},{"type":"Feature","properties":{"NAME":"Czechoslovakia","SUBJECTO":"Czechoslovakia","PARTOF":"Czechoslovakia","BORDERPRECISION":3},"geometry":{"type":"MultiPolygon","coordinates":[[[[15.08845,50.69038],[16.27836,50.53328],[16.2044,50.46325],[16.26185,50.43738],[16.26185,49.77443],[16.55895,49.76924],[17.0327,49.74849],[17.21337,49.61601],[18.02036,49.603],[18.0846,49.75887],[18.30418,49.95466],[18.35336,49.88197],[18.55005,49.4764],[18.98096,49.48112],[18.98603,49.44375],[19.17931,49.46532],[19.26157,49.57318],[19.34842,49.56617],[19.37623,49.61634],[19.49344,49.62712],[19.58111,49.51924],[19.61372,49.44326],[19.76291,49.45454],[19.79279,49.37366],[19.7809,49.33593],[19.78216,49.2443],[19.9571,49.28204],[20.03809,49.22814],[20.10538,49.28886],[20.15238,49.36828],[20.40308,49.45993],[20.47884,49.4348],[20.69609,49.45559],[20.90317,49.34132],[21.07112,49.42218],[21.10421,49.48392],[21.33275,49.46552],[21.58501,49.49958],[21.64289,49.44101],[21.95916,49.35749],[22.00581,49.26047],[22.19643,49.21504],[22.24723,49.19489],[22.29046,49.17774],[22.37591,49.01079],[22.7561,49.01079],[22.92891,48.75158],[23.27453,48.63061],[23.32638,48.78614],[23.63744,48.61333],[23.63744,48.47508],[23.77569,48.50964],[23.8621,48.31954],[23.96578,48.35411],[24.0438,47.95392],[23.98369,47.9575],[23.55292,48.04447],[23.44439,47.99612],[23.30014,48.01826],[22.82147,48.47061],[22.60224,48.49213],[22.33041,48.67378],[21.80331,48.62449],[21.60996,48.64685],[21.2603,48.76043],[21.00687,48.71659],[20.88419,48.73078],[20.09033,48.54718],[17.51667,48.19805],[17.24883,48.05389],[17.13355,48.13673],[16.98897,48.24063],[16.91925,48.35768],[16.96074,48.60609],[16.9629,48.61903],[16.93879,48.66104],[16.91433,48.70365],[16.66915,48.79378],[16.05131,49.0479],[15.83599,48.92313],[15.07102,49.15487],[15.03593,49.04846],[14.74797,48.89239],[14.30192,48.92956],[13.03584,49.69356],[13.00293,50.01677],[13.49623,50.15835],[14.38712,50.44277],[14.47574,50.37558],[14.99275,50.65597],[15.08845,50.69038]]]]}},{"type":"Feature","properties":{"NAME":"Hungary","SUBJECTO":"Hungary","PARTOF":"Hungary","BORDERPRECISION":3},"geometry":{"type":"MultiPolygon","coordinates":[[[[21.2603,48.76043],[21.60996,48.64685],[21.80331,48.62449],[22.33041,48.67378],[22.60224,48.49213],[22.82147,48.47061],[23.30014,48.01826],[23.0902,48.05048],[23.02893,48.01223],[22.93338,47.94048],[22.8263,47.86007],[22.32001,47.74009],[22.05867,47.55637],[21.623,46.90353],[21.33972,46.52525],[21.00062,46.27027],[20.83825,46.19802],[20.51258,46.1768],[20.39403,46.13076],[20.31473,46.13151],[19.90642,46.16173],[19.50673,46.12713],[19.13782,46],[17.47304,46],[17.2924,46.10868],[16.65675,46.38427],[16.56009,46.47294],[16.39637,46.62312],[16.25957,46.8888],[16.41522,47.02314],[16.4845,47.15577],[16.3929,47.24019],[16.41081,47.40908],[16.59506,47.43725],[16.66548,47.52978],[16.60452,47.6183],[16.40087,47.64648],[16.50116,47.73504],[16.64744,47.73504],[16.72155,47.67466],[17.03687,47.69881],[17.04519,47.86388],[17.33122,47.99468],[17.24883,48.05389],[17.51667,48.19805],[20.09033,48.54718],[20.88419,48.73078],[21.00687,48.71659],[21.2603,48.76043]]]]}},{"type":"Feature","properties":{"NAME":"Germany","SUBJECTO":"Germany","PARTOF":"Germany","BORDERPRECISION":3},"geometry":{"type":"MultiPolygon","coordinates":[[[[22.54684,55.05658],[22.58538,54.99491],[22.63163,54.94866],[22.71642,54.93325],[22.79351,54.90241],[22.80122,54.84074],[22.82434,54.78678],[22.72413,54.73283],[22.6933,54.66345],[22.66246,54.57095],[22.67017,54.49386],[22.68559,54.43219],[22.69904,54.4149],[21.36674,54.36954],[20.35627,54.42146],[19.97754,54.42394],[20.18865,54.52198],[20.32671,54.56401],[20.19423,54.57505],[20.0057,54.54746],[19.93812,54.60817],[19.88181,54.52538],[19.83325,54.5309],[19.86317,54.75173],[19.94257,54.84986],[20.1271,54.84564],[20.79715,54.81798],[20.9852,54.81164],[21.13734,54.84546],[21.19194,54.95958],[21.11335,55.08924],[21.22385,55.11145],[21.19312,55.16635],[21.16232,55.22138],[21.32119,55.26471],[21.37515,55.28012],[21.39827,55.21075],[21.43682,55.18763],[21.54474,55.18763],[21.64495,55.13367],[21.76057,55.10283],[21.99183,55.072],[22.03037,55.02574],[22.13058,55.04887],[22.331,55.04887],[22.44663,55.04887],[22.54684,55.05658]]],[[[14.38712,50.44277],[13.49623,50.15835],[13.00293,50.01677],[13.03584,49.69356],[14.30192,48.92956],[14.74797,48.89239],[15.03593,49.04846],[15.07102,49.15487],[15.83599,48.92313],[16.05131,49.0479],[16.66915,48.79378],[16.91433,48.70365],[16.93879,48.66104],[16.9629,48.61903],[16.96074,48.60609],[16.91925,48.35768],[16.98897,48.24063],[17.13355,48.13673],[17.24883,48.05389],[17.33122,47.99468],[17.04519,47.86388],[17.03687,47.69881],[16.72155,47.67466],[16.64744,47.73504],[16.50116,47.73504],[16.40087,47.64648],[16.60452,47.6183],[16.66548,47.52978],[16.59506,47.43725],[16.41081,47.40908],[16.3929,47.24019],[16.4845,47.15577],[16.41522,47.02314],[16.25957,46.8888],[15.94739,46.81827],[15.98458,46.64159],[15.58399,46.69379],[15.45004,46.60548],[15.06786,46.64159],[14.81286,46.59343],[14.52177,46.36873],[14.39295,46.43693],[14.14075,46.43326],[14.11742,46.43292],[14.03665,46.48106],[13.5689,46.51043],[13.35401,46.56066],[12.95189,46.59746],[12.36185,46.70854],[12.21781,46.88432],[12.07475,46.92751],[12.06433,47.09104],[12,47.07406],[12,54.09137],[12.04107,54.09666],[12.31188,54.20194],[12.65252,54.32143],[12.7648,54.27033],[12.94314,54.34698],[13.02581,54.26522],[13.06377,54.19369],[13.34917,54.06349],[13.43102,54.03025],[13.66761,54.08417],[13.73778,54.03029],[13.76433,53.87719],[13.7805,53.77518],[13.85017,53.72929],[14.00974,53.67321],[14.17686,53.68341],[14.18958,53.62479],[14.28019,53.61342],[14.43316,53.59421],[14.53706,53.53817],[14.4953,53.62479],[14.5653,53.6936],[14.55694,53.75988],[14.48252,53.81853],[14.47294,53.87678],[14.46741,53.91035],[14.88576,53.97956],[15.07968,54.00252],[15.31169,54.071],[15.89836,54.1284],[16.11468,54.19961],[16.47325,54.41503],[16.9759,54.54931],[17.65761,54.68546],[18.27945,54.72412],[18.2995,54.71628],[17.60826,53.81732],[17.71611,53.66633],[16.72391,53.12709],[16.29251,53.14866],[16.31408,52.48],[16.42193,52.26431],[16.9396,52.09175],[17.54355,52.09175],[17.75925,51.59565],[18.1475,51.40152],[18.55732,50.43089],[18.28564,50.03398],[18.26798,50.00818],[18.30418,49.95466],[18.0846,49.75887],[18.02036,49.603],[17.21337,49.61601],[17.0327,49.74849],[16.55895,49.76924],[16.26185,49.77443],[16.26185,50.43738],[16.2044,50.46325],[16.27836,50.53328],[15.08845,50.69038],[14.99275,50.65597],[14.47574,50.37558],[14.38712,50.44277]]]]}},{"type":"Feature","properties":{"NAME":"Poland","SUBJECTO":"Poland","PARTOF":"Poland","BORDERPRECISION":3},"geometry":{"type":"MultiPolygon","coordinates":[[[[27.50473,54.70284],[26.71505,54.33985],[26.60446,53.05216],[27.09251,53.04042],[27.08154,52.91241],[27.3242,52.31924],[27.27027,51.72608],[27.40508,51.48342],[27.48597,50.83633],[26.94673,50.32405],[27.00065,49.67696],[26.94673,49.11076],[26.9894,48.68076],[26.16266,48.94059],[26.08166,49.1296],[25.94665,48.85958],[25.67663,49.21061],[25.51462,49.21061],[25.48761,48.94059],[24.94757,48.85958],[24.67756,48.53556],[24.32653,48.50856],[24.20903,47.94409],[24.0438,47.95392],[23.96578,48.35411],[23.8621,48.31954],[23.77569,48.50964],[23.63744,48.47508],[23.63744,48.61333],[23.32638,48.78614],[23.27453,48.63061],[22.92891,48.75158],[22.7561,49.01079],[22.37591,49.01079],[22.29046,49.17774],[22.24723,49.19489],[22.19643,49.21504],[22.00581,49.26047],[21.95916,49.35749],[21.64289,49.44101],[21.58501,49.49958],[21.33275,49.46552],[21.10421,49.48392],[21.07112,49.42218],[20.90317,49.34132],[20.69609,49.45559],[20.47884,49.4348],[20.40308,49.45993],[20.15238,49.36828],[20.10538,49.28886],[20.03809,49.22814],[19.9571,49.28204],[19.78216,49.2443],[19.7809,49.33593],[19.79279,49.37366],[19.76291,49.45454],[19.61372,49.44326],[19.58111,49.51924],[19.49344,49.62712],[19.37623,49.61634],[19.34842,49.56617],[19.26157,49.57318],[19.17931,49.46532],[18.98603,49.44375],[18.98096,49.48112],[18.55005,49.4764],[18.35336,49.88197],[18.30418,49.95466],[18.26798,50.00818],[18.28564,50.03398],[18.55732,50.43089],[18.1475,51.40152],[17.75925,51.59565],[17.54355,52.09175],[16.9396,52.09175],[16.42193,52.26431],[16.31408,52.48],[16.29251,53.14866],[16.72391,53.12709],[17.71611,53.66633],[17.60826,53.81732],[18.2995,54.71628],[18.75953,54.53641],[18.36292,54.66889],[18.3385,54.60265],[18.45381,54.52538],[18.51316,54.31578],[18.67308,54.25514],[18.96498,54.22758],[19.255,54.27719],[19.7336,54.46117],[19.75772,54.45917],[19.31761,54.27168],[19.23206,54.22207],[19.23031,54.16697],[19.3281,54.16145],[19.45682,54.21656],[19.73312,54.31027],[19.97754,54.42394],[20.35627,54.42146],[21.36674,54.36954],[22.69904,54.4149],[22.98706,54.42471],[23.00508,54.41826],[23.31062,54.30889],[23.43854,54.08992],[23.48289,54.00618],[23.48981,53.99313],[23.5305,53.91629],[23.57206,53.90031],[23.64144,53.91573],[23.77248,53.90031],[23.8804,53.91573],[24.04999,53.92343],[24.15791,53.94656],[24.21187,53.92343],[24.2427,53.87719],[24.37374,53.87719],[24.54333,53.94656],[24.63583,53.96968],[24.6975,53.95427],[24.77458,53.96968],[24.80542,54.02364],[24.76688,54.10073],[24.82153,54.12122],[24.94547,54.96547],[25.84591,54.94851],[25.85377,54.95637],[26.04648,54.95637],[26.16211,54.98721],[26.20836,55.05658],[26.2469,55.12596],[26.31628,55.14137],[26.4242,55.12596],[26.47816,55.14908],[26.53212,55.11054],[26.6092,55.11825],[26.61691,55.18763],[26.66316,55.257],[26.7017,55.257],[26.75566,55.28012],[26.71712,55.30325],[26.59378,55.32638],[26.43961,55.34179],[26.47816,55.40346],[26.53212,55.46513],[26.54753,55.51909],[26.58608,55.58847],[26.59378,55.66555],[26.63233,55.68867],[26.67858,55.68097],[26.74795,55.68097],[26.84816,55.71951],[26.89442,55.78118],[26.9715,55.81201],[27.13338,55.81201],[27.27984,55.79659],[27.38776,55.78118],[27.49568,55.76576],[27.58047,55.78118],[27.72863,55.50076],[27.6747,55.12329],[27.50473,54.70284]]]]}},{"type":"Feature","properties":{"NAME":"Sweden","SUBJECTO":"Sweden","PARTOF":"Sweden","BORDERPRECISION":3},"geometry":{"type":"MultiPolygon","coordinates":[[[[16.572,56.372],[16.575,56.367],[16.576,56.361],[16.572,56.355],[16.553,56.326],[16.496,56.241],[16.486,56.231],[16.474,56.224],[16.437,56.211],[16.43,56.209],[16.421,56.211],[16.416,56.215],[16.411,56.225],[16.403,56.274],[16.392,56.465],[16.393,56.529],[16.396,56.536],[16.42,56.586],[16.543,56.776],[16.612,56.868],[16.617,56.874],[16.629,56.879],[16.645,56.884],[16.749,56.94],[16.848,57.064],[16.9,57.135],[16.959,57.224],[16.963,57.229],[16.966,57.242],[16.96,57.257],[16.959,57.274],[16.961,57.28],[16.966,57.294],[16.973,57.305],[16.983,57.316],[16.993,57.325],[17.01,57.337],[17.022,57.345],[17.036,57.352],[17.057,57.359],[17.099,57.351],[17.106,57.348],[17.124,57.321],[17.051,57.187],[17.009,57.132],[16.961,57.075],[16.927,57.038],[16.88,56.93],[16.848,56.844],[16.841,56.832],[16.837,56.827],[16.828,56.825],[16.817,56.826],[16.808,56.824],[16.785,56.81],[16.779,56.806],[16.77,56.796],[16.727,56.702],[16.636,56.519],[16.577,56.407],[16.571,56.394],[16.569,56.388],[16.57,56.377],[16.572,56.372]]],[[[17.14698,61],[17.14621,60.95283],[17.31763,60.75307],[17.1885,60.67429],[17.60496,60.63754],[17.70646,60.55358],[17.93075,60.59031],[18.22439,60.32297],[18.41687,60.18162],[18.80409,60.1084],[18.89307,59.92569],[19.03732,59.86324],[19.04355,59.71242],[18.86789,59.71242],[18.63925,59.56693],[18.25142,59.43194],[18.03008,59.35928],[17.79528,59.36447],[17.72995,59.41636],[17.36798,59.46827],[17.0706,59.54615],[16.78554,59.57732],[16.72409,59.53057],[16.52321,59.58252],[16.40758,59.4475],[16.77647,59.47866],[16.99984,59.35928],[17.26578,59.33853],[17.35812,59.24518],[17.57492,59.21407],[17.58441,59.27111],[17.86173,59.23999],[17.97764,59.32815],[18.11138,59.32297],[18.32817,59.36967],[18.42956,59.33335],[18.44137,59.40079],[18.51547,59.40079],[18.61133,59.33335],[18.5982,59.29704],[18.27337,59.28667],[18.37196,59.15707],[18.01567,59.03791],[17.94014,58.90849],[17.76647,58.87227],[17.72642,58.91366],[17.7452,58.98613],[17.73911,59.11042],[17.62318,59.10007],[17.58219,58.89297],[17.35668,58.74297],[17.24539,58.71712],[17.083,58.74813],[17.08073,58.64993],[16.44287,58.63442],[16.51319,58.42812],[16.74404,58.31195],[16.77355,58.0379],[16.72459,57.88932],[16.59776,57.86645],[16.45953,57.89521],[16.47653,57.70213],[16.60721,57.66581],[16.55048,57.54515],[16.65868,57.44295],[16.49416,57.27892],[16.39452,57.0743],[16.37617,56.82242],[16.03145,56.35307],[15.77054,56.03321],[15.69623,56.06096],[15.49704,56.16724],[15.2208,56.08036],[14.65289,56.12062],[14.60523,55.98078],[14.49183,56.01804],[14.25893,55.89928],[14.12602,55.66658],[14.28635,55.51549],[14.1172,55.34711],[13.90111,55.40515],[13.8233,55.42182],[13.30185,55.3007],[12.80237,55.35291],[12.80192,55.41677],[12.88756,55.45161],[12.85931,55.53292],[12.98587,55.66658],[12.69901,55.9051],[12.51336,56.12062],[12.41441,56.24304],[12.65238,56.29553],[12.61544,56.43561],[12.80481,56.4012],[12.87158,56.51152],[12.78586,56.61668],[12.65748,56.61084],[12.52603,56.7804],[12.28862,56.87986],[12.00514,57.32521],[12,57.32521],[12,59.86346],[12.07703,59.86592],[12.42277,60.03878],[12.43586,60.2781],[12.54796,60.43387],[12.43103,60.62585],[12.17404,60.95641],[12.4296,61],[17.14698,61]]],[[[18.14027,56.91499],[18.1425,56.92027],[18.15833,56.94167],[18.20916,56.98917],[18.25666,57.03222],[18.25444,57.07916],[18.17333,57.14194],[18.14833,57.23528],[18.15805,57.31583],[18.1425,57.40944],[18.11528,57.48083],[18.11028,57.49611],[18.11,57.51305],[18.11138,57.51944],[18.11916,57.53111],[18.13861,57.55111],[18.17917,57.58833],[18.19144,57.59614],[18.21194,57.60583],[18.22778,57.61138],[18.24222,57.61749],[18.24917,57.62083],[18.27611,57.63416],[18.29472,57.64583],[18.33889,57.68166],[18.35583,57.69583],[18.38194,57.71861],[18.40167,57.73861],[18.41972,57.76028],[18.45639,57.80277],[18.46139,57.80778],[18.46722,57.81194],[18.48111,57.8186],[18.68194,57.91361],[18.69,57.91611],[18.71611,57.9211],[18.725,57.92278],[18.88194,57.91972],[18.9025,57.91833],[18.91417,57.9175],[19.00472,57.90861],[19.00611,57.90361],[19.00389,57.89889],[19.03333,57.82694],[18.92944,57.73972],[18.84889,57.72111],[18.80917,57.70361],[18.79333,57.65916],[18.75972,57.50805],[18.76806,57.47222],[18.76944,57.46722],[18.78833,57.44833],[18.71444,57.24694],[18.71194,57.24166],[18.65805,57.22083],[18.55194,57.18278],[18.51472,57.16944],[18.49833,57.16528],[18.45556,57.15694],[18.43944,57.15277],[18.41722,57.14417],[18.39722,57.13416],[18.39139,57.13],[18.38667,57.12499],[18.34555,57.07972],[18.34139,57.07388],[18.33917,57.0686],[18.33555,57.02333],[18.33583,57.01749],[18.34333,57.01444],[18.34666,56.9986],[18.3025,56.93749],[18.295,56.93472],[18.21555,56.91306],[18.20611,56.91194],[18.16889,56.91],[18.14778,56.91194],[18.14027,56.91499]]],[[[19.2775,57.94028],[19.27444,57.945],[19.26806,57.94861],[19.25666,57.94944],[19.23805,57.94694],[19.17056,57.92944],[19.16278,57.92694],[19.15083,57.91861],[19.14583,57.91361],[19.14167,57.90778],[19.14,57.90167],[19.12611,57.83972],[19.09333,57.85194],[19.07777,57.85833],[19.07306,57.8625],[19.0375,57.89639],[19.03444,57.90111],[19.03444,57.9125],[19.03611,57.91861],[19.08889,57.97028],[19.09583,57.97361],[19.10472,57.97527],[19.28583,57.97666],[19.29639,57.97666],[19.3075,57.97444],[19.3325,57.96527],[19.33555,57.96055],[19.33444,57.95583],[19.28666,57.93749],[19.2775,57.94028]]]]}},{"type":"Feature","properties":{"NAME":"Finland","SUBJECTO":"Finland","PARTOF":"Finland","BORDERPRECISION":3},"geometry":{"type":"MultiPolygon","coordinates":[[[[31.09952,61],[28.66773,60.15945],[28.5694,60.19842],[28.43523,60.33734],[28.55125,60.53264],[28.52151,60.62326],[28.43178,60.60347],[28.01144,60.51073],[27.47362,60.42608],[27.40622,60.34482],[27.17848,60.44239],[26.94557,60.37631],[26.92231,60.31612],[26.61308,60.34783],[26.52588,60.39647],[26.55164,60.5707],[26.44284,60.33334],[26.32271,60.27024],[26.03775,60.2493],[25.8901,60.23584],[25.84553,60.11548],[25.58054,60.26234],[25.44989,60.1384],[25.14579,60.10975],[24.99298,60.02957],[24.96947,60.08683],[24.74298,60.03823],[24.51596,59.9895],[24.42105,59.86975],[24.28136,59.93815],[23.97895,59.88115],[23.96111,59.93245],[23.66466,59.83555],[23.41885,59.82985],[23.20144,59.81846],[22.98213,59.93245],[22.882,60.05556],[23.0052,60.20876],[22.62462,60.2011],[22.39207,60.1212],[22.42147,60.29319],[22.22065,60.25877],[21.93095,60.38077],[21.74681,60.40827],[21.56015,60.51249],[21.44318,60.69365],[21.428,61],[31.09952,61]]]]}},{"type":"Feature","properties":{"NAME":"Denmark","SUBJECTO":"Denmark","PARTOF":"Denmark","BORDERPRECISION":3},"geometry":{"type":"MultiPolygon","coordinates":[[[[12.107,54.8],[12.089,54.794],[12.078,54.789],[12.072,54.786],[12.055,54.775],[12,54.72669],[12,54.90296],[12.02,54.896],[12.038,54.892],[12.061,54.891],[12.079,54.894],[12.085,54.894],[12.096,54.892],[12.104,54.89],[12.111,54.887],[12.119,54.882],[12.137,54.869],[12.168,54.842],[12.169,54.839],[12.169,54.836],[12.167,54.834],[12.158,54.829],[12.12,54.806],[12.107,54.8]]],[[[12,55.63196],[12.05262,55.70308],[12.088,55.96698],[12.23772,55.98757],[12.44405,55.96765],[12.46922,55.71063],[12.4091,55.54833],[12.34437,55.50771],[12.15843,55.37909],[12.42972,55.24469],[12.30136,55.17028],[12.07697,54.99469],[12,54.96565],[12,55.63196]]],[[[14.799,55.282],[14.806,55.276],[14.813,55.269],[14.82,55.261],[14.825,55.257],[14.839,55.251],[14.887,55.229],[14.997,55.187],[15.065,55.162],[15.074,55.16],[15.091,55.155],[15.123,55.149],[15.134,55.144],[15.141,55.139],[15.149,55.129],[15.15,55.089],[15.148,55.082],[15.107,55.026],[15.103,55.021],[15.077,55.001],[15.061,54.996],[15.052,54.995],[15.043,54.995],[14.942,55.013],[14.882,55.029],[14.747,55.065],[14.729,55.073],[14.68,55.1],[14.678,55.102],[14.699,55.215],[14.744,55.292],[14.746,55.296],[14.76,55.304],[14.764,55.306],[14.77,55.306],[14.799,55.282]]]]}},{"type":"Feature","properties":{"NAME":"Yugoslavia","SUBJECTO":"Yugoslavia","PARTOF":"Yugoslavia","BORDERPRECISION":3},"geometry":{"type":"MultiPolygon","coordinates":[[[[14.2497,46],[14.14075,46.43326],[14.39295,46.43693],[14.52177,46.36873],[14.81286,46.59343],[15.06786,46.64159],[15.45004,46.60548],[15.58399,46.69379],[15.98458,46.64159],[15.94739,46.81827],[16.25957,46.8888],[16.39637,46.62312],[16.56009,46.47294],[16.65675,46.38427],[17.2924,46.10868],[17.47304,46],[19.13782,46],[19.50673,46.12713],[19.90642,46.16173],[20.31473,46.13151],[20.33792,46],[14.2497,46]]]]}},{"type":"Feature","properties":{"NAME":"Italy","SUBJECTO":"Italy","PARTOF":"Italy","BORDERPRECISION":3},"geometry":{"type":"MultiPolygon","coordinates":[[[[12,46],[12,47.07406],[12.06433,47.09104],[12.07475,46.92751],[12.21781,46.88432],[12.36185,46.70854],[12.95189,46.59746],[13.35401,46.56066],[13.5689,46.51043],[14.03665,46.48106],[14.11742,46.43292],[14.14075,46.43326],[14.2497,46],[12,46]]]]}},{"type":"Feature","properties":{"NAME":"USSR","SUBJECTO":"USSR","PARTOF":"USSR","BORDERPRECISION":3},"geometry":{"type":"MultiPolygon","coordinates":[[[[40,61],[40,46],[37.98615,46],[37.98994,46.00666],[38.22715,46.02009],[38.45898,46.07891],[38.26491,46.31856],[37.97017,46.44128],[37.7571,46.60319],[37.8666,46.65536],[38.03186,46.66868],[38.40109,46.72135],[38.72274,46.87792],[39.28236,47.07403],[39.19409,47.24295],[39.15985,47.26889],[38.80025,47.22917],[38.20973,47.15046],[37.85925,47.10374],[37.42214,47.07688],[37.19263,46.89442],[36.86456,46.80929],[36.35397,46.7758],[35.85056,46.66439],[35.62433,46.52106],[35.4161,46.49469],[35.21237,46.63714],[35.04637,46.35765],[34.90681,46.27302],[34.69235,46.25313],[34.49565,46.2787],[34.06422,46.26487],[33.83908,46.19305],[34.12726,46.0639],[34.25179,46],[33.59966,46],[33.52795,46.13406],[33.33253,46.16611],[32.97293,46.14595],[32.51644,46.12558],[32.20217,46.17036],[32.1141,46.21562],[31.92594,46.40993],[32.18879,46.59224],[31.95127,46.86463],[31.78105,46.70186],[31.53773,46.70138],[31.08723,46.63554],[30.83286,46.57659],[30.52046,46.25141],[30.43285,46.17575],[30.06607,46.28036],[29.80685,46.50501],[29.42666,46.81608],[29.1156,47.28267],[28.90822,47.81839],[28.42679,48.09738],[28.41542,48.08221],[28.38704,48.10491],[28.38704,48.13895],[28.34732,48.1503],[28.30193,48.13328],[28.31895,48.15597],[28.35867,48.20137],[28.34732,48.22974],[28.29625,48.22974],[28.21681,48.21272],[28.16007,48.22407],[28.11467,48.21839],[28.08063,48.25244],[28.05793,48.28081],[28.01254,48.30918],[27.94444,48.31486],[27.88203,48.33756],[27.81961,48.3943],[27.72314,48.43402],[27.70612,48.4397],[27.64777,48.75158],[27.48576,48.75158],[27.48576,48.67057],[27.10773,48.83258],[27.10773,48.64357],[26.9894,48.68076],[26.94673,49.11076],[27.00065,49.67696],[26.94673,50.32405],[27.48597,50.83633],[27.40508,51.48342],[27.27027,51.72608],[27.3242,52.31924],[27.08154,52.91241],[27.09251,53.04042],[26.60446,53.05216],[26.71505,54.33985],[27.50473,54.70284],[27.6747,55.12329],[27.72863,55.50076],[27.58047,55.78118],[27.6113,55.87368],[27.64214,55.91993],[27.7038,55.95847],[27.76547,56.02785],[27.86568,56.04327],[27.91964,56.09722],[28.02756,56.12035],[28.13642,56.14042],[28.16358,56.15929],[28.17013,56.21169],[28.18978,56.25099],[28.15048,56.35578],[28.15703,56.44093],[28.09808,56.49332],[28.12428,56.53262],[28.05223,56.55227],[27.98674,56.59812],[27.97364,56.67017],[27.91469,56.69636],[27.86229,56.74221],[27.88194,56.77496],[27.90814,56.81426],[27.87539,56.83391],[27.83609,56.84046],[27.77714,56.87321],[27.71165,56.86666],[27.61995,56.84046],[27.6396,56.88631],[27.68545,56.91906],[27.7182,56.95835],[27.7051,57.01075],[27.73785,57.0697],[27.6789,57.109],[27.72475,57.1221],[27.76404,57.12865],[27.80989,57.1614],[27.81644,57.20069],[27.82954,57.25309],[27.83609,57.29239],[27.7444,57.31859],[27.7051,57.35134],[27.6134,57.39064],[27.50861,57.42339],[27.50861,57.47578],[27.51515,57.52818],[27.34886,57.52636],[27.31211,57.57403],[27.36451,57.60023],[27.37106,57.63953],[27.38416,57.69192],[27.44311,57.69192],[27.48241,57.74432],[27.50861,57.79017],[27.58065,57.81637],[27.69855,57.83602],[27.77714,57.86877],[27.75095,57.89497],[27.67235,57.91462],[27.6527,57.98011],[27.64615,58.01941],[27.64615,58.05216],[27.60685,58.08491],[27.51515,58.12421],[27.43656,58.229],[27.43656,58.3076],[27.51515,58.36654],[27.50206,58.43859],[27.46931,58.52374],[27.41036,58.72023],[27.39726,58.79227],[27.43656,58.86432],[27.52825,58.92327],[27.67235,58.98222],[27.77059,59.07391],[27.84919,59.19836],[27.87539,59.2573],[27.91469,59.27695],[27.96709,59.27695],[28.05223,59.27695],[28.13083,59.2966],[28.15048,59.3752],[28.07843,59.43415],[28.01309,59.45822],[27.97339,59.51671],[27.89666,59.53378],[27.94169,59.6476],[28.09419,59.66468],[28.1631,59.59068],[28.26634,59.56223],[28.35098,59.60206],[28.3091,59.6644],[28.44436,59.73374],[28.66273,59.64434],[28.79593,59.67222],[28.93627,59.82455],[29.07607,59.90779],[29.41363,59.86003],[29.76545,59.73624],[29.96316,59.73662],[30.12664,59.80605],[29.95287,59.98558],[29.6873,60.131],[29.51074,60.14457],[28.96898,60.10879],[28.69163,60.14998],[28.66773,60.15945],[31.09952,61],[40,61]]]]}},{"type":"Feature","properties":{"NAME":null,"SUBJECTO":null,"PARTOF":null,"BORDERPRECISION":3},"geometry":{"type":"MultiPolygon","coordinates":[[[[13.672,54.569],[13.677,54.565],[13.678,54.563],[13.679,54.542],[13.678,54.532],[13.675,54.526],[13.67,54.522],[13.667,54.521],[13.647,54.516],[13.641,54.513],[13.591,54.486],[13.585,54.483],[13.581,54.478],[13.578,54.472],[13.576,54.462],[13.577,54.46],[13.578,54.454],[13.584,54.442],[13.617,54.404],[13.621,54.402],[13.631,54.401],[13.646,54.401],[13.667,54.402],[13.676,54.401],[13.702,54.388],[13.707,54.384],[13.714,54.378],[13.731,54.355],[13.744,54.331],[13.731,54.276],[13.727,54.274],[13.715,54.272],[13.711,54.272],[13.696,54.281],[13.694,54.283],[13.696,54.284],[13.711,54.297],[13.713,54.321],[13.712,54.324],[13.689,54.348],[13.684,54.349],[13.508,54.343],[13.504,54.342],[13.469,54.328],[13.359,54.275],[13.357,54.273],[13.355,54.27],[13.357,54.26],[13.403,54.265],[13.408,54.265],[13.413,54.265],[13.42,54.261],[13.422,54.259],[13.426,54.252],[13.429,54.244],[13.429,54.238],[13.424,54.234],[13.398,54.222],[13.393,54.221],[13.319,54.249],[13.268,54.255],[13.257,54.256],[13.25,54.258],[13.156,54.306],[13.122,54.331],[13.118,54.334],[13.117,54.339],[13.118,54.343],[13.129,54.368],[13.131,54.371],[13.134,54.372],[13.142,54.374],[13.151,54.375],[13.157,54.375],[13.201,54.373],[13.217,54.37],[13.223,54.369],[13.236,54.372],[13.261,54.379],[13.265,54.38],[13.268,54.383],[13.239,54.411],[13.208,54.428],[13.165,54.434],[13.229,54.465],[13.232,54.486],[13.167,54.513],[13.147,54.546],[13.231,54.552],[13.256,54.551],[13.304,54.55],[13.338,54.566],[13.367,54.58],[13.378,54.558],[13.395,54.542],[13.42,54.522],[13.447,54.489],[13.484,54.484],[13.503,54.493],[13.517,54.513],[13.503,54.55],[13.459,54.551],[13.426,54.57],[13.384,54.578],[13.375,54.61],[13.355,54.604],[13.33,54.583],[13.311,54.573],[13.286,54.565],[13.282,54.564],[13.251,54.558],[13.246,54.558],[13.245,54.559],[13.225,54.634],[13.225,54.64],[13.226,54.643],[13.231,54.648],[13.245,54.657],[13.263,54.667],[13.279,54.671],[13.292,54.673],[13.364,54.679],[13.384,54.681],[13.424,54.683],[13.43,54.682],[13.438,54.68],[13.443,54.676],[13.444,54.673],[13.442,54.671],[13.429,54.66],[13.422,54.657],[13.397,54.652],[13.391,54.649],[13.386,54.645],[13.383,54.639],[13.391,54.607],[13.407,54.589],[13.433,54.578],[13.456,54.573],[13.482,54.575],[13.516,54.577],[13.593,54.585],[13.618,54.586],[13.634,54.586],[13.639,54.585],[13.647,54.583],[13.672,54.569]]]]}},{"type":"Feature","properties":{"NAME":null,"SUBJECTO":null,"PARTOF":null,"BORDERPRECISION":3},"geometry":{"type":"MultiPolygon","coordinates":[[[[23.206,58.445],[23.198,58.45],[23.142,58.444],[23.077,58.414],[23.064,58.386],[23.029,58.358],[22.757,58.24],[22.649,58.23],[22.582,58.241],[22.521,58.242],[22.487,58.242],[22.475,58.242],[22.378,58.223],[22.367,58.22],[22.289,58.188],[22.279,58.184],[22.272,58.179],[22.267,58.171],[22.266,58.164],[22.269,58.156],[22.274,58.15],[22.276,58.142],[22.265,58.102],[22.262,58.094],[22.202,57.986],[22.099,57.931],[22.073,57.917],[22.052,57.91],[22.038,57.908],[22.022,57.91],[22.01,57.913],[22.001,57.917],[21.994,57.923],[21.981,57.958],[21.986,57.976],[22.082,58.077],[22.09,58.082],[22.101,58.085],[22.112,58.084],[22.151,58.086],[22.197,58.137],[22.201,58.145],[22.197,58.151],[22.189,58.156],[22.177,58.159],[22.145,58.159],[22.132,58.161],[22.079,58.171],[22.069,58.175],[21.884,58.252],[21.87,58.262],[21.849,58.279],[21.844,58.286],[21.841,58.293],[21.844,58.299],[21.874,58.34],[21.885,58.343],[21.899,58.343],[21.956,58.343],[22.008,58.353],[22.006,58.36],[21.996,58.381],[21.917,58.457],[21.91,58.463],[21.902,58.468],[21.878,58.474],[21.868,58.478],[21.851,58.488],[21.832,58.505],[21.843,58.508],[21.925,58.517],[21.985,58.516],[22.001,58.515],[22.112,58.492],[22.189,58.545],[22.198,58.549],[22.327,58.577],[22.502,58.602],[22.624,58.593],[22.768,58.6],[22.776,58.606],[22.808,58.616],[22.824,58.617],[22.872,58.618],[22.905,58.617],[22.917,58.616],[22.979,58.601],[22.991,58.598],[23.091,58.564],[23.263,58.496],[23.273,58.492],[23.289,58.482],[23.32,58.462],[23.332,58.45],[23.333,58.442],[23.328,58.434],[23.267,58.429],[23.25,58.43],[23.226,58.437],[23.206,58.445]]]]}},{"type":"Feature","properties":{"NAME":null,"SUBJECTO":null,"PARTOF":null,"BORDERPRECISION":3},"geometry":{"type":"MultiPolygon","coordinates":[[[[22.948,58.844],[22.884,58.833],[22.866,58.824],[22.868,58.819],[22.882,58.817],[22.889,58.811],[22.887,58.788],[22.884,58.78],[22.848,58.774],[22.816,58.773],[22.798,58.774],[22.784,58.776],[22.778,58.782],[22.777,58.79],[22.783,58.796],[22.793,58.8],[22.804,58.804],[22.823,58.812],[22.829,58.818],[22.826,58.824],[22.812,58.826],[22.798,58.825],[22.776,58.819],[22.747,58.806],[22.739,58.8],[22.721,58.782],[22.701,58.754],[22.692,58.739],[22.69,58.731],[22.681,58.717],[22.675,58.711],[22.667,58.705],[22.646,58.698],[22.624,58.691],[22.596,58.688],[22.565,58.687],[22.547,58.687],[22.532,58.689],[22.518,58.691],[22.48,58.7],[22.47,58.704],[22.465,58.71],[22.469,58.716],[22.472,58.764],[22.45,58.831],[22.446,58.838],[22.426,58.855],[22.405,58.872],[22.39,58.882],[22.382,58.887],[22.37,58.89],[22.336,58.892],[22.277,58.889],[22.246,58.879],[22.229,58.878],[22.177,58.889],[22.165,58.892],[22.064,58.924],[22.053,58.928],[22.045,58.932],[22.042,58.94],[22.046,58.945],[22.052,58.95],[22.065,58.952],[22.191,58.947],[22.376,58.952],[22.434,58.966],[22.468,58.978],[22.488,58.992],[22.524,59.022],[22.576,59.069],[22.699,59.051],[22.695,59.044],[22.699,59.02],[22.703,59.014],[22.72,59.004],[22.734,59.001],[22.75,59],[22.801,58.997],[22.843,59.002],[22.861,59.002],[22.93,58.982],[22.952,58.967],[23.044,58.851],[23.048,58.844],[23.045,58.836],[23.022,58.821],[23.005,58.831],[22.961,58.845],[22.948,58.844]]]]}},{"type":"Feature","properties":{"NAME":null,"SUBJECTO":null,"PARTOF":null,"BORDERPRECISION":3},"geometry":{"type":"MultiPolygon","coordinates":[[[[20.123,60.081],[20.164,60.069],[20.193,60.065],[20.205,60.064],[20.212,60.06],[20.227,60.003],[20.226,60],[20.211,59.98],[20.203,59.977],[20.137,59.992],[20.129,59.995],[20.004,60.051],[19.999,60.055],[20.003,60.062],[20.008,60.067],[20.094,60.093],[20.103,60.096],[20.109,60.092],[20.11,60.088],[20.123,60.081]]]]}},{"type":"Feature","properties":{"NAME":null,"SUBJECTO":null,"PARTOF":null,"BORDERPRECISION":3},"geometry":{"type":"MultiPolygon","coordinates":[[[[20.295,60.121],[20.298,60.11],[20.298,60.104],[20.271,60.057],[20.263,60.054],[20.205,60.081],[20.2,60.086],[20.199,60.091],[20.205,60.109],[20.216,60.139],[20.223,60.142],[20.269,60.141],[20.276,60.137],[20.287,60.129],[20.292,60.125],[20.295,60.121]]]]}},{"type":"Feature","properties":{"NAME":null,"SUBJECTO":null,"PARTOF":null,"BORDERPRECISION":3},"geometry":{"type":"MultiPolygon","coordinates":[[[[19.565,60.249],[19.572,60.252],[19.58,60.255],[19.589,60.257],[19.602,60.256],[19.612,60.253],[19.627,60.244],[19.666,60.193],[19.669,60.189],[19.674,60.173],[19.677,60.157],[19.673,60.15],[19.604,60.153],[19.575,60.122],[19.563,60.123],[19.551,60.125],[19.543,60.128],[19.523,60.151],[19.511,60.175],[19.512,60.181],[19.536,60.225],[19.541,60.23],[19.565,60.249]]]]}},{"type":"Feature","properties":{"NAME":null,"SUBJECTO":null,"PARTOF":null,"BORDERPRECISION":3},"geometry":{"type":"MultiPolygon","coordinates":[[[[20.067,60.296],[20.062,60.301],[20.047,60.308],[20.037,60.311],[20.025,60.311],[19.914,60.217],[19.914,60.212],[19.927,60.193],[19.931,60.188],[19.937,60.184],[19.946,60.181],[19.987,60.17],[20.026,60.154],[20.051,60.101],[20.053,60.096],[20.051,60.09],[20.044,60.086],[20.022,60.086],[19.999,60.089],[19.968,60.09],[19.958,60.089],[19.951,60.085],[19.948,60.079],[19.944,60.043],[19.939,60.059],[19.928,60.084],[19.925,60.089],[19.918,60.093],[19.908,60.095],[19.895,60.097],[19.875,60.095],[19.869,60.091],[19.87,60.086],[19.873,60.081],[19.868,60.077],[19.859,60.076],[19.848,60.076],[19.772,60.081],[19.751,60.095],[19.722,60.126],[19.699,60.159],[19.696,60.164],[19.648,60.257],[19.649,60.262],[19.749,60.305],[19.783,60.293],[19.777,60.261],[19.768,60.249],[19.762,60.244],[19.761,60.238],[19.793,60.191],[19.796,60.187],[19.809,60.185],[19.817,60.188],[19.931,60.277],[19.935,60.283],[19.937,60.289],[19.937,60.295],[19.931,60.304],[19.899,60.34],[19.892,60.343],[19.883,60.342],[19.878,60.336],[19.874,60.329],[19.872,60.323],[19.868,60.317],[19.862,60.312],[19.839,60.32],[19.834,60.322],[19.78,60.349],[19.783,60.354],[19.808,60.377],[19.825,60.392],[19.857,60.404],[19.869,60.404],[19.906,60.4],[20.085,60.35],[20.277,60.274],[20.218,60.208],[20.172,60.164],[20.162,60.162],[20.092,60.17],[20.086,60.174],[20.082,60.179],[20.101,60.216],[20.106,60.221],[20.123,60.226],[20.12,60.24],[20.067,60.296]]]]}},{"type":"Feature","properties":{"NAME":null,"SUBJECTO":null,"PARTOF":null,"BORDERPRECISION":3},"geometry":{"type":"MultiPolygon","coordinates":[[[[20.442,60.248],[20.441,60.243],[20.409,60.204],[20.397,60.195],[20.387,60.193],[20.345,60.231],[20.342,60.235],[20.341,60.241],[20.343,60.247],[20.348,60.252],[20.366,60.266],[20.376,60.267],[20.394,60.267],[20.436,60.258],[20.441,60.253],[20.442,60.248]]]]}}]}