{"type":"FeatureCollection","name":"Regional historical snapshot 1600","license":"GPL-3.0-only","attribution":"André Ourednik and historical-basemaps contributors","upstream":"https://raw.githubusercontent.com/aourednik/historical-basemaps/62d8f1a03a71f2d3ff17f2d166f7553f256bce68/geojson/world_1600.geojson","revision":"62d8f1a03a71f2d3ff17f2d166f7553f256bce68","modification":"Clipped to 12–40°E / 46–61°N; coordinates rounded to five decimal places. Display precision remains approximate, not five-decimal historical accuracy.","modified":"2026-09-08","features":[{"type":"Feature","properties":{"NAME":"Venice","SUBJECTO":"Venice","PARTOF":"Venice","BORDERPRECISION":1},"geometry":{"type":"MultiPolygon","coordinates":[[[[12,46],[12,46.88828],[12.07475,46.92751],[12.21781,46.88432],[12.32843,46.9675],[12.40715,46.96408],[12.69768,46.95144],[13.29168,47.06382],[13.51644,46.99961],[13.58066,46.83906],[13.70909,46.83906],[13.72515,46.64641],[13.6211,46.42088],[13.60634,46.13214],[13.53346,46],[12,46]]]]}},{"type":"Feature","properties":{"NAME":"Prussia","SUBJECTO":"Prussia","PARTOF":"Prussia","BORDERPRECISION":1},"geometry":{"type":"MultiPolygon","coordinates":[[[[21.00793,55.81652],[21.96171,55.03306],[22.79867,54.73899],[22.3915,54.03774],[22.8213,53.56271],[20.33301,52.97457],[19.88059,53.24602],[18.7948,53.31388],[18.88528,53.58533],[18.34238,53.96988],[18.66521,54.25812],[18.67308,54.25514],[18.96498,54.22758],[19.255,54.27719],[19.7336,54.46117],[19.75772,54.45917],[19.31761,54.27168],[19.23206,54.22207],[19.23031,54.16697],[19.3281,54.16145],[19.45682,54.21656],[19.5704,54.25508],[19.73312,54.31027],[19.91458,54.39466],[19.97754,54.42394],[20.18865,54.52198],[20.32671,54.56401],[20.19423,54.57505],[20.0057,54.54746],[19.93812,54.60817],[19.88181,54.52538],[19.83325,54.5309],[19.86317,54.75173],[19.94257,54.84986],[20.1271,54.84564],[20.79715,54.81798],[20.9852,54.81164],[21.13734,54.84546],[21.19194,54.95958],[21.11335,55.08924],[21.22385,55.11145],[21.19312,55.16635],[21.16232,55.22138],[21.14303,55.25584],[21.20093,55.26139],[21.2163,55.34367],[21.01845,55.63401],[21.01482,55.69706],[21.00793,55.81652]]]]}},{"type":"Feature","properties":{"NAME":"Holy Roman Empire","SUBJECTO":"Holy Roman Empire","PARTOF":"Holy Roman Empire","BORDERPRECISION":1},"geometry":{"type":"MultiPolygon","coordinates":[[[[14.06995,53.91777],[14.17417,53.90676],[14.20541,53.81321],[14.14543,53.82645],[14.06835,53.84347],[14.02872,53.86548],[13.82777,53.82972],[13.7774,53.94862],[13.77841,54.04441],[14.06995,53.91777]]],[[[14.47294,53.87678],[14.45907,53.81871],[14.33386,53.82972],[14.2479,53.81596],[14.22724,53.90951],[14.30526,53.91502],[14.42484,53.91502],[14.47294,53.87678]]]]}},{"type":"Feature","properties":{"NAME":null,"SUBJECTO":null,"PARTOF":null,"BORDERPRECISION":1},"geometry":{"type":"MultiPolygon","coordinates":[[[[19.33444,57.95583],[19.28666,57.93749],[19.2775,57.94028],[19.27444,57.945],[19.26806,57.94861],[19.25666,57.94944],[19.23805,57.94694],[19.17056,57.92944],[19.16278,57.92694],[19.15083,57.91861],[19.14583,57.91361],[19.14167,57.90778],[19.14,57.90167],[19.12611,57.83972],[19.09333,57.85194],[19.07777,57.85833],[19.07306,57.8625],[19.0375,57.89639],[19.03444,57.90111],[19.03444,57.9125],[19.03611,57.91861],[19.08889,57.97028],[19.09583,57.97361],[19.10472,57.97527],[19.28583,57.97666],[19.29639,57.97666],[19.3075,57.97444],[19.3325,57.96527],[19.33555,57.96055],[19.33444,57.95583]]]]}},{"type":"Feature","properties":{"NAME":"Holy Roman Empire","SUBJECTO":"Holy Roman Empire","PARTOF":"Holy Roman Empire","BORDERPRECISION":1},"geometry":{"type":"MultiPolygon","coordinates":[[[[12,54.09137],[12.04107,54.09666],[12.31188,54.20194],[12.46254,54.25479],[12.65252,54.32143],[12.7648,54.27033],[12.94314,54.34698],[13.02581,54.26522],[13.06377,54.19369],[13.34917,54.06349],[13.43102,54.03025],[13.66761,54.08417],[13.73778,54.03029],[13.76433,53.87719],[13.7805,53.77518],[13.85017,53.72929],[14.00974,53.67321],[14.17686,53.68341],[14.18958,53.62479],[14.28019,53.61342],[14.43316,53.59421],[14.53706,53.53817],[14.4953,53.62479],[14.5653,53.6936],[14.55694,53.75988],[14.48252,53.81853],[14.47294,53.87678],[14.46741,53.91035],[14.58024,53.92902],[14.88576,53.97956],[15.07968,54.00252],[15.31169,54.071],[15.89836,54.1284],[16.11468,54.19961],[16.47325,54.41503],[16.9759,54.54931],[17.65761,54.68546],[17.74676,54.43251],[17.11141,54.12996],[16.99039,54.19047],[16.68784,54.03919],[16.80886,53.85766],[16.80886,53.46435],[16.65758,53.85766],[16.20376,53.70639],[16.41554,53.52486],[16.20376,53.34333],[16.05312,52.71645],[15.84391,52.71029],[15.81599,52.57074],[15.76017,52.57074],[15.76453,52.26547],[16.0951,52.12417],[16.50591,52.00381],[16.50591,52.17825],[16.85479,51.91659],[16.85479,51.65493],[17.20367,51.61132],[17.29089,51.78576],[17.55255,51.65493],[17.63977,51.43688],[18.14006,50.98766],[18.64604,50.64451],[18.74563,50.26604],[18.76907,50.17699],[18.79632,49.71345],[18.89645,49.71273],[18.92671,49.62196],[18.52218,49.56107],[18.25037,49.18055],[18.22319,48.99028],[18.31399,48.27915],[18.18646,48.05598],[17.51693,47.64151],[16.53529,46.36466],[16.44832,46.10373],[16.20913,46.14722],[16.13552,46],[13.53346,46],[13.60634,46.13214],[13.6211,46.42088],[13.72515,46.64641],[13.70909,46.83906],[13.58066,46.83906],[13.51644,46.99961],[13.29168,47.06382],[12.69768,46.95144],[12.40715,46.96408],[12.32843,46.9675],[12.21781,46.88432],[12.07475,46.92751],[12,46.88828],[12,54.09137]]]]}},{"type":"Feature","properties":{"NAME":"Ottoman Empire","SUBJECTO":"Ottoman Empire","PARTOF":"Ottoman Empire","BORDERPRECISION":1},"geometry":{"type":"MultiPolygon","coordinates":[[[[33.67603,47.95111],[33.14183,47.12951],[32.11467,46.21533],[32.1141,46.21562],[31.92594,46.40993],[32.18879,46.59224],[31.95127,46.86463],[31.78105,46.70186],[31.53773,46.70138],[31.08723,46.63554],[30.83286,46.57659],[30.52046,46.25141],[30.43285,46.17575],[30.22932,46],[16.13552,46],[16.20913,46.14722],[16.44832,46.10373],[16.53529,46.36466],[17.51693,47.64151],[18.18646,48.05598],[18.31399,48.27915],[18.22319,48.99028],[18.25037,49.18055],[18.52218,49.56107],[18.92671,49.62196],[19.10824,49.59171],[19.13849,49.71273],[19.38053,49.80349],[19.56206,49.71273],[19.56206,49.5312],[19.71334,49.5312],[19.89487,49.47069],[20.01589,49.80349],[20.34869,49.74298],[20.53022,49.80349],[20.6815,49.65222],[20.89328,49.74298],[20.80252,49.83375],[20.89328,49.83375],[20.98405,49.74298],[21.13532,49.83375],[21.2866,49.77324],[21.31685,49.864],[21.77068,49.74298],[21.77068,49.59171],[23.88853,49.2589],[24.16083,48.9866],[25.66633,48.69198],[26.16266,48.94059],[26.52424,48.82695],[26.9894,48.68076],[27.10773,48.64357],[27.10773,48.83258],[27.48576,48.67057],[27.48576,48.75158],[27.64777,48.75158],[29.31637,48.28642],[32.86502,48.18503],[33.67603,47.95111]]]]}},{"type":"Feature","properties":{"NAME":"Tsardom of Muscovy","SUBJECTO":"Tsardom of Muscovy","PARTOF":"Tsardom of Muscovy","BORDERPRECISION":3},"geometry":{"type":"MultiPolygon","coordinates":[[[[40,61],[40,47.84368],[39.2587,48.43672],[37.88465,49.1862],[36.39939,49.03577],[36.21089,49.90866],[35.70394,50.41561],[33.87892,50.21283],[33.87892,51.12534],[33.16919,51.42951],[31.34417,50.92256],[31.38344,52.00147],[31.29668,52.95591],[31.38344,53.2596],[32.46803,53.08606],[32.20773,54.43096],[31.55698,54.30081],[31.42683,54.90818],[31.73051,54.95156],[31.51359,55.55893],[31.25329,55.60232],[31.20991,55.73247],[31.86066,55.99277],[32.07758,56.77367],[31.55698,57.03398],[31.16652,56.73029],[30.38562,57.29428],[30.47239,57.7715],[29.99517,58.20533],[29.51795,58.07518],[28.17305,58.98624],[28.25925,59.01641],[29.04073,59.28993],[29.51795,59.24654],[29.99517,59.46346],[31.31837,59.59361],[31.29754,59.93614],[31.34932,59.93276],[31.40137,59.91133],[31.45479,59.90718],[31.50977,59.92036],[31.54717,59.94014],[31.56719,59.96655],[31.56504,59.99805],[31.54092,60.03452],[31.54824,60.07188],[31.60645,60.13364],[31.60586,60.14229],[31.59688,60.1438],[31.59063,60.15557],[31.59893,60.16963],[31.69941,60.23564],[31.84326,60.24785],[32.05713,60.22651],[32.19609,60.19536],[32.26016,60.15435],[32.36152,60.1481],[32.50039,60.17651],[32.58389,60.20894],[32.6123,60.24536],[32.61436,60.28579],[32.59023,60.33022],[32.59492,60.35459],[32.65586,60.37168],[32.67666,60.39243],[32.66396,60.4271],[32.61787,60.47559],[32.59648,60.51108],[32.5999,60.5335],[32.6417,60.53687],[32.72207,60.52114],[32.78184,60.48823],[32.81572,60.48188],[32.84141,60.49702],[32.90693,60.58594],[32.94434,60.64258],[32.93652,60.67031],[32.90303,60.69351],[32.84355,60.71221],[32.81191,60.75649],[32.80781,60.82637],[32.76543,60.88604],[32.64072,60.96914],[32.6334,60.98672],[32.59258,60.99761],[32.59081,61],[40,61]],[[35.47507,61],[35.49941,60.96982],[35.55059,60.93799],[35.63457,60.91846],[35.71904,60.90454],[35.77158,60.88643],[35.80078,60.87183],[35.82871,60.8665],[35.85508,60.87051],[35.88027,60.87832],[35.89902,60.88979],[35.90986,60.90249],[35.90449,60.91655],[35.88418,60.9311],[35.88027,60.94775],[35.91484,60.96685],[35.97627,60.9939],[35.98659,61],[35.47507,61]],[[31.6457,58.35142],[31.65342,58.36875],[31.63711,58.38799],[31.51816,58.37256],[31.51074,58.38887],[31.43018,58.41655],[31.37432,58.42925],[31.29834,58.47656],[31.25166,58.42544],[31.17021,58.35947],[31.07998,58.33159],[31.01943,58.31973],[30.95488,58.28438],[30.85703,58.23911],[30.87617,58.21411],[31.15625,58.17134],[31.39404,58.14199],[31.44648,58.20591],[31.53096,58.23018],[31.63057,58.20728],[31.68828,58.20229],[31.64697,58.3084],[31.6457,58.35142]],[[38.69795,58.13296],[38.61924,58.20127],[38.63828,58.22031],[38.6917,58.20703],[38.77949,58.13477],[38.80518,58.12197],[38.81875,58.13481],[38.81211,58.25073],[38.83047,58.29556],[38.8709,58.33105],[39.00527,58.35806],[39.00039,58.38677],[38.97031,58.44082],[39.00371,58.47563],[38.98926,58.49561],[38.75283,58.54692],[38.60996,58.63657],[38.42734,58.74702],[38.11943,58.95459],[38.04697,58.99419],[37.91992,59.04209],[37.85771,59.07515],[37.86641,59.09409],[37.91016,59.10273],[38.17051,59.06504],[38.23945,59.0627],[38.33154,59.09258],[38.40732,59.15229],[38.41465,59.17344],[38.29404,59.16133],[38.18291,59.20308],[38.14326,59.20977],[38.12402,59.20288],[38.17637,59.14824],[38.18047,59.13213],[38.17969,59.11333],[38.15937,59.10156],[38.11621,59.10259],[38.02725,59.12808],[38.00742,59.14375],[38.00156,59.15977],[37.9873,59.17676],[37.94004,59.17407],[37.84287,59.15527],[37.64492,59.15679],[37.64004,59.1377],[37.67627,59.10234],[37.69561,59.06396],[37.67324,59.0252],[37.60889,58.98896],[37.49912,58.94419],[37.48438,58.9272],[37.46582,58.87456],[37.47129,58.85708],[37.50137,58.84478],[37.58125,58.89883],[37.64238,58.9189],[37.71367,58.92773],[37.77725,58.92622],[37.82832,58.91406],[37.86943,58.89707],[37.91758,58.85825],[37.9959,58.86167],[38.02393,58.7459],[37.96133,58.7436],[37.9417,58.7355],[37.94531,58.72031],[37.98418,58.69238],[37.9877,58.67222],[38.09551,58.63447],[38.10313,58.61948],[38.07383,58.59155],[38.07393,58.54194],[37.99492,58.55044],[37.76777,58.61763],[37.71484,58.61753],[37.63232,58.63623],[37.6209,58.62622],[37.6666,58.57246],[37.66113,58.55747],[37.60869,58.54531],[37.56465,58.55283],[37.5377,58.6127],[37.45918,58.63394],[37.41035,58.66997],[37.41035,58.68906],[37.42285,58.72656],[37.37227,58.73145],[37.30791,58.76001],[37.15078,58.84873],[37.16924,58.72563],[37.15459,58.70654],[37.15527,58.69497],[37.3168,58.65742],[37.41689,58.61309],[37.50713,58.53535],[37.89717,58.2918],[37.94404,58.30088],[38.14873,58.24863],[38.22051,58.2373],[38.25098,58.19873],[38.24961,58.10269],[38.25918,58.0709],[38.28105,58.05386],[38.31016,58.04058],[38.36924,58.03159],[38.41533,58.01558],[38.43711,58.01753],[38.43691,58.03564],[38.35703,58.1001],[38.38311,58.12188],[38.61172,58.11313],[38.68096,58.1082],[38.704,58.11313],[38.69795,58.13296]]]]}},{"type":"Feature","properties":{"NAME":"Sweden","SUBJECTO":"Sweden","PARTOF":"Sweden","BORDERPRECISION":1},"geometry":{"type":"MultiPolygon","coordinates":[[[[30.30039,61],[30.40869,60.92803],[30.43584,60.90269],[30.44121,60.87363],[30.45586,60.86001],[30.50205,60.84321],[30.52793,60.81172],[30.5332,60.76553],[30.52539,60.73887],[30.50449,60.73164],[30.504,60.70356],[30.52393,60.65459],[30.53389,60.63008],[30.66328,60.59282],[30.72373,60.56177],[30.75859,60.52451],[30.77422,60.49209],[30.77598,60.4481],[30.80332,60.44663],[30.81689,60.45884],[30.83213,60.45752],[30.84912,60.44263],[30.95684,60.26362],[31.01895,60.19292],[31.10898,60.14644],[31.11494,60.13486],[31.09512,60.08374],[31.10596,60.0563],[31.14287,60.03169],[31.14531,60.00552],[31.06318,59.96289],[31.04277,59.95098],[31.06396,59.94321],[31.10625,59.92769],[31.17637,59.92578],[31.27441,59.93765],[31.29754,59.93614],[31.31837,59.59361],[29.99517,59.46346],[29.51795,59.24654],[29.04073,59.28993],[28.25925,59.01641],[27.92255,59.23048],[27.78194,59.03276],[27.69401,58.96828],[27.68301,58.97964],[27.66629,58.9825],[27.52373,59.00693],[27.29814,58.99492],[27.10732,58.9542],[27.03145,58.91437],[26.71588,58.9868],[24.69929,58.80775],[23.67697,58.37356],[23.69047,58.66548],[23.51187,58.58088],[23.36082,58.76742],[23.43198,58.85808],[23.34021,58.96956],[23.292,58.964],[23.277,58.963],[23.181,58.961],[23.165,58.963],[23.152,58.966],[23.144,58.971],[23.138,58.977],[23.113,59.017],[23.111,59.025],[23.117,59.031],[23.127,59.035],[23.138,59.038],[23.151,59.041],[23.181,59.042],[23.192,59.042],[23.326,59.037],[23.34,59.035],[23.352,59.032],[23.362,59.028],[23.37,59.023],[23.387,59.005],[23.392,58.998],[23.392,58.99],[23.38971,58.9868],[23.45698,59.00549],[23.41576,59.11896],[23.57018,59.13807],[24.03211,59.17574],[24.02956,59.23542],[24.28195,59.28414],[24.34157,59.36888],[24.53757,59.32341],[24.57092,59.37433],[24.71381,59.35183],[24.75122,59.44846],[25.24829,59.3618],[25.44879,59.49396],[25.48999,59.42004],[25.72112,59.45984],[26.34326,59.44665],[26.8619,59.37175],[26.99902,59.31773],[27.26509,59.33804],[27.70204,59.2975],[27.8936,59.34611],[28.01585,59.45415],[28.01309,59.45822],[28.0067,59.46764],[27.97339,59.51671],[27.89666,59.53378],[27.94169,59.6476],[28.09419,59.66468],[28.1631,59.59068],[28.26634,59.56223],[28.35098,59.60206],[28.3091,59.6644],[28.44436,59.73374],[28.66273,59.64434],[28.79593,59.67222],[28.93627,59.82455],[29.07607,59.90779],[29.41363,59.86003],[29.76545,59.73624],[29.96316,59.73662],[30.12664,59.80605],[29.95287,59.98558],[29.6873,60.131],[29.51074,60.14457],[28.96898,60.10879],[28.69163,60.14998],[28.5694,60.19842],[28.43523,60.33734],[28.55125,60.53264],[28.52151,60.62326],[28.43178,60.60347],[28.01144,60.51073],[27.47362,60.42608],[27.40622,60.34482],[27.17848,60.44239],[26.94557,60.37631],[26.92231,60.31612],[26.61308,60.34783],[26.52588,60.39647],[26.55164,60.5707],[26.44284,60.33334],[26.32271,60.27024],[26.03775,60.2493],[25.8901,60.23584],[25.84553,60.11548],[25.58054,60.26234],[25.44989,60.1384],[25.14579,60.10975],[24.99298,60.02957],[24.96947,60.08683],[24.74298,60.03823],[24.51596,59.9895],[24.42105,59.86975],[24.28136,59.93815],[23.97895,59.88115],[23.96111,59.93245],[23.66466,59.83555],[23.41885,59.82985],[23.20144,59.81846],[22.98213,59.93245],[22.882,60.05556],[23.0052,60.20876],[22.62462,60.2011],[22.39207,60.1212],[22.42147,60.29319],[22.22065,60.25877],[21.93095,60.38077],[21.74681,60.40827],[21.56015,60.51249],[21.44318,60.69365],[21.428,61],[17.14698,61],[17.14621,60.95283],[17.31763,60.75307],[17.1885,60.67429],[17.60496,60.63754],[17.70646,60.55358],[17.93075,60.59031],[18.22439,60.32297],[18.41687,60.18162],[18.80409,60.1084],[18.89307,59.92569],[19.03732,59.86324],[19.04355,59.71242],[18.86789,59.71242],[18.63925,59.56693],[18.25142,59.43194],[18.03008,59.35928],[17.79528,59.36447],[17.72995,59.41636],[17.36798,59.46827],[17.0706,59.54615],[16.78554,59.57732],[16.72409,59.53057],[16.52321,59.58252],[16.40758,59.4475],[16.77647,59.47866],[16.99984,59.35928],[17.26578,59.33853],[17.35812,59.24518],[17.57492,59.21407],[17.58441,59.27111],[17.86173,59.23999],[17.97764,59.32815],[18.11138,59.32297],[18.32817,59.36967],[18.42956,59.33335],[18.44137,59.40079],[18.51547,59.40079],[18.61133,59.33335],[18.5982,59.29704],[18.27337,59.28667],[18.37196,59.15707],[18.01567,59.03791],[17.94014,58.90849],[17.76647,58.87227],[17.72642,58.91366],[17.7452,58.98613],[17.73911,59.11042],[17.62318,59.10007],[17.58219,58.89297],[17.35668,58.74297],[17.24539,58.71712],[17.083,58.74813],[17.08073,58.64993],[16.44287,58.63442],[16.51319,58.42812],[16.74404,58.31195],[16.77355,58.0379],[16.72459,57.88932],[16.59776,57.86645],[16.45953,57.89521],[16.47653,57.70213],[16.60721,57.66581],[16.55048,57.54515],[16.65868,57.44295],[16.49416,57.27892],[16.39452,57.0743],[16.37617,56.82242],[16.06315,56.39624],[15.42699,56.76574],[14.48498,56.6801],[14.17541,56.8128],[13.43245,56.52387],[13.22607,57.10173],[12.89586,56.97791],[12.73076,57.43194],[12.52438,57.39066],[12.318,57.67959],[12,57.42427],[12,58.00154],[12.4879,58.56292],[12.42277,60.03878],[12.43586,60.2781],[12.54796,60.43387],[12.43103,60.62585],[12.17404,60.95641],[12.4296,61],[30.30039,61]]]]}},{"type":"Feature","properties":{"NAME":"Sweden","SUBJECTO":"Sweden","PARTOF":"Sweden","BORDERPRECISION":1},"geometry":{"type":"MultiPolygon","coordinates":[[[[16.42,56.586],[16.543,56.776],[16.612,56.868],[16.617,56.874],[16.629,56.879],[16.645,56.884],[16.749,56.94],[16.848,57.064],[16.9,57.135],[16.959,57.224],[16.963,57.229],[16.966,57.242],[16.96,57.257],[16.959,57.274],[16.961,57.28],[16.966,57.294],[16.973,57.305],[16.983,57.316],[16.993,57.325],[17.01,57.337],[17.022,57.345],[17.036,57.352],[17.057,57.359],[17.099,57.351],[17.106,57.348],[17.124,57.321],[17.051,57.187],[17.009,57.132],[16.961,57.075],[16.927,57.038],[16.88,56.93],[16.848,56.844],[16.841,56.832],[16.837,56.827],[16.828,56.825],[16.817,56.826],[16.808,56.824],[16.785,56.81],[16.779,56.806],[16.77,56.796],[16.727,56.702],[16.636,56.519],[16.577,56.407],[16.571,56.394],[16.569,56.388],[16.57,56.377],[16.572,56.372],[16.575,56.367],[16.576,56.361],[16.572,56.355],[16.553,56.326],[16.496,56.241],[16.486,56.231],[16.474,56.224],[16.437,56.211],[16.43,56.209],[16.421,56.211],[16.416,56.215],[16.411,56.225],[16.403,56.274],[16.392,56.465],[16.393,56.529],[16.396,56.536],[16.42,56.586]]]]}},{"type":"Feature","properties":{"NAME":"Sweden","SUBJECTO":"Sweden","PARTOF":"Sweden","BORDERPRECISION":1},"geometry":{"type":"MultiPolygon","coordinates":[[[[20.022,60.086],[19.999,60.089],[19.968,60.09],[19.958,60.089],[19.951,60.085],[19.948,60.079],[19.944,60.043],[19.939,60.059],[19.928,60.084],[19.925,60.089],[19.918,60.093],[19.908,60.095],[19.895,60.097],[19.875,60.095],[19.869,60.091],[19.87,60.086],[19.873,60.081],[19.868,60.077],[19.859,60.076],[19.848,60.076],[19.772,60.081],[19.751,60.095],[19.722,60.126],[19.699,60.159],[19.696,60.164],[19.648,60.257],[19.649,60.262],[19.749,60.305],[19.783,60.293],[19.777,60.261],[19.768,60.249],[19.762,60.244],[19.761,60.238],[19.793,60.191],[19.796,60.187],[19.809,60.185],[19.817,60.188],[19.931,60.277],[19.935,60.283],[19.937,60.289],[19.937,60.295],[19.931,60.304],[19.899,60.34],[19.892,60.343],[19.883,60.342],[19.878,60.336],[19.874,60.329],[19.872,60.323],[19.868,60.317],[19.862,60.312],[19.839,60.32],[19.834,60.322],[19.78,60.349],[19.783,60.354],[19.808,60.377],[19.825,60.392],[19.857,60.404],[19.869,60.404],[19.906,60.4],[20.085,60.35],[20.277,60.274],[20.218,60.208],[20.172,60.164],[20.162,60.162],[20.092,60.17],[20.086,60.174],[20.082,60.179],[20.101,60.216],[20.106,60.221],[20.123,60.226],[20.12,60.24],[20.067,60.296],[20.062,60.301],[20.047,60.308],[20.037,60.311],[20.025,60.311],[19.914,60.217],[19.914,60.212],[19.927,60.193],[19.931,60.188],[19.937,60.184],[19.946,60.181],[19.987,60.17],[20.026,60.154],[20.051,60.101],[20.053,60.096],[20.051,60.09],[20.044,60.086],[20.022,60.086]]]]}},{"type":"Feature","properties":{"NAME":"Sweden","SUBJECTO":"Sweden","PARTOF":"Sweden","BORDERPRECISION":1},"geometry":{"type":"MultiPolygon","coordinates":[[[[19.551,60.125],[19.543,60.128],[19.523,60.151],[19.511,60.175],[19.512,60.181],[19.536,60.225],[19.541,60.23],[19.565,60.249],[19.572,60.252],[19.58,60.255],[19.589,60.257],[19.602,60.256],[19.612,60.253],[19.627,60.244],[19.666,60.193],[19.669,60.189],[19.674,60.173],[19.677,60.157],[19.673,60.15],[19.604,60.153],[19.575,60.122],[19.563,60.123],[19.551,60.125]]]]}},{"type":"Feature","properties":{"NAME":"Sweden","SUBJECTO":"Sweden","PARTOF":"Sweden","BORDERPRECISION":1},"geometry":{"type":"MultiPolygon","coordinates":[[[[20.287,60.129],[20.292,60.125],[20.295,60.121],[20.298,60.11],[20.298,60.104],[20.271,60.057],[20.263,60.054],[20.205,60.081],[20.2,60.086],[20.199,60.091],[20.205,60.109],[20.216,60.139],[20.223,60.142],[20.269,60.141],[20.276,60.137],[20.287,60.129]]]]}},{"type":"Feature","properties":{"NAME":"Sweden","SUBJECTO":"Sweden","PARTOF":"Sweden","BORDERPRECISION":1},"geometry":{"type":"MultiPolygon","coordinates":[[[[20.004,60.051],[19.999,60.055],[20.003,60.062],[20.008,60.067],[20.094,60.093],[20.103,60.096],[20.109,60.092],[20.11,60.088],[20.123,60.081],[20.164,60.069],[20.193,60.065],[20.205,60.064],[20.212,60.06],[20.227,60.003],[20.226,60],[20.211,59.98],[20.203,59.977],[20.137,59.992],[20.129,59.995],[20.004,60.051]]]]}},{"type":"Feature","properties":{"NAME":"Sweden","SUBJECTO":"Sweden","PARTOF":"Sweden","BORDERPRECISION":1},"geometry":{"type":"MultiPolygon","coordinates":[[[[22.884,58.833],[22.866,58.824],[22.868,58.819],[22.882,58.817],[22.889,58.811],[22.887,58.788],[22.884,58.78],[22.848,58.774],[22.816,58.773],[22.798,58.774],[22.784,58.776],[22.778,58.782],[22.777,58.79],[22.783,58.796],[22.793,58.8],[22.804,58.804],[22.823,58.812],[22.829,58.818],[22.826,58.824],[22.812,58.826],[22.798,58.825],[22.776,58.819],[22.747,58.806],[22.739,58.8],[22.721,58.782],[22.701,58.754],[22.692,58.739],[22.69,58.731],[22.681,58.717],[22.675,58.711],[22.667,58.705],[22.646,58.698],[22.624,58.691],[22.596,58.688],[22.565,58.687],[22.547,58.687],[22.532,58.689],[22.518,58.691],[22.48,58.7],[22.47,58.704],[22.465,58.71],[22.469,58.716],[22.472,58.764],[22.45,58.831],[22.446,58.838],[22.426,58.855],[22.405,58.872],[22.39,58.882],[22.382,58.887],[22.37,58.89],[22.336,58.892],[22.277,58.889],[22.246,58.879],[22.229,58.878],[22.177,58.889],[22.165,58.892],[22.064,58.924],[22.053,58.928],[22.045,58.932],[22.042,58.94],[22.046,58.945],[22.052,58.95],[22.065,58.952],[22.191,58.947],[22.376,58.952],[22.434,58.966],[22.468,58.978],[22.488,58.992],[22.524,59.022],[22.576,59.069],[22.699,59.051],[22.695,59.044],[22.699,59.02],[22.703,59.014],[22.72,59.004],[22.734,59.001],[22.75,59],[22.801,58.997],[22.843,59.002],[22.861,59.002],[22.93,58.982],[22.952,58.967],[23.044,58.851],[23.048,58.844],[23.045,58.836],[23.022,58.821],[23.005,58.831],[22.961,58.845],[22.948,58.844],[22.884,58.833]]]]}},{"type":"Feature","properties":{"NAME":"Poland-Llituania","SUBJECTO":"Poland-Llituania","PARTOF":"Poland-Llituania","BORDERPRECISION":1},"geometry":{"type":"MultiPolygon","coordinates":[[[[19.88059,53.24602],[20.33301,52.97457],[22.8213,53.56271],[22.3915,54.03774],[22.79867,54.73899],[21.96171,55.03306],[21.00793,55.81652],[20.99596,56.02413],[20.94545,56.06996],[21.9045,56.35004],[22.74543,56.35004],[22.8566,56.32438],[23.29676,56.94461],[23.41447,56.89241],[23.76781,56.86588],[24.15838,56.97549],[24.26631,57.03015],[24.3465,57.15972],[24.32294,57.33689],[24.24295,57.69765],[24.23619,57.72816],[24.32544,57.83747],[24.34565,57.86222],[24.41564,57.94793],[24.4144,58.10589],[24.49679,58.21315],[24.33109,58.30793],[24.05835,58.11153],[23.90807,58.22445],[23.67086,58.24139],[23.67697,58.37356],[24.69929,58.80775],[26.71588,58.9868],[27.03145,58.91437],[26.97412,58.88428],[26.96641,58.80557],[27.15674,58.64795],[27.23662,58.45225],[27.32393,58.4019],[27.42549,58.30308],[27.47266,58.21675],[27.49707,58.18413],[27.5653,58.09269],[27.62383,58.01426],[27.67832,58.01851],[27.80273,57.99023],[27.88164,57.93701],[27.87539,57.92041],[27.91094,57.89575],[27.99209,57.86812],[28.10176,57.85996],[28.16924,57.9145],[28.14922,57.97466],[28.09697,58.04443],[27.97305,58.13262],[27.86514,58.17349],[27.71436,58.16426],[27.5918,58.17461],[27.57742,58.19946],[27.56855,58.21479],[27.56133,58.25742],[27.58271,58.3064],[27.59019,58.31199],[27.74785,58.42993],[27.79814,58.44683],[27.82051,58.48491],[27.81367,58.57134],[27.74844,58.91206],[27.69401,58.96828],[27.78194,59.03276],[27.92255,59.23048],[28.25925,59.01641],[28.17305,58.98624],[29.51795,58.07518],[29.99517,58.20533],[30.47239,57.7715],[30.38562,57.29428],[31.16652,56.73029],[31.55698,57.03398],[32.07758,56.77367],[31.86066,55.99277],[31.20991,55.73247],[31.25329,55.60232],[31.51359,55.55893],[31.73051,54.95156],[31.42683,54.90818],[31.55698,54.30081],[32.20773,54.43096],[32.46803,53.08606],[31.38344,53.2596],[31.29668,52.95591],[31.38344,52.00147],[31.34417,50.92256],[33.16919,51.42951],[33.87892,51.12534],[33.87892,50.21283],[35.70394,50.41561],[36.21089,49.90866],[36.39939,49.03577],[36.00811,48.99615],[34.16306,47.81065],[33.67603,47.95111],[32.86502,48.18503],[29.31637,48.28642],[27.64777,48.75158],[27.48576,48.75158],[27.48576,48.67057],[27.10773,48.83258],[27.10773,48.64357],[26.9894,48.68076],[26.52424,48.82695],[26.16266,48.94059],[25.66633,48.69198],[24.16083,48.9866],[23.88853,49.2589],[21.77068,49.59171],[21.77068,49.74298],[21.31685,49.864],[21.2866,49.77324],[21.13532,49.83375],[20.98405,49.74298],[20.89328,49.83375],[20.80252,49.83375],[20.89328,49.74298],[20.6815,49.65222],[20.53022,49.80349],[20.34869,49.74298],[20.01589,49.80349],[19.89487,49.47069],[19.71334,49.5312],[19.56206,49.5312],[19.56206,49.71273],[19.38053,49.80349],[19.13849,49.71273],[19.10824,49.59171],[18.92671,49.62196],[18.89645,49.71273],[18.79632,49.71345],[18.76907,50.17699],[18.74563,50.26604],[18.64604,50.64451],[18.14006,50.98766],[17.63977,51.43688],[17.55255,51.65493],[17.29089,51.78576],[17.20367,51.61132],[16.85479,51.65493],[16.85479,51.91659],[16.50591,52.17825],[16.50591,52.00381],[16.0951,52.12417],[15.76453,52.26547],[15.76017,52.57074],[15.81599,52.57074],[15.84391,52.71029],[16.05312,52.71645],[16.20376,53.34333],[16.41554,53.52486],[16.20376,53.70639],[16.65758,53.85766],[16.80886,53.46435],[16.80886,53.85766],[16.68784,54.03919],[16.99039,54.19047],[17.11141,54.12996],[17.74676,54.43251],[17.65761,54.68546],[18.27945,54.72412],[18.75953,54.53641],[18.36292,54.66889],[18.3385,54.60265],[18.45381,54.52538],[18.51316,54.31578],[18.66521,54.25812],[18.34238,53.96988],[18.88528,53.58533],[18.7948,53.31388],[19.88059,53.24602]]]]}},{"type":"Feature","properties":{"NAME":"Denmark-Norway","SUBJECTO":"Denmark-Norway","PARTOF":"Denmark-Norway","BORDERPRECISION":1},"geometry":{"type":"MultiPolygon","coordinates":[[[[23.14,58.666],[23.15,58.67],[23.174,58.676],[23.186,58.678],[23.201,58.679],[23.216,58.678],[23.247,58.671],[23.271,58.664],[23.317,58.651],[23.339,58.643],[23.347,58.639],[23.395,58.566],[23.399,58.559],[23.396,58.551],[23.376,58.533],[23.365,58.53],[23.227,58.53],[23.215,58.533],[23.091,58.58],[23.071,58.588],[23.065,58.594],[23.06,58.601],[23.058,58.608],[23.061,58.616],[23.069,58.622],[23.14,58.666]]],[[[23.21545,56.98067],[23.29676,56.94461],[22.8566,56.32438],[22.74543,56.35004],[21.9045,56.35004],[20.94545,56.06996],[20.91601,56.09667],[20.94905,56.47319],[20.96483,56.60902],[21.02205,56.68388],[21.32438,56.85442],[21.33975,57.17707],[21.45959,57.24961],[21.57951,57.3726],[21.67733,57.46366],[21.81025,57.47538],[22.2854,57.56504],[22.35993,57.58567],[22.43297,57.61556],[22.56364,57.61556],[22.58542,57.50865],[22.88137,57.33414],[23.07089,57.26132],[23.17466,57.04849],[23.21545,56.98067]]],[[[22.202,57.986],[22.099,57.931],[22.073,57.917],[22.052,57.91],[22.038,57.908],[22.022,57.91],[22.01,57.913],[22.001,57.917],[21.994,57.923],[21.981,57.958],[21.986,57.976],[22.082,58.077],[22.09,58.082],[22.101,58.085],[22.112,58.084],[22.151,58.086],[22.197,58.137],[22.201,58.145],[22.197,58.151],[22.189,58.156],[22.177,58.159],[22.145,58.159],[22.132,58.161],[22.079,58.171],[22.069,58.175],[21.884,58.252],[21.87,58.262],[21.849,58.279],[21.844,58.286],[21.841,58.293],[21.844,58.299],[21.874,58.34],[21.885,58.343],[21.899,58.343],[21.956,58.343],[22.008,58.353],[22.006,58.36],[21.996,58.381],[21.917,58.457],[21.91,58.463],[21.902,58.468],[21.878,58.474],[21.868,58.478],[21.851,58.488],[21.832,58.505],[21.843,58.508],[21.925,58.517],[21.985,58.516],[22.001,58.515],[22.112,58.492],[22.189,58.545],[22.198,58.549],[22.327,58.577],[22.502,58.602],[22.624,58.593],[22.768,58.6],[22.776,58.606],[22.808,58.616],[22.824,58.617],[22.872,58.618],[22.905,58.617],[22.917,58.616],[22.979,58.601],[22.991,58.598],[23.091,58.564],[23.263,58.496],[23.273,58.492],[23.289,58.482],[23.32,58.462],[23.332,58.45],[23.333,58.442],[23.328,58.434],[23.267,58.429],[23.25,58.43],[23.226,58.437],[23.206,58.445],[23.198,58.45],[23.142,58.444],[23.077,58.414],[23.064,58.386],[23.029,58.358],[22.757,58.24],[22.649,58.23],[22.582,58.241],[22.521,58.242],[22.487,58.242],[22.475,58.242],[22.378,58.223],[22.367,58.22],[22.289,58.188],[22.279,58.184],[22.272,58.179],[22.267,58.171],[22.266,58.164],[22.269,58.156],[22.274,58.15],[22.276,58.142],[22.265,58.102],[22.262,58.094],[22.202,57.986]]],[[[18.24222,57.61749],[18.24917,57.62083],[18.27611,57.63416],[18.29472,57.64583],[18.33889,57.68166],[18.35583,57.69583],[18.38194,57.71861],[18.40167,57.73861],[18.41972,57.76028],[18.45639,57.80277],[18.46139,57.80778],[18.46722,57.81194],[18.48111,57.8186],[18.68194,57.91361],[18.69,57.91611],[18.71611,57.9211],[18.725,57.92278],[18.88194,57.91972],[18.9025,57.91833],[18.91417,57.9175],[19.00472,57.90861],[19.00611,57.90361],[19.00389,57.89889],[19.03333,57.82694],[18.92944,57.73972],[18.84889,57.72111],[18.80917,57.70361],[18.79333,57.65916],[18.75972,57.50805],[18.76806,57.47222],[18.76944,57.46722],[18.78833,57.44833],[18.71444,57.24694],[18.71194,57.24166],[18.65805,57.22083],[18.55194,57.18278],[18.51472,57.16944],[18.49833,57.16528],[18.45556,57.15694],[18.43944,57.15277],[18.41722,57.14417],[18.39722,57.13416],[18.39139,57.13],[18.38667,57.12499],[18.34555,57.07972],[18.34139,57.07388],[18.33917,57.0686],[18.33555,57.02333],[18.33583,57.01749],[18.34333,57.01444],[18.34666,56.9986],[18.3025,56.93749],[18.295,56.93472],[18.21555,56.91306],[18.20611,56.91194],[18.16889,56.91],[18.14778,56.91194],[18.14027,56.91499],[18.1425,56.92027],[18.15833,56.94167],[18.20916,56.98917],[18.25666,57.03222],[18.25444,57.07916],[18.17333,57.14194],[18.14833,57.23528],[18.15805,57.31583],[18.1425,57.40944],[18.11528,57.48083],[18.11028,57.49611],[18.11,57.51305],[18.11138,57.51944],[18.11916,57.53111],[18.13861,57.55111],[18.17917,57.58833],[18.19144,57.59614],[18.21194,57.60583],[18.22778,57.61138],[18.24222,57.61749]]],[[[14.72972,55.2466],[14.84507,55.25632],[15.04243,55.17785],[15.11875,55.10271],[15.07403,55.0309],[14.95868,55.02118],[14.69639,55.14868],[14.72972,55.2466]]],[[[12,55.817],[12.02125,55.78909],[12.02667,55.72],[12,55.70042],[12,55.65333],[12.02687,55.65333],[12.06639,55.66777],[12.08472,55.69666],[12.08035,55.76437],[12.05326,55.8709],[12,55.92896],[12,56.01955],[12.18278,56.08833],[12.37264,56.10715],[12.53681,56.06368],[12.60597,56.02951],[12.58014,56.00465],[12.5543,55.97402],[12.52847,55.93764],[12.53673,55.86562],[12.5791,55.75798],[12.49792,55.64777],[12.29319,55.535],[12.25854,55.43055],[12.39396,55.33444],[12.35,55.25514],[12.12667,55.19264],[12.05653,55.15034],[12.13958,55.12826],[12.17875,55.08764],[12.17403,55.02847],[12.14673,54.99132],[12.09687,54.97618],[12,54.98972],[12,55.817]]],[[[12,54.89416],[12.0709,54.87916],[12.1366,54.8525],[12.11951,54.80423],[12.01965,54.73437],[12,54.70777],[12,54.89416]]],[[[12.49611,54.98194],[12.46403,54.94319],[12.27708,54.90125],[12.16667,54.88624],[12.13278,54.89819],[12.16486,54.93694],[12.26292,55.00249],[12.37333,55.01749],[12.49611,54.98194]]],[[[12.66049,55.61694],[12.65382,55.58076],[12.60423,55.56118],[12.56257,55.56597],[12.52882,55.59513],[12.53549,55.63132],[12.58257,55.67451],[12.62424,55.66972],[12.66049,55.61694]]],[[[13.43245,56.52387],[14.17541,56.8128],[14.48498,56.6801],[15.42699,56.76574],[16.06315,56.39624],[16.03145,56.35307],[15.77054,56.03321],[15.69623,56.06096],[15.49704,56.16724],[15.2208,56.08036],[14.65289,56.12062],[14.60523,55.98078],[14.49183,56.01804],[14.25893,55.89928],[14.12602,55.66658],[14.28635,55.51549],[14.1172,55.34711],[13.90111,55.40515],[13.8233,55.42182],[13.30185,55.3007],[12.80237,55.35291],[12.80192,55.41677],[12.88756,55.45161],[12.85931,55.53292],[12.98587,55.66658],[12.69901,55.9051],[12.59825,56.02207],[12.60597,56.02951],[12.58137,56.04166],[12.51336,56.12062],[12.41441,56.24304],[12.65238,56.29553],[12.61544,56.43561],[12.80481,56.4012],[12.87158,56.51152],[12.78586,56.61668],[12.65748,56.61084],[12.52603,56.7804],[12.28862,56.87986],[12.00514,57.32521],[12,57.32521],[12,57.42427],[12.318,57.67959],[12.52438,57.39066],[12.73076,57.43194],[12.89586,56.97791],[13.22607,57.10173],[13.43245,56.52387]]],[[[12.4296,61],[12.17404,60.95641],[12.43103,60.62585],[12.54796,60.43387],[12.43586,60.2781],[12.42277,60.03878],[12.4879,58.56292],[12,58.00154],[12,61],[12.4296,61]]]]}},{"type":"Feature","properties":{"NAME":"Crimean Khanate","SUBJECTO":"Ottoman Empire","PARTOF":"Ottoman Empire","BORDERPRECISION":1},"geometry":{"type":"MultiPolygon","coordinates":[[[[32.11467,46.21533],[33.14183,47.12951],[33.67603,47.95111],[34.16306,47.81065],[36.00811,48.99615],[36.39939,49.03577],[37.88465,49.1862],[39.2587,48.43672],[40,47.84368],[40,46],[37.98615,46],[37.98994,46.00666],[38.22715,46.02009],[38.45898,46.07891],[38.26491,46.31856],[37.97017,46.44128],[37.7571,46.60319],[37.8666,46.65536],[38.03186,46.66868],[38.40109,46.72135],[38.72274,46.87792],[39.28236,47.07403],[39.19409,47.24295],[39.15985,47.26889],[38.80025,47.22917],[38.20973,47.15046],[37.85925,47.10374],[37.42214,47.07688],[37.19263,46.89442],[36.86456,46.80929],[36.35397,46.7758],[35.85056,46.66439],[35.62433,46.52106],[35.4161,46.49469],[35.21237,46.63714],[35.04637,46.35765],[34.90681,46.27302],[34.69235,46.25313],[34.49565,46.2787],[34.06422,46.26487],[33.83908,46.19305],[34.12726,46.0639],[34.25179,46],[33.59966,46],[33.52795,46.13406],[33.33253,46.16611],[32.97293,46.14595],[32.51644,46.12558],[32.20217,46.17036],[32.11467,46.21533]]]]}}]}