{"type":"FeatureCollection","name":"Regional historical snapshot 1914","license":"GPL-3.0-only","attribution":"André Ourednik and historical-basemaps contributors","upstream":"https://raw.githubusercontent.com/aourednik/historical-basemaps/62d8f1a03a71f2d3ff17f2d166f7553f256bce68/geojson/world_1914.geojson","revision":"62d8f1a03a71f2d3ff17f2d166f7553f256bce68","modification":"Clipped to 12–40°E / 46–61°N; coordinates rounded to five decimal places. Display precision remains approximate, not five-decimal historical accuracy.","modified":"2026-09-08","features":[{"type":"Feature","properties":{"NAME":"Norway","SUBJECTO":"Norway","PARTOF":"Norway","BORDERPRECISION":3},"geometry":{"type":"MultiPolygon","coordinates":[[[[12,61],[12.4296,61],[12.17404,60.95641],[12.43103,60.62585],[12.54796,60.43387],[12.43586,60.2781],[12.42277,60.03878],[12.07703,59.86592],[12,59.86346],[12,61]]]]}},{"type":"Feature","properties":{"NAME":"Finland","SUBJECTO":"Finland","PARTOF":"Finland","BORDERPRECISION":3},"geometry":{"type":"MultiPolygon","coordinates":[[[[28.96641,61],[28.51004,60.73181],[28.43178,60.60347],[28.01144,60.51073],[27.47362,60.42608],[27.40622,60.34482],[27.17848,60.44239],[26.94557,60.37631],[26.92231,60.31612],[26.61308,60.34783],[26.52588,60.39647],[26.55164,60.5707],[26.44284,60.33334],[26.32271,60.27024],[26.03775,60.2493],[25.8901,60.23584],[25.84553,60.11548],[25.58054,60.26234],[25.44989,60.1384],[25.14579,60.10975],[24.99298,60.02957],[24.96947,60.08683],[24.74298,60.03823],[24.51596,59.9895],[24.42105,59.86975],[24.28136,59.93815],[23.97895,59.88115],[23.96111,59.93245],[23.66466,59.83555],[23.41885,59.82985],[23.20144,59.81846],[22.98213,59.93245],[22.882,60.05556],[23.0052,60.20876],[22.62462,60.2011],[22.39207,60.1212],[22.42147,60.29319],[22.22065,60.25877],[21.93095,60.38077],[21.74681,60.40827],[21.56015,60.51249],[21.44318,60.69365],[21.428,61],[28.96641,61]]]]}},{"type":"Feature","properties":{"NAME":"Kingfom of Italy","SUBJECTO":"Italy","PARTOF":"Italy","BORDERPRECISION":3},"geometry":{"type":"MultiPolygon","coordinates":[[[[12,46],[12,46.88828],[12.07475,46.92751],[12.21781,46.88432],[12.36185,46.70854],[12.95189,46.59746],[13.35401,46.56066],[13.5689,46.51043],[13.6211,46.42088],[13.34447,46.28451],[13.38871,46.21633],[13.522,46.21557],[13.60634,46.13214],[13.44074,46.00389],[13.45541,46],[12,46]]]]}},{"type":"Feature","properties":{"NAME":"Romania","SUBJECTO":"Romania","PARTOF":"Romania","BORDERPRECISION":3},"geometry":{"type":"MultiPolygon","coordinates":[[[[27.10773,48.64357],[27.10773,48.83258],[27.48576,48.67057],[27.48576,48.75158],[27.64777,48.75158],[27.70612,48.4397],[27.72314,48.43402],[27.81961,48.3943],[27.88203,48.33756],[27.94444,48.31486],[28.01254,48.30918],[28.05793,48.28081],[28.08063,48.25244],[28.11467,48.21839],[28.16007,48.22407],[28.21681,48.21272],[28.29625,48.22974],[28.34732,48.22974],[28.35867,48.20137],[28.31895,48.15597],[28.30193,48.13328],[28.34732,48.1503],[28.38704,48.13895],[28.38704,48.10491],[28.41542,48.08221],[28.42679,48.09738],[28.90822,47.81839],[29.1156,47.28267],[29.42666,46.81608],[29.80685,46.50501],[29.96431,46.36855],[30.06607,46.28036],[30.43285,46.17575],[30.22932,46],[23.17744,46],[23.25451,46.06606],[23.37342,46],[23.70206,46],[23.79455,46.06606],[24.06457,46.09981],[24.23093,46],[25.48873,46],[25.44842,46.30233],[25.65093,46.40359],[25.85345,46.67361],[26.02484,46.83207],[25.8428,46.9683],[25.64775,47.14253],[25.22731,47.24856],[25.56973,47.42187],[25.78645,47.34263],[25.95116,47.49514],[26.52764,47.53319],[26.44095,47.59754],[26.22423,47.96162],[26.03785,48.2164],[26.12887,48.26836],[26.25457,48.30297],[26.08986,48.60768],[26.47992,48.58577],[26.9894,48.68076],[27.10773,48.64357]]]]}},{"type":"Feature","properties":{"NAME":"Austro-Hungarian Empire","SUBJECTO":"Austro-Hungarian Empire","PARTOF":"Austro-Hungarian Empire","BORDERPRECISION":3},"geometry":{"type":"MultiPolygon","coordinates":[[[[13.45541,46],[13.44074,46.00389],[13.60634,46.13214],[13.522,46.21557],[13.38871,46.21633],[13.34447,46.28451],[13.6211,46.42088],[13.5689,46.51043],[13.35401,46.56066],[12.95189,46.59746],[12.36185,46.70854],[12.21781,46.88432],[12.07475,46.92751],[12,46.88828],[12,47.62508],[12.12203,47.62843],[12.16328,47.70879],[12.35818,47.72425],[12.44609,47.66242],[12.70008,47.69025],[12.76539,47.6377],[12.74373,47.56353],[12.94202,47.4832],[12.97892,47.50791],[13.023,47.66242],[12.99808,47.73352],[12.84753,47.73971],[12.93631,47.87266],[12.69419,48.12944],[12.85825,48.23158],[13.29362,48.36472],[13.36665,48.44214],[13.38414,48.59393],[13.44369,48.60633],[13.64004,48.53816],[13.94668,48.6551],[13.74548,48.93995],[13.65207,48.9561],[13.57815,49.03689],[13.47973,48.99918],[13.39694,49.08953],[13.20311,49.16617],[12.94526,49.39792],[12.86081,49.36557],[12.64578,49.48458],[12.5363,49.56258],[12.51971,49.66758],[12.44831,49.70615],[12.48435,49.88885],[12.55416,50.00162],[12.36839,50.04564],[12.25234,50.21589],[12.23536,50.24081],[12.34475,50.31674],[12.46162,50.39812],[12.59385,50.38356],[12.78367,50.47411],[12.98234,50.47411],[13.0175,50.55555],[13.1894,50.56098],[13.233,50.66377],[13.39415,50.69134],[13.47326,50.65874],[13.52416,50.75655],[13.85478,50.76742],[13.91066,50.84351],[14.14649,50.86526],[14.27475,50.90876],[14.38877,50.94683],[14.26166,51.04474],[14.4578,51.07738],[14.59638,51.02298],[14.61032,50.89788],[14.76481,50.86526],[14.82888,50.91691],[14.99727,50.91691],[15.00827,50.98489],[14.98096,51.01754],[15.00929,51.05562],[15.17189,51.06379],[15.26701,51.02298],[15.30875,50.90604],[15.47216,50.83264],[15.5628,50.82129],[15.81834,50.79731],[15.87749,50.71579],[16.00293,50.73209],[16.00086,50.65602],[16.21021,50.68591],[16.23778,50.71579],[16.35315,50.70492],[16.44283,50.62343],[16.39859,50.56912],[16.30475,50.55826],[16.2044,50.46325],[16.45142,50.352],[16.58495,50.18115],[16.72802,50.14862],[16.82706,50.23267],[17.01153,50.2869],[16.88444,50.42255],[16.88559,50.48769],[17.01442,50.47683],[17.24333,50.38999],[17.35975,50.33572],[17.67876,50.33827],[17.59712,50.21098],[17.74557,50.24894],[17.74471,50.13507],[17.75066,50.03598],[17.88249,50.03011],[18.04804,50.10255],[18.18777,50.02126],[18.54872,49.96173],[18.60447,49.93895],[18.7482,50.04614],[18.89213,50.06414],[19.31124,50.2684],[19.92339,50.18516],[20.27061,50.10421],[20.8112,50.3611],[21.15738,50.37649],[21.39813,50.51849],[21.90783,50.81219],[22.39437,50.68025],[22.48285,50.37175],[23.11624,50.38536],[24.06276,50.62074],[24.40436,50.63428],[24.95235,50.41712],[25.15162,50.33542],[25.20262,50.15525],[25.38011,50.04657],[25.50517,49.84408],[25.67114,49.75961],[26.25471,49.75041],[26.21936,49.13429],[26.47992,48.58577],[26.08986,48.60768],[26.25457,48.30297],[26.12887,48.26836],[26.03785,48.2164],[26.22423,47.96162],[26.44095,47.59754],[26.52764,47.53319],[25.95116,47.49514],[25.78645,47.34263],[25.56973,47.42187],[25.22731,47.24856],[25.64775,47.14253],[25.8428,46.9683],[26.02484,46.83207],[25.85345,46.67361],[25.65093,46.40359],[25.44842,46.30233],[25.48873,46],[24.23093,46],[24.06457,46.09981],[23.79455,46.06606],[23.70206,46],[23.37342,46],[23.25451,46.06606],[23.17744,46],[13.45541,46]]]]}},{"type":"Feature","properties":{"NAME":"Sweden","SUBJECTO":"Sweden","PARTOF":"Sweden","BORDERPRECISION":3},"geometry":{"type":"MultiPolygon","coordinates":[[[[19.28666,57.93749],[19.2775,57.94028],[19.27444,57.945],[19.26806,57.94861],[19.25666,57.94944],[19.23805,57.94694],[19.17056,57.92944],[19.16278,57.92694],[19.15083,57.91861],[19.14583,57.91361],[19.14167,57.90778],[19.14,57.90167],[19.12611,57.83972],[19.09333,57.85194],[19.07777,57.85833],[19.07306,57.8625],[19.0375,57.89639],[19.03444,57.90111],[19.03444,57.9125],[19.03611,57.91861],[19.08889,57.97028],[19.09583,57.97361],[19.10472,57.97527],[19.28583,57.97666],[19.29639,57.97666],[19.3075,57.97444],[19.3325,57.96527],[19.33555,57.96055],[19.33444,57.95583],[19.28666,57.93749]]],[[[17.14698,61],[17.14621,60.95283],[17.31763,60.75307],[17.1885,60.67429],[17.60496,60.63754],[17.70646,60.55358],[17.93075,60.59031],[18.22439,60.32297],[18.41687,60.18162],[18.80409,60.1084],[18.89307,59.92569],[19.03732,59.86324],[19.04355,59.71242],[18.86789,59.71242],[18.63925,59.56693],[18.25142,59.43194],[18.03008,59.35928],[17.79528,59.36447],[17.72995,59.41636],[17.36798,59.46827],[17.0706,59.54615],[16.78554,59.57732],[16.72409,59.53057],[16.52321,59.58252],[16.40758,59.4475],[16.77647,59.47866],[16.99984,59.35928],[17.26578,59.33853],[17.35812,59.24518],[17.57492,59.21407],[17.58441,59.27111],[17.86173,59.23999],[17.97764,59.32815],[18.11138,59.32297],[18.32817,59.36967],[18.42956,59.33335],[18.44137,59.40079],[18.51547,59.40079],[18.61133,59.33335],[18.5982,59.29704],[18.27337,59.28667],[18.37196,59.15707],[18.01567,59.03791],[17.94014,58.90849],[17.76647,58.87227],[17.72642,58.91366],[17.7452,58.98613],[17.73911,59.11042],[17.62318,59.10007],[17.58219,58.89297],[17.35668,58.74297],[17.24539,58.71712],[17.083,58.74813],[17.08073,58.64993],[16.44287,58.63442],[16.51319,58.42812],[16.74404,58.31195],[16.77355,58.0379],[16.72459,57.88932],[16.59776,57.86645],[16.45953,57.89521],[16.47653,57.70213],[16.60721,57.66581],[16.55048,57.54515],[16.65868,57.44295],[16.49416,57.27892],[16.39452,57.0743],[16.37617,56.82242],[16.03145,56.35307],[15.77054,56.03321],[15.69623,56.06096],[15.49704,56.16724],[15.2208,56.08036],[14.65289,56.12062],[14.60523,55.98078],[14.49183,56.01804],[14.25893,55.89928],[14.12602,55.66658],[14.28635,55.51549],[14.1172,55.34711],[13.90111,55.40515],[13.8233,55.42182],[13.30185,55.3007],[12.80237,55.35291],[12.80192,55.41677],[12.88756,55.45161],[12.85931,55.53292],[12.98587,55.66658],[12.69901,55.9051],[12.59825,56.02207],[12.60597,56.02951],[12.58137,56.04166],[12.51336,56.12062],[12.41441,56.24304],[12.65238,56.29553],[12.61544,56.43561],[12.80481,56.4012],[12.87158,56.51152],[12.78586,56.61668],[12.65748,56.61084],[12.52603,56.7804],[12.28862,56.87986],[12.00514,57.32521],[12,57.32521],[12,59.86346],[12.07703,59.86592],[12.42277,60.03878],[12.43586,60.2781],[12.54796,60.43387],[12.43103,60.62585],[12.17404,60.95641],[12.4296,61],[17.14698,61]]],[[[18.14778,56.91194],[18.14027,56.91499],[18.1425,56.92027],[18.15833,56.94167],[18.20916,56.98917],[18.25666,57.03222],[18.25444,57.07916],[18.17333,57.14194],[18.14833,57.23528],[18.15805,57.31583],[18.1425,57.40944],[18.11528,57.48083],[18.11028,57.49611],[18.11,57.51305],[18.11138,57.51944],[18.11916,57.53111],[18.13861,57.55111],[18.17917,57.58833],[18.19144,57.59614],[18.21194,57.60583],[18.22778,57.61138],[18.24222,57.61749],[18.24917,57.62083],[18.27611,57.63416],[18.29472,57.64583],[18.33889,57.68166],[18.35583,57.69583],[18.38194,57.71861],[18.40167,57.73861],[18.41972,57.76028],[18.45639,57.80277],[18.46139,57.80778],[18.46722,57.81194],[18.48111,57.8186],[18.68194,57.91361],[18.69,57.91611],[18.71611,57.9211],[18.725,57.92278],[18.88194,57.91972],[18.9025,57.91833],[18.91417,57.9175],[19.00472,57.90861],[19.00611,57.90361],[19.00389,57.89889],[19.03333,57.82694],[18.92944,57.73972],[18.84889,57.72111],[18.80917,57.70361],[18.79333,57.65916],[18.75972,57.50805],[18.76806,57.47222],[18.76944,57.46722],[18.78833,57.44833],[18.71444,57.24694],[18.71194,57.24166],[18.65805,57.22083],[18.55194,57.18278],[18.51472,57.16944],[18.49833,57.16528],[18.45556,57.15694],[18.43944,57.15277],[18.41722,57.14417],[18.39722,57.13416],[18.39139,57.13],[18.38667,57.12499],[18.34555,57.07972],[18.34139,57.07388],[18.33917,57.0686],[18.33555,57.02333],[18.33583,57.01749],[18.34333,57.01444],[18.34666,56.9986],[18.3025,56.93749],[18.295,56.93472],[18.21555,56.91306],[18.20611,56.91194],[18.16889,56.91],[18.14778,56.91194]]]]}},{"type":"Feature","properties":{"NAME":"Denmark","SUBJECTO":"Denmark","PARTOF":"Denmark","BORDERPRECISION":3},"geometry":{"type":"MultiPolygon","coordinates":[[[[14.69639,55.14868],[14.72972,55.2466],[14.84507,55.25632],[15.04243,55.17785],[15.11875,55.10271],[15.07403,55.0309],[14.95868,55.02118],[14.77271,55.07354],[14.69639,55.14868]]],[[[12,55.817],[12.02125,55.78909],[12.02667,55.72],[12,55.70042],[12,55.65333],[12.02687,55.65333],[12.06639,55.66777],[12.08472,55.69666],[12.08035,55.76437],[12.05326,55.8709],[12,55.92896],[12,56.01955],[12.18278,56.08833],[12.37264,56.10715],[12.53681,56.06368],[12.60597,56.02951],[12.58014,56.00465],[12.5543,55.97402],[12.52847,55.93764],[12.53673,55.86562],[12.5791,55.75798],[12.49792,55.64777],[12.29319,55.535],[12.25854,55.43055],[12.39396,55.33444],[12.35,55.25514],[12.12667,55.19264],[12.05653,55.15034],[12.13958,55.12826],[12.17875,55.08764],[12.17403,55.02847],[12.14673,54.99132],[12.09687,54.97618],[12,54.98972],[12,55.817]]],[[[12,54.89416],[12.0709,54.87916],[12.1366,54.8525],[12.11951,54.80423],[12.01965,54.73437],[12,54.70777],[12,54.89416]]],[[[12.37333,55.01749],[12.49611,54.98194],[12.46403,54.94319],[12.27708,54.90125],[12.16667,54.88624],[12.13278,54.89819],[12.16486,54.93694],[12.26292,55.00249],[12.37333,55.01749]]],[[[12.66049,55.61694],[12.65382,55.58076],[12.60423,55.56118],[12.56257,55.56597],[12.52882,55.59513],[12.53549,55.63132],[12.58257,55.67451],[12.62424,55.66972],[12.66049,55.61694]]]]}},{"type":"Feature","properties":{"NAME":"Russian Empire","SUBJECTO":"Russia","PARTOF":"Russian Empire","BORDERPRECISION":3},"geometry":{"type":"MultiPolygon","coordinates":[[[[26.23259,49.3736],[26.25471,49.75041],[25.67114,49.75961],[25.50517,49.84408],[25.38011,50.04657],[25.20262,50.15525],[25.15162,50.33542],[24.95235,50.41712],[24.40436,50.63428],[24.06276,50.62074],[23.11624,50.38536],[22.48285,50.37175],[22.39437,50.68025],[21.90783,50.81219],[21.39813,50.51849],[21.15738,50.37649],[20.8112,50.3611],[20.27061,50.10421],[19.92339,50.18516],[19.31124,50.2684],[18.76907,50.17699],[18.64604,50.64451],[18.14006,50.98766],[18.11306,51.77072],[18.14006,51.82472],[18.00505,51.87872],[17.89704,52.17575],[18.08606,52.39176],[18.46408,52.39176],[18.59909,52.49977],[18.51809,52.55377],[18.51809,52.66178],[18.6531,52.71578],[18.57209,52.82379],[18.76111,52.9318],[18.84211,53.06681],[18.95012,53.03981],[18.99116,53.13053],[19.28494,53.1651],[19.42319,53.11325],[19.49232,53.1651],[19.57873,53.07869],[20.01076,53.04413],[20.09716,53.18238],[20.47735,53.13053],[20.70201,53.32063],[21.11676,53.26878],[22.80665,53.8076],[22.73969,53.94989],[22.69904,54.4149],[22.67017,54.49386],[22.66246,54.57095],[22.72413,54.73283],[22.82434,54.78678],[22.79351,54.90241],[22.63163,54.94866],[22.5839,55.00941],[21.68397,55.35347],[21.27551,55.86109],[20.94545,56.06996],[20.91601,56.09667],[20.94905,56.47319],[20.96483,56.60902],[21.02205,56.68388],[21.32438,56.85442],[21.33975,57.17707],[21.45959,57.24961],[21.57951,57.3726],[21.67733,57.46366],[21.81025,57.47538],[22.2854,57.56504],[22.35993,57.58567],[22.43297,57.61556],[22.56364,57.61556],[22.58542,57.50865],[22.88137,57.33414],[23.07089,57.26132],[23.17466,57.04849],[23.21545,56.98067],[23.41447,56.89241],[23.76781,56.86588],[24.15838,56.97549],[24.26631,57.03015],[24.3465,57.15972],[24.32294,57.33689],[24.23619,57.72816],[24.32544,57.83747],[24.34565,57.86222],[24.41564,57.94793],[24.4144,58.10589],[24.49679,58.21315],[24.33109,58.30793],[24.05835,58.11153],[23.90807,58.22445],[23.67086,58.24139],[23.69047,58.66548],[23.51187,58.58088],[23.36082,58.76742],[23.43198,58.85808],[23.33789,58.97239],[23.45698,59.00549],[23.41576,59.11896],[23.57018,59.13807],[24.03211,59.17574],[24.02956,59.23542],[24.28195,59.28414],[24.34157,59.36888],[24.53757,59.32341],[24.57092,59.37433],[24.71381,59.35183],[24.75122,59.44846],[25.24829,59.3618],[25.44879,59.49396],[25.48999,59.42004],[25.72112,59.45984],[26.34326,59.44665],[26.8619,59.37175],[26.99902,59.31773],[27.26509,59.33804],[27.70204,59.2975],[27.8936,59.34611],[28.01585,59.45415],[28.01309,59.45822],[27.97339,59.51671],[27.89666,59.53378],[27.94169,59.6476],[28.09419,59.66468],[28.1631,59.59068],[28.26634,59.56223],[28.35098,59.60206],[28.3091,59.6644],[28.44436,59.73374],[28.66273,59.64434],[28.79593,59.67222],[28.93627,59.82455],[29.07607,59.90779],[29.41363,59.86003],[29.76545,59.73624],[29.96316,59.73662],[30.12664,59.80605],[29.95287,59.98558],[29.6873,60.131],[29.51074,60.14457],[28.96898,60.10879],[28.69163,60.14998],[28.5694,60.19842],[28.43523,60.33734],[28.55125,60.53264],[28.52151,60.62326],[28.43178,60.60347],[28.51004,60.73181],[28.96641,61],[40,61],[40,46],[37.98615,46],[37.98994,46.00666],[38.22715,46.02009],[38.45898,46.07891],[38.26491,46.31856],[37.97017,46.44128],[37.7571,46.60319],[37.8666,46.65536],[38.03186,46.66868],[38.40109,46.72135],[38.72274,46.87792],[39.28236,47.07403],[39.19409,47.24295],[39.15985,47.26889],[38.80025,47.22917],[38.20973,47.15046],[37.85925,47.10374],[37.42214,47.07688],[37.19263,46.89442],[36.86456,46.80929],[36.35397,46.7758],[35.85056,46.66439],[35.62433,46.52106],[35.4161,46.49469],[35.21237,46.63714],[35.04637,46.35765],[34.90681,46.27302],[34.69235,46.25313],[34.49565,46.2787],[34.06422,46.26487],[33.83908,46.19305],[34.12726,46.0639],[34.25179,46],[33.59966,46],[33.52795,46.13406],[33.33253,46.16611],[32.97293,46.14595],[32.51644,46.12558],[32.20217,46.17036],[32.1141,46.21562],[31.92594,46.40993],[32.18879,46.59224],[31.95127,46.86463],[31.78105,46.70186],[31.53773,46.70138],[31.08723,46.63554],[30.83286,46.57659],[30.52046,46.25141],[30.43285,46.17575],[30.06607,46.28036],[29.96431,46.36855],[29.80685,46.50501],[29.42666,46.81608],[29.1156,47.28267],[28.90822,47.81839],[28.42679,48.09738],[28.41542,48.08221],[28.38704,48.10491],[28.38704,48.13895],[28.34732,48.1503],[28.30193,48.13328],[28.31895,48.15597],[28.35867,48.20137],[28.34732,48.22974],[28.29625,48.22974],[28.21681,48.21272],[28.16007,48.22407],[28.11467,48.21839],[28.08063,48.25244],[28.05793,48.28081],[28.01254,48.30918],[27.94444,48.31486],[27.88203,48.33756],[27.81961,48.3943],[27.72314,48.43402],[27.70612,48.4397],[27.64777,48.75158],[27.48576,48.75158],[27.48576,48.67057],[27.10773,48.83258],[27.10773,48.64357],[26.9894,48.68076],[26.47992,48.58577],[26.21936,49.13429],[26.23259,49.3736]]]]}},{"type":"Feature","properties":{"NAME":"German Empire","SUBJECTO":"German Empire","PARTOF":"German Empire","BORDERPRECISION":3},"geometry":{"type":"MultiPolygon","coordinates":[[[[14.22724,53.90951],[14.30526,53.91502],[14.42484,53.91502],[14.47294,53.87678],[14.45907,53.81871],[14.33386,53.82972],[14.2479,53.81596],[14.22724,53.90951]]],[[[18.60447,49.93895],[18.54872,49.96173],[18.18777,50.02126],[18.04804,50.10255],[17.88249,50.03011],[17.75066,50.03598],[17.74471,50.13507],[17.74557,50.24894],[17.59712,50.21098],[17.67876,50.33827],[17.35975,50.33572],[17.24333,50.38999],[17.01442,50.47683],[16.88559,50.48769],[16.88444,50.42255],[17.01153,50.2869],[16.82706,50.23267],[16.72802,50.14862],[16.58495,50.18115],[16.45142,50.352],[16.2044,50.46325],[16.30475,50.55826],[16.39859,50.56912],[16.44283,50.62343],[16.35315,50.70492],[16.23778,50.71579],[16.21021,50.68591],[16.00086,50.65602],[16.00293,50.73209],[15.87749,50.71579],[15.81834,50.79731],[15.5628,50.82129],[15.47216,50.83264],[15.30875,50.90604],[15.26701,51.02298],[15.17189,51.06379],[15.00929,51.05562],[14.98096,51.01754],[15.00827,50.98489],[14.99727,50.91691],[14.82888,50.91691],[14.76481,50.86526],[14.61032,50.89788],[14.59638,51.02298],[14.4578,51.07738],[14.26166,51.04474],[14.38877,50.94683],[14.27475,50.90876],[14.14649,50.86526],[13.91066,50.84351],[13.85478,50.76742],[13.52416,50.75655],[13.47326,50.65874],[13.39415,50.69134],[13.233,50.66377],[13.1894,50.56098],[13.0175,50.55555],[12.98234,50.47411],[12.78367,50.47411],[12.59385,50.38356],[12.46162,50.39812],[12.34475,50.31674],[12.23536,50.24081],[12.25234,50.21589],[12.36839,50.04564],[12.55416,50.00162],[12.48435,49.88885],[12.44831,49.70615],[12.51971,49.66758],[12.5363,49.56258],[12.64578,49.48458],[12.86081,49.36557],[12.94526,49.39792],[13.20311,49.16617],[13.39694,49.08953],[13.47973,48.99918],[13.57815,49.03689],[13.65207,48.9561],[13.74548,48.93995],[13.94668,48.6551],[13.64004,48.53816],[13.44369,48.60633],[13.38414,48.59393],[13.36665,48.44214],[13.29362,48.36472],[12.85825,48.23158],[12.69419,48.12944],[12.93631,47.87266],[12.84753,47.73971],[12.99808,47.73352],[13.023,47.66242],[12.97892,47.50791],[12.94202,47.4832],[12.74373,47.56353],[12.76539,47.6377],[12.70008,47.69025],[12.44609,47.66242],[12.35818,47.72425],[12.16328,47.70879],[12.12203,47.62843],[12,47.62508],[12,54.09137],[12.04107,54.09666],[12.31188,54.20194],[12.65252,54.32143],[12.7648,54.27033],[12.94314,54.34698],[13.02581,54.26522],[13.06377,54.19369],[13.34917,54.06349],[13.43102,54.03025],[13.66761,54.08417],[13.73778,54.03029],[13.76433,53.87719],[13.7805,53.77518],[13.85017,53.72929],[14.00974,53.67321],[14.17686,53.68341],[14.18958,53.62479],[14.28019,53.61342],[14.43316,53.59421],[14.53706,53.53817],[14.4953,53.62479],[14.5653,53.6936],[14.55694,53.75988],[14.48252,53.81853],[14.47294,53.87678],[14.46741,53.91035],[14.88576,53.97956],[15.07968,54.00252],[15.31169,54.071],[15.89836,54.1284],[16.11468,54.19961],[16.47325,54.41503],[16.9759,54.54931],[17.65761,54.68546],[18.27945,54.72412],[18.75953,54.53641],[18.36292,54.66889],[18.3385,54.60265],[18.45381,54.52538],[18.51316,54.31578],[18.67308,54.25514],[18.96498,54.22758],[19.255,54.27719],[19.7336,54.46117],[19.75772,54.45917],[19.31761,54.27168],[19.23206,54.22207],[19.23031,54.16697],[19.3281,54.16145],[19.45682,54.21656],[19.73312,54.31027],[19.97754,54.42394],[20.18865,54.52198],[20.32671,54.56401],[20.19423,54.57505],[20.0057,54.54746],[19.93812,54.60817],[19.88181,54.52538],[19.83325,54.5309],[19.86317,54.75173],[19.94257,54.84986],[20.1271,54.84564],[20.79715,54.81798],[20.9852,54.81164],[21.13734,54.84546],[21.19194,54.95958],[21.11335,55.08924],[21.22385,55.11145],[21.19312,55.16635],[21.16232,55.22138],[21.14303,55.25584],[21.20093,55.26139],[21.2163,55.34367],[21.01845,55.63401],[21.01482,55.69706],[20.99596,56.02413],[20.94545,56.06996],[21.27551,55.86109],[21.68397,55.35347],[22.5839,55.00941],[22.63163,54.94866],[22.79351,54.90241],[22.82434,54.78678],[22.72413,54.73283],[22.66246,54.57095],[22.67017,54.49386],[22.69904,54.4149],[22.73969,53.94989],[22.80665,53.8076],[21.11676,53.26878],[20.70201,53.32063],[20.47735,53.13053],[20.09716,53.18238],[20.01076,53.04413],[19.57873,53.07869],[19.49232,53.1651],[19.42319,53.11325],[19.28494,53.1651],[18.99116,53.13053],[18.95012,53.03981],[18.84211,53.06681],[18.76111,52.9318],[18.57209,52.82379],[18.6531,52.71578],[18.51809,52.66178],[18.51809,52.55377],[18.59909,52.49977],[18.46408,52.39176],[18.08606,52.39176],[17.89704,52.17575],[18.00505,51.87872],[18.14006,51.82472],[18.11306,51.77072],[18.14006,50.98766],[18.64604,50.64451],[18.76907,50.17699],[19.31124,50.2684],[18.89213,50.06414],[18.7482,50.04614],[18.60447,49.93895]]],[[[14.14543,53.82645],[14.06835,53.84347],[14.02872,53.86548],[13.82777,53.82972],[13.7774,53.94862],[13.77841,54.04441],[14.06995,53.91777],[14.17417,53.90676],[14.20541,53.81321],[14.14543,53.82645]]]]}}]}