{"type":"FeatureCollection","name":"Regional historical snapshot 1700","license":"GPL-3.0-only","attribution":"André Ourednik and historical-basemaps contributors","upstream":"https://raw.githubusercontent.com/aourednik/historical-basemaps/62d8f1a03a71f2d3ff17f2d166f7553f256bce68/geojson/world_1700.geojson","revision":"62d8f1a03a71f2d3ff17f2d166f7553f256bce68","modification":"Clipped to 12–40°E / 46–61°N; coordinates rounded to five decimal places. Display precision remains approximate, not five-decimal historical accuracy.","modified":"2026-09-08","features":[{"type":"Feature","properties":{"NAME":"Austrian Empire","SUBJECTO":"Austrian Empire","PARTOF":"Austrian Empire","BORDERPRECISION":3},"geometry":{"type":"MultiPolygon","coordinates":[[[[19.5704,54.25508],[19.73312,54.31027],[19.91458,54.39466],[20.04614,54.19047],[20.46971,54.34174],[21.0143,54.0997],[20.56048,53.82741],[20.4092,53.43409],[20.0764,53.58537],[19.92512,53.91817],[19.68308,53.85766],[19.5704,54.25508]]]]}},{"type":"Feature","properties":{"NAME":"Prussia","SUBJECTO":"Prussia","PARTOF":"Prussia","BORDERPRECISION":3},"geometry":{"type":"MultiPolygon","coordinates":[[[[18.96498,54.22758],[19.255,54.27719],[19.7336,54.46117],[19.75772,54.45917],[19.31761,54.27168],[19.23206,54.22207],[19.23031,54.16697],[19.3281,54.16145],[19.45682,54.21656],[19.5704,54.25508],[19.68308,53.85766],[19.92512,53.91817],[20.0764,53.58537],[20.4092,53.43409],[20.56048,53.82741],[21.0143,54.0997],[20.46971,54.34174],[20.04614,54.19047],[19.91458,54.39466],[19.97754,54.42394],[20.18865,54.52198],[20.32671,54.56401],[20.19423,54.57505],[20.0057,54.54746],[19.93812,54.60817],[19.88181,54.52538],[19.83325,54.5309],[19.86317,54.75173],[19.94257,54.84986],[20.1271,54.84564],[20.79715,54.81798],[20.9852,54.81164],[21.13734,54.84546],[21.19194,54.95958],[21.11335,55.08924],[21.22385,55.11145],[21.19312,55.16635],[21.16232,55.22138],[21.14303,55.25584],[21.20093,55.26139],[21.2163,55.34367],[21.01845,55.63401],[21.01482,55.69706],[20.99596,56.02413],[20.94545,56.06996],[21.27551,55.86109],[21.68397,55.35347],[22.5839,55.00941],[22.63163,54.94866],[22.79351,54.90241],[22.82434,54.78678],[22.72413,54.73283],[22.66246,54.57095],[22.67017,54.49386],[22.69904,54.4149],[22.73969,53.94989],[22.80665,53.8076],[21.11676,53.26878],[20.70201,53.32063],[20.47735,53.13053],[20.09716,53.18238],[20.01076,53.04413],[19.8041,53.52486],[18.92671,53.4946],[18.80569,53.73664],[18.98722,53.85766],[18.96498,54.22758]]]]}},{"type":"Feature","properties":{"NAME":"Venice","SUBJECTO":"Venice","PARTOF":"Venice","BORDERPRECISION":3},"geometry":{"type":"MultiPolygon","coordinates":[[[[13.60634,46.13214],[13.53346,46],[12,46],[12,46.88828],[12.07475,46.92751],[12.21781,46.88432],[12.32843,46.9675],[12.40715,46.96408],[12.69768,46.95144],[13.29168,47.06382],[13.51644,46.99961],[13.52083,46.98864],[13.58066,46.83906],[13.70909,46.83906],[13.72515,46.64641],[13.6211,46.42088],[13.60634,46.13214]]]]}},{"type":"Feature","properties":{"NAME":"Polish–Lithuanian Commonwealth","SUBJECTO":"Polish–Lithuanian Commonwealth","PARTOF":"Polish–Lithuanian Commonwealth","BORDERPRECISION":3},"geometry":{"type":"MultiPolygon","coordinates":[[[[23.67858,56.87258],[24.22638,56.61721],[25.69313,56.62196],[25.85603,56.5569],[27.89792,56.73192],[28.04978,56.74494],[28.61712,56.09501],[30.74821,55.66502],[31.22961,55.67337],[31.25329,55.60232],[31.51359,55.55893],[31.73051,54.95156],[31.42683,54.90818],[31.55698,54.30081],[32.20773,54.43096],[32.46803,53.08606],[31.38344,53.2596],[31.29668,52.95591],[31.37843,52.05663],[30.61032,51.66545],[30.52183,50.98349],[30.19739,50.30079],[31.3477,49.90349],[31.91405,49.56034],[31.88799,49.55444],[31.90049,49.51279],[32.17012,49.40439],[32.29355,49.34619],[32.4082,49.30171],[32.62051,49.19863],[32.71807,49.14014],[32.76953,49.11592],[32.86338,49.08726],[32.98086,49.08257],[33.04346,49.06313],[33.06611,49.02139],[33.06789,49.01841],[32.00267,48.27919],[32.00774,48.20952],[30.53667,48.25155],[29.31637,48.28642],[27.64777,48.75158],[27.48576,48.75158],[27.48576,48.67057],[27.10773,48.83258],[27.10773,48.64357],[26.9894,48.68076],[26.52424,48.82695],[26.16266,48.94059],[25.66633,48.69198],[24.16083,48.9866],[23.88853,49.2589],[21.77068,49.59171],[21.77068,49.74298],[21.31685,49.864],[21.2866,49.77324],[21.13532,49.83375],[20.98405,49.74298],[20.89328,49.83375],[20.80252,49.83375],[20.89328,49.74298],[20.6815,49.65222],[20.53022,49.80349],[20.34869,49.74298],[20.01589,49.80349],[19.89487,49.47069],[19.71334,49.5312],[19.56206,49.5312],[19.56206,49.71273],[19.38053,49.80349],[19.13849,49.71273],[19.10824,49.59171],[18.92671,49.62196],[18.89645,49.71273],[18.79632,49.71345],[18.76907,50.17699],[18.74563,50.26604],[18.64604,50.64451],[18.14006,50.98766],[17.63977,51.43688],[17.55255,51.65493],[17.29089,51.78576],[17.20367,51.61132],[16.85479,51.65493],[16.85479,51.91659],[16.50591,52.17825],[16.50591,52.00381],[16.0951,52.12417],[15.8939,52.21017],[15.76453,52.26547],[15.76017,52.57074],[15.81599,52.57074],[15.84391,52.71029],[16.05312,52.71645],[16.20376,53.34333],[16.41554,53.52486],[16.20376,53.70639],[16.65758,53.85766],[16.80886,53.46435],[16.80886,53.85766],[16.68784,54.03919],[16.99039,54.19047],[17.11141,54.12996],[17.74676,54.43251],[17.65761,54.68546],[18.27945,54.72412],[18.75953,54.53641],[18.36292,54.66889],[18.3385,54.60265],[18.45381,54.52538],[18.51316,54.31578],[18.67308,54.25514],[18.96498,54.22758],[18.98722,53.85766],[18.80569,53.73664],[18.92671,53.4946],[19.8041,53.52486],[20.01076,53.04413],[20.09716,53.18238],[20.47735,53.13053],[20.70201,53.32063],[21.11676,53.26878],[22.80665,53.8076],[22.73969,53.94989],[22.69904,54.4149],[22.67017,54.49386],[22.66246,54.57095],[22.72413,54.73283],[22.82434,54.78678],[22.79351,54.90241],[22.63163,54.94866],[22.5839,55.00941],[21.68397,55.35347],[21.27551,55.86109],[20.94545,56.06996],[20.91601,56.09667],[20.94905,56.47319],[20.96483,56.60902],[21.02205,56.68388],[21.32438,56.85442],[21.33975,57.17707],[21.45959,57.24961],[21.57951,57.3726],[21.67733,57.46366],[21.81025,57.47538],[22.2854,57.56504],[22.35993,57.58567],[22.43297,57.61556],[22.56364,57.61556],[22.58542,57.50865],[22.88137,57.33414],[23.07089,57.26132],[23.17466,57.04849],[23.21545,56.98067],[23.41447,56.89241],[23.67858,56.87258]]]]}},{"type":"Feature","properties":{"NAME":"Holy Roman Empire","SUBJECTO":"Holy Roman Empire","PARTOF":"Holy Roman Empire","BORDERPRECISION":3},"geometry":{"type":"MultiPolygon","coordinates":[[[[12,54.09137],[12.04107,54.09666],[12.31188,54.20194],[12.46254,54.25479],[12.59469,54.30114],[13.03837,53.68918],[14.28554,53.29826],[15.11699,53.41831],[14.92745,53.9845],[15.07968,54.00252],[15.31169,54.071],[15.89836,54.1284],[16.11468,54.19961],[16.47325,54.41503],[16.9759,54.54931],[17.65761,54.68546],[17.74676,54.43251],[17.11141,54.12996],[16.99039,54.19047],[16.68784,54.03919],[16.80886,53.85766],[16.80886,53.46435],[16.65758,53.85766],[16.20376,53.70639],[16.41554,53.52486],[16.20376,53.34333],[16.05312,52.71645],[15.84391,52.71029],[15.81599,52.57074],[15.76017,52.57074],[15.76453,52.26547],[15.8939,52.21017],[16.0951,52.12417],[16.50591,52.00381],[16.50591,52.17825],[16.85479,51.91659],[16.85479,51.65493],[17.20367,51.61132],[17.29089,51.78576],[17.55255,51.65493],[17.63977,51.43688],[18.14006,50.98766],[18.64604,50.64451],[18.74563,50.26604],[18.76907,50.17699],[18.79632,49.71345],[18.89645,49.71273],[18.92671,49.62196],[18.52218,49.56107],[18.25037,49.18055],[18.22319,48.99028],[18.11447,48.99028],[18.11447,48.85438],[17.86985,48.80002],[17.35342,48.9631],[17.19034,48.44668],[17.21752,48.06615],[17.46214,48.06615],[17.40778,47.82153],[16.79622,47.84327],[16.62227,47.73455],[16.55704,47.49537],[16.64402,47.29967],[16.55704,47.19095],[16.55704,47.06048],[16.44832,46.93001],[16.44832,46.7778],[16.51355,46.62559],[16.29611,46.40815],[16.53529,46.36466],[16.44832,46.10373],[16.20913,46.14722],[16.13552,46],[13.53346,46],[13.60634,46.13214],[13.6211,46.42088],[13.72515,46.64641],[13.70909,46.83906],[13.58066,46.83906],[13.52083,46.98864],[13.51644,46.99961],[13.29168,47.06382],[12.69768,46.95144],[12.40715,46.96408],[12.32843,46.9675],[12.21781,46.88432],[12.07475,46.92751],[12,46.88828],[12,54.09137]]]]}},{"type":"Feature","properties":{"NAME":"Ottoman Empire","SUBJECTO":"Ottoman Empire","PARTOF":"Ottoman Empire","BORDERPRECISION":1},"geometry":{"type":"MultiPolygon","coordinates":[[[[32.00774,48.20952],[32.05416,47.5719],[33.94387,47.4789],[33.94727,47.45142],[33.96455,47.35894],[33.96279,47.33125],[33.9335,47.28242],[33.83477,47.21226],[33.77715,47.1625],[33.76133,47.11904],[33.70469,47.06084],[33.6668,47.04199],[33.65537,47.05029],[33.62979,47.03398],[33.57588,46.88257],[33.53984,46.83125],[33.55938,46.82222],[33.6873,46.86064],[33.69971,46.89873],[33.71816,46.94058],[33.9041,47.15874],[34.09717,47.31606],[34.17285,47.32456],[34.1834,47.34565],[34.17676,47.38931],[34.18984,47.41997],[34.41943,47.48696],[34.59238,47.52012],[34.80771,47.46313],[34.96055,47.40649],[35.04902,47.42817],[35.21318,47.4499],[35.26943,47.45049],[35.30176,47.4918],[35.24238,47.64727],[35.15334,47.80037],[35.51739,48.68084],[36.00811,48.99615],[36.39939,49.03577],[37.88465,49.1862],[39.2587,48.43672],[40,47.84368],[40,46],[37.98615,46],[37.98994,46.00666],[38.22715,46.02009],[38.45898,46.07891],[38.26491,46.31856],[37.97017,46.44128],[37.7571,46.60319],[37.8666,46.65536],[38.03186,46.66868],[38.40109,46.72135],[38.72274,46.87792],[39.28236,47.07403],[39.19409,47.24295],[39.15985,47.26889],[38.80025,47.22917],[38.20973,47.15046],[37.85925,47.10374],[37.42214,47.07688],[37.19263,46.89442],[36.86456,46.80929],[36.35397,46.7758],[35.85056,46.66439],[35.62433,46.52106],[35.4161,46.49469],[35.21237,46.63714],[35.04637,46.35765],[34.90681,46.27302],[34.69235,46.25313],[34.49565,46.2787],[34.06422,46.26487],[33.91096,46.21598],[33.84824,46.23071],[33.77813,46.23398],[33.72803,46.22813],[33.70391,46.21484],[33.69619,46.20029],[33.70762,46.18179],[33.77051,46.1333],[33.81523,46.14233],[33.83135,46.14341],[33.88506,46.05991],[33.92432,46.03911],[33.96016,46.04004],[33.97773,46.05181],[33.99834,46.07227],[34.07236,46.05928],[34.12148,46.02583],[34.13281,46.00972],[34.13436,46],[34.18404,46],[34.18193,46.01606],[34.18975,46.02959],[34.19738,46.02792],[34.25179,46],[33.59966,46],[33.52795,46.13406],[33.33253,46.16611],[32.97293,46.14595],[32.51644,46.12558],[32.20217,46.17036],[32.1141,46.21562],[31.92594,46.40993],[32.18879,46.59224],[31.95127,46.86463],[31.78105,46.70186],[31.53773,46.70138],[31.08723,46.63554],[30.83286,46.57659],[30.52046,46.25141],[30.43285,46.17575],[30.22932,46],[25.78504,46],[30.53667,48.25155],[32.00774,48.20952]]]]}},{"type":"Feature","properties":{"NAME":"Austrian Empire","SUBJECTO":"Austrian Empire","PARTOF":"Austrian Empire","BORDERPRECISION":3},"geometry":{"type":"MultiPolygon","coordinates":[[[[16.13552,46],[16.20913,46.14722],[16.44832,46.10373],[16.53529,46.36466],[16.29611,46.40815],[16.51355,46.62559],[16.44832,46.7778],[16.44832,46.93001],[16.55704,47.06048],[16.55704,47.19095],[16.64402,47.29967],[16.55704,47.49537],[16.62227,47.73455],[16.79622,47.84327],[17.40778,47.82153],[17.46214,48.06615],[17.21752,48.06615],[17.19034,48.44668],[17.35342,48.9631],[17.86985,48.80002],[18.11447,48.85438],[18.11447,48.99028],[18.22319,48.99028],[18.25037,49.18055],[18.52218,49.56107],[18.92671,49.62196],[19.10824,49.59171],[19.13849,49.71273],[19.38053,49.80349],[19.56206,49.71273],[19.56206,49.5312],[19.71334,49.5312],[19.89487,49.47069],[20.01589,49.80349],[20.34869,49.74298],[20.53022,49.80349],[20.6815,49.65222],[20.89328,49.74298],[20.80252,49.83375],[20.89328,49.83375],[20.98405,49.74298],[21.13532,49.83375],[21.2866,49.77324],[21.31685,49.864],[21.77068,49.74298],[21.77068,49.59171],[23.88853,49.2589],[24.16083,48.9866],[25.66633,48.69198],[26.16266,48.94059],[26.52424,48.82695],[26.9894,48.68076],[27.10773,48.64357],[27.10773,48.83258],[27.48576,48.67057],[27.48576,48.75158],[27.64777,48.75158],[29.31637,48.28642],[30.53667,48.25155],[25.78504,46],[16.13552,46]]]]}},{"type":"Feature","properties":{"NAME":"Denmark-Norway","SUBJECTO":"Denmark-Norway","PARTOF":"Denmark-Norway","BORDERPRECISION":3},"geometry":{"type":"MultiPolygon","coordinates":[[[[12.34437,55.50771],[12.15843,55.37909],[12.42972,55.24469],[12.30136,55.17028],[12.07697,54.99469],[12,54.96565],[12,55.63196],[12.05262,55.70308],[12.088,55.96698],[12.23772,55.98757],[12.44405,55.96765],[12.46922,55.71063],[12.4091,55.54833],[12.34437,55.50771]]],[[[15.07361,55.15972],[15.09083,55.15527],[15.12306,55.14889],[15.13417,55.14417],[15.14111,55.13861],[15.14861,55.12917],[15.15,55.08917],[15.14833,55.0825],[15.10722,55.02583],[15.10333,55.02055],[15.07667,55.00111],[15.06139,54.99638],[15.05167,54.995],[15.0425,54.99472],[14.9425,55.01333],[14.88194,55.02889],[14.74694,55.06528],[14.72944,55.07278],[14.67972,55.09972],[14.67778,55.10194],[14.69889,55.215],[14.74417,55.2925],[14.74639,55.29556],[14.76,55.30444],[14.76389,55.30555],[14.77,55.30555],[14.79861,55.28194],[14.80556,55.27611],[14.81278,55.26917],[14.82,55.26083],[14.82528,55.25694],[14.83861,55.25055],[14.88722,55.22944],[14.9975,55.18722],[15.065,55.1625],[15.07361,55.15972]]],[[[12,54.90289],[12.02,54.89639],[12.03806,54.89249],[12.06083,54.89111],[12.07944,54.89361],[12.08528,54.89361],[12.09555,54.89249],[12.10361,54.89027],[12.11055,54.8875],[12.11944,54.88222],[12.13667,54.86861],[12.16806,54.84166],[12.16944,54.83917],[12.16861,54.83611],[12.16667,54.83389],[12.15833,54.82861],[12.11972,54.80639],[12.10722,54.79972],[12.08861,54.79361],[12.07833,54.78916],[12.07194,54.78583],[12.05528,54.77472],[12,54.72651],[12,54.90289]]],[[[12.4296,61],[12.17404,60.95641],[12.43103,60.62585],[12.54796,60.43387],[12.43586,60.2781],[12.42277,60.03878],[12.07703,59.86592],[12,59.86346],[12,61],[12.4296,61]]]]}},{"type":"Feature","properties":{"NAME":"Sweden","SUBJECTO":"Sweden","PARTOF":"Sweden","BORDERPRECISION":3},"geometry":{"type":"MultiPolygon","coordinates":[[[[14.14543,53.82645],[14.06835,53.84347],[14.02872,53.86548],[13.82777,53.82972],[13.7774,53.94862],[13.77841,54.04441],[14.06995,53.91777],[14.17417,53.90676],[14.20541,53.81321],[14.14543,53.82645]]],[[[14.42484,53.91502],[14.47294,53.87678],[14.45907,53.81871],[14.33386,53.82972],[14.2479,53.81596],[14.22724,53.90951],[14.30526,53.91502],[14.42484,53.91502]]],[[[13.85017,53.72929],[14.00974,53.67321],[14.17686,53.68341],[14.18958,53.62479],[14.28019,53.61342],[14.43316,53.59421],[14.53706,53.53817],[14.4953,53.62479],[14.5653,53.6936],[14.55694,53.75988],[14.48252,53.81853],[14.47294,53.87678],[14.46741,53.91035],[14.58024,53.92902],[14.88576,53.97956],[14.92745,53.9845],[15.11699,53.41831],[14.28554,53.29826],[13.03837,53.68918],[12.59469,54.30114],[12.65252,54.32143],[12.7648,54.27033],[12.94314,54.34698],[13.02581,54.26522],[13.06377,54.19369],[13.34917,54.06349],[13.43102,54.03025],[13.66761,54.08417],[13.73778,54.03029],[13.76433,53.87719],[13.7805,53.77518],[13.85017,53.72929]]],[[[19.07306,57.8625],[19.0375,57.89639],[19.03444,57.90111],[19.03444,57.9125],[19.03611,57.91861],[19.08889,57.97028],[19.09583,57.97361],[19.10472,57.97527],[19.28583,57.97666],[19.29639,57.97666],[19.3075,57.97444],[19.3325,57.96527],[19.33555,57.96055],[19.33444,57.95583],[19.28666,57.93749],[19.2775,57.94028],[19.27444,57.945],[19.26806,57.94861],[19.25666,57.94944],[19.23805,57.94694],[19.17056,57.92944],[19.16278,57.92694],[19.15083,57.91861],[19.14583,57.91361],[19.14167,57.90778],[19.14,57.90167],[19.12611,57.83972],[19.09333,57.85194],[19.07777,57.85833],[19.07306,57.8625]]],[[[13.57679,54.45999],[13.57778,54.45389],[13.58361,54.44167],[13.6175,54.40416],[13.62055,54.4025],[13.63111,54.40111],[13.64639,54.40138],[13.66667,54.40222],[13.67611,54.40083],[13.7025,54.38805],[13.7075,54.38416],[13.71389,54.37778],[13.73111,54.35472],[13.74389,54.33111],[13.73083,54.27583],[13.7275,54.27444],[13.715,54.27166],[13.71111,54.27222],[13.69556,54.28055],[13.69389,54.28278],[13.69639,54.28416],[13.71083,54.29694],[13.71278,54.32111],[13.71222,54.32417],[13.68944,54.34833],[13.68444,54.34916],[13.50833,54.34277],[13.50444,54.34166],[13.46944,54.32833],[13.35944,54.27472],[13.35667,54.27305],[13.355,54.27027],[13.3575,54.25972],[13.40306,54.26527],[13.40833,54.26527],[13.41333,54.26472],[13.42,54.26138],[13.42194,54.25916],[13.42639,54.25194],[13.42889,54.24389],[13.42944,54.23805],[13.42444,54.2336],[13.39778,54.22194],[13.39306,54.22138],[13.31861,54.2486],[13.26806,54.255],[13.25694,54.2561],[13.24972,54.25833],[13.15611,54.30555],[13.12194,54.33055],[13.11833,54.33389],[13.11722,54.33944],[13.11778,54.34305],[13.12917,54.36805],[13.13083,54.37083],[13.13417,54.37222],[13.14167,54.37444],[13.15139,54.37528],[13.15667,54.37528],[13.20055,54.37277],[13.21722,54.37],[13.22306,54.36944],[13.23583,54.37167],[13.26139,54.37861],[13.26528,54.38027],[13.2675,54.3825],[13.23898,54.41147],[13.20779,54.42811],[13.16464,54.43435],[13.22861,54.465],[13.23222,54.48582],[13.16724,54.51337],[13.14696,54.54561],[13.23139,54.5525],[13.25562,54.55132],[13.30397,54.55029],[13.33776,54.5664],[13.3674,54.58044],[13.3778,54.55808],[13.39495,54.54197],[13.42043,54.52169],[13.44746,54.48894],[13.48385,54.48374],[13.50309,54.4931],[13.51661,54.51337],[13.50257,54.54977],[13.45942,54.5508],[13.42615,54.57004],[13.38351,54.57836],[13.37468,54.61007],[13.35544,54.60436],[13.32972,54.58277],[13.31056,54.57333],[13.28622,54.56505],[13.28205,54.56355],[13.25139,54.55778],[13.24611,54.55778],[13.24472,54.55917],[13.22472,54.63389],[13.22472,54.64],[13.22611,54.64305],[13.23056,54.64777],[13.24472,54.65666],[13.26333,54.66666],[13.27861,54.67139],[13.29222,54.67333],[13.36444,54.67944],[13.38389,54.68083],[13.42417,54.68278],[13.43,54.68222],[13.43778,54.67972],[13.44305,54.67583],[13.44361,54.67305],[13.44194,54.67056],[13.42861,54.66027],[13.4225,54.65694],[13.39722,54.65222],[13.39055,54.64916],[13.38556,54.645],[13.38306,54.63889],[13.39131,54.60695],[13.40743,54.58876],[13.43342,54.57784],[13.4563,54.57316],[13.48177,54.57472],[13.51609,54.5768],[13.59305,54.58472],[13.61778,54.58611],[13.63389,54.58583],[13.63917,54.58527],[13.64694,54.58277],[13.67167,54.56916],[13.67667,54.56528],[13.67806,54.56278],[13.67917,54.5425],[13.67778,54.53249],[13.67528,54.52638],[13.67028,54.52222],[13.66694,54.52083],[13.6475,54.51555],[13.64083,54.51277],[13.59139,54.48611],[13.58528,54.48277],[13.58139,54.47778],[13.57833,54.47222],[13.57639,54.46249],[13.57679,54.45999]]],[[[23.22722,58.52972],[23.21527,58.53305],[23.09111,58.58028],[23.07111,58.58833],[23.06472,58.59415],[23.06028,58.60083],[23.05777,58.60833],[23.06083,58.61639],[23.06861,58.62166],[23.14027,58.66583],[23.14972,58.67027],[23.17361,58.67583],[23.18638,58.67805],[23.20083,58.67916],[23.21639,58.67777],[23.24746,58.67105],[23.27139,58.66444],[23.31722,58.65083],[23.33917,58.64333],[23.34722,58.6386],[23.395,58.56554],[23.39916,58.55888],[23.39639,58.55083],[23.37611,58.53305],[23.365,58.52999],[23.22722,58.52972]]],[[[18.22778,57.61138],[18.24222,57.61749],[18.24917,57.62083],[18.27611,57.63416],[18.29472,57.64583],[18.33889,57.68166],[18.35583,57.69583],[18.38194,57.71861],[18.40167,57.73861],[18.41972,57.76028],[18.45639,57.80277],[18.46139,57.80778],[18.46722,57.81194],[18.48111,57.8186],[18.68194,57.91361],[18.69,57.91611],[18.71611,57.9211],[18.725,57.92278],[18.88194,57.91972],[18.9025,57.91833],[18.91417,57.9175],[19.00472,57.90861],[19.00611,57.90361],[19.00389,57.89889],[19.03333,57.82694],[18.92944,57.73972],[18.84889,57.72111],[18.80917,57.70361],[18.79333,57.65916],[18.75972,57.50805],[18.76806,57.47222],[18.76944,57.46722],[18.78833,57.44833],[18.71444,57.24694],[18.71194,57.24166],[18.65805,57.22083],[18.55194,57.18278],[18.51472,57.16944],[18.49833,57.16528],[18.45556,57.15694],[18.43944,57.15277],[18.41722,57.14417],[18.39722,57.13416],[18.39139,57.13],[18.38667,57.12499],[18.34555,57.07972],[18.34139,57.07388],[18.33917,57.0686],[18.33555,57.02333],[18.33583,57.01749],[18.34333,57.01444],[18.34666,56.9986],[18.3025,56.93749],[18.295,56.93472],[18.21555,56.91306],[18.20611,56.91194],[18.16889,56.91],[18.14778,56.91194],[18.14027,56.91499],[18.1425,56.92027],[18.15833,56.94167],[18.20916,56.98917],[18.25666,57.03222],[18.25444,57.07916],[18.17333,57.14194],[18.14833,57.23528],[18.15805,57.31583],[18.1425,57.40944],[18.11528,57.48083],[18.11028,57.49611],[18.11,57.51305],[18.11138,57.51944],[18.11916,57.53111],[18.13861,57.55111],[18.17917,57.58833],[18.19144,57.59614],[18.21194,57.60583],[18.22778,57.61138]]],[[[16.61194,56.86833],[16.61667,56.8736],[16.62917,56.87917],[16.645,56.88361],[16.74944,56.93972],[16.84805,57.06416],[16.9,57.135],[16.95944,57.22361],[16.96306,57.22944],[16.96555,57.24166],[16.96028,57.25694],[16.95916,57.27416],[16.96055,57.28027],[16.96611,57.29361],[16.97333,57.30528],[16.98278,57.31555],[16.99305,57.32472],[17.01,57.33749],[17.02222,57.34499],[17.03555,57.35194],[17.05666,57.35916],[17.09861,57.35056],[17.10555,57.34833],[17.12417,57.32083],[17.05055,57.18666],[17.00889,57.13194],[16.96111,57.07527],[16.92667,57.03806],[16.88028,56.92972],[16.84833,56.84389],[16.84111,56.83222],[16.83667,56.82694],[16.82805,56.82527],[16.81694,56.82583],[16.80833,56.82417],[16.785,56.81],[16.77944,56.80583],[16.77028,56.79583],[16.72667,56.70222],[16.63556,56.51888],[16.57666,56.40694],[16.57055,56.39444],[16.56944,56.38805],[16.57027,56.37694],[16.57194,56.37167],[16.57528,56.36722],[16.57555,56.36138],[16.57166,56.355],[16.55306,56.32639],[16.49611,56.24083],[16.48638,56.23138],[16.47361,56.22444],[16.43722,56.21139],[16.42972,56.20889],[16.42083,56.21111],[16.41611,56.21527],[16.41083,56.225],[16.40333,56.27416],[16.39167,56.465],[16.39333,56.52916],[16.39583,56.53583],[16.42028,56.58639],[16.5425,56.77638],[16.61194,56.86833]]],[[[22.26639,58.16388],[22.26917,58.15638],[22.27361,58.14972],[22.27611,58.14249],[22.26472,58.10222],[22.26194,58.09388],[22.2025,57.98611],[22.09916,57.93055],[22.07333,57.91666],[22.05166,57.90971],[22.03778,57.90833],[22.02222,57.90971],[22.01028,57.91305],[22.00055,57.91694],[21.99416,57.92277],[21.98055,57.95805],[21.98583,57.97638],[22.08222,58.07666],[22.08972,58.08194],[22.10055,58.08527],[22.1125,58.08388],[22.15111,58.08638],[22.19722,58.1375],[22.20139,58.14471],[22.19694,58.15138],[22.18861,58.15638],[22.17694,58.15943],[22.14528,58.1586],[22.13166,58.16082],[22.07861,58.17083],[22.06861,58.17471],[21.88444,58.25222],[21.86972,58.2625],[21.84861,58.27888],[21.84416,58.28555],[21.84139,58.29305],[21.84389,58.29916],[21.87444,58.33999],[21.88527,58.34332],[21.89916,58.34277],[21.95555,58.34305],[22.0075,58.35333],[22.00639,58.35999],[21.99638,58.38138],[21.91666,58.4575],[21.91028,58.46305],[21.90194,58.46805],[21.87805,58.47416],[21.86778,58.47833],[21.85139,58.48777],[21.83194,58.505],[21.84277,58.50833],[21.925,58.51721],[21.98472,58.51639],[22.00055,58.515],[22.1125,58.49222],[22.18916,58.545],[22.19833,58.54944],[22.32722,58.57749],[22.50166,58.60222],[22.62417,58.59332],[22.76833,58.60027],[22.77576,58.60616],[22.80777,58.61639],[22.82361,58.61694],[22.87166,58.61777],[22.90527,58.61749],[22.91722,58.6161],[22.97888,58.60111],[22.99083,58.59777],[23.09083,58.56444],[23.26305,58.4961],[23.27305,58.49194],[23.28917,58.48221],[23.31972,58.46166],[23.33222,58.45],[23.33278,58.44166],[23.32805,58.43443],[23.2675,58.42944],[23.25,58.43028],[23.22611,58.43665],[23.2061,58.44499],[23.19805,58.44972],[23.14249,58.4436],[23.07694,58.41388],[23.06416,58.38583],[23.02861,58.35777],[22.75694,58.24027],[22.64888,58.23027],[22.58194,58.2411],[22.52055,58.24222],[22.4875,58.24222],[22.475,58.24194],[22.37833,58.22305],[22.3675,58.21971],[22.28861,58.18804],[22.27916,58.18388],[22.27166,58.1786],[22.26722,58.17138],[22.26639,58.16388]]],[[[22.80389,58.8036],[22.82305,58.81221],[22.82916,58.81833],[22.82639,58.82417],[22.8125,58.82639],[22.79805,58.825],[22.77583,58.8186],[22.74722,58.80555],[22.73944,58.80027],[22.72111,58.78166],[22.70139,58.75388],[22.69249,58.73943],[22.68972,58.7311],[22.68083,58.71666],[22.67472,58.71055],[22.66694,58.70527],[22.64639,58.69777],[22.62417,58.6911],[22.59555,58.68832],[22.56527,58.68665],[22.5475,58.68721],[22.53167,58.6886],[22.51778,58.6911],[22.48,58.69972],[22.46972,58.70361],[22.46527,58.71027],[22.46944,58.71555],[22.47194,58.76361],[22.45,58.83138],[22.44555,58.83804],[22.42611,58.85527],[22.405,58.87166],[22.39027,58.88221],[22.38194,58.88694],[22.36972,58.89027],[22.33611,58.89222],[22.27694,58.88944],[22.24555,58.8786],[22.22944,58.87804],[22.17722,58.88889],[22.165,58.89194],[22.06361,58.92361],[22.05333,58.92777],[22.045,58.9325],[22.04222,58.93999],[22.04639,58.94527],[22.05222,58.94972],[22.065,58.95222],[22.19111,58.94749],[22.37555,58.95166],[22.43444,58.96639],[22.46805,58.97804],[22.48777,58.99222],[22.52361,59.02249],[22.57583,59.0686],[22.69916,59.05138],[22.69472,59.04416],[22.69861,59.01999],[22.70305,59.01361],[22.71972,59.00361],[22.73388,59.00139],[22.74972,59],[22.80111,58.99722],[22.84305,59.00222],[22.86083,59.00166],[22.92972,58.98249],[22.9525,58.96693],[23.04361,58.85111],[23.04805,58.84444],[23.04528,58.83638],[23.02166,58.82055],[23.00528,58.83055],[22.96083,58.84499],[22.94833,58.84444],[22.88444,58.83305],[22.86555,58.82444],[22.86833,58.81889],[22.88222,58.81667],[22.88861,58.81082],[22.88722,58.78777],[22.88444,58.77972],[22.84805,58.77361],[22.81583,58.77277],[22.79833,58.77361],[22.78444,58.77583],[22.77805,58.78166],[22.77722,58.78999],[22.78333,58.7961],[22.79277,58.80027],[22.80389,58.8036]]],[[[20.00833,60.06694],[20.09417,60.09305],[20.10278,60.09555],[20.10917,60.09166],[20.11,60.08805],[20.12306,60.08055],[20.16361,60.0686],[20.19305,60.06472],[20.20528,60.06361],[20.21194,60.06],[20.2275,60.00278],[20.22604,60],[20.21083,59.98],[20.20333,59.97694],[20.13722,59.99166],[20.12916,59.995],[20.00417,60.05111],[19.99917,60.05528],[20.00278,60.06194],[20.00833,60.06694]]],[[[20.27611,60.1375],[20.2875,60.12944],[20.29222,60.12528],[20.29528,60.12055],[20.29833,60.10999],[20.29805,60.10444],[20.27055,60.0575],[20.26305,60.05416],[20.205,60.08138],[20.20028,60.08583],[20.19889,60.09083],[20.20472,60.10944],[20.21555,60.13916],[20.22305,60.14249],[20.26944,60.14111],[20.27611,60.1375]]],[[[19.67388,60.17305],[19.67667,60.15694],[19.67305,60.15028],[19.60444,60.15305],[19.57528,60.12194],[19.56278,60.12277],[19.55111,60.12499],[19.54277,60.12833],[19.52333,60.15083],[19.51056,60.17528],[19.51222,60.18139],[19.53555,60.22527],[19.54111,60.23027],[19.565,60.2486],[19.57166,60.2525],[19.58,60.255],[19.58944,60.25666],[19.60194,60.25583],[19.61194,60.25305],[19.62722,60.24389],[19.66611,60.19333],[19.66917,60.18861],[19.67388,60.17305]]],[[[19.92667,60.19277],[19.93111,60.18778],[19.9375,60.18417],[19.94583,60.18083],[19.9875,60.17027],[20.02578,60.15427],[20.05139,60.10111],[20.05278,60.09583],[20.05083,60.08972],[20.04444,60.08555],[20.02166,60.08583],[19.99944,60.08944],[19.96833,60.09027],[19.95778,60.08944],[19.95138,60.08527],[19.94778,60.07861],[19.94389,60.04277],[19.93861,60.05917],[19.92778,60.08416],[19.92472,60.08888],[19.91805,60.09277],[19.90805,60.09528],[19.89472,60.09722],[19.875,60.09499],[19.86861,60.09083],[19.87,60.08555],[19.87306,60.08083],[19.86833,60.07722],[19.85889,60.07583],[19.8475,60.07583],[19.77166,60.08083],[19.75083,60.09499],[19.72166,60.12611],[19.69917,60.15888],[19.69611,60.16361],[19.64833,60.25666],[19.64861,60.2625],[19.74889,60.30472],[19.78283,60.29266],[19.77694,60.26111],[19.76806,60.24944],[19.7625,60.24444],[19.76056,60.23833],[19.7925,60.19138],[19.79583,60.18666],[19.80917,60.185],[19.81667,60.18833],[19.93083,60.27694],[19.93528,60.28278],[19.93722,60.28889],[19.9375,60.29472],[19.93111,60.30389],[19.89861,60.33972],[19.89222,60.34333],[19.8825,60.34194],[19.87805,60.33611],[19.87444,60.32944],[19.8725,60.32333],[19.86778,60.3175],[19.86222,60.31249],[19.83894,60.31982],[19.83427,60.32216],[19.78,60.34916],[19.78278,60.35444],[19.80833,60.3775],[19.825,60.39222],[19.85722,60.40361],[19.86861,60.40361],[19.90583,60.39999],[20.08472,60.35027],[20.2775,60.27416],[20.21778,60.20833],[20.17167,60.16389],[20.16222,60.16222],[20.09222,60.17027],[20.08555,60.17416],[20.0825,60.17889],[20.10111,60.21555],[20.10583,60.22138],[20.12278,60.22611],[20.12028,60.24],[20.06667,60.29639],[20.06167,60.30083],[20.04694,60.30778],[20.03694,60.31056],[20.02528,60.31056],[19.91417,60.21722],[19.91389,60.21166],[19.92667,60.19277]]],[[[20.34528,60.23083],[20.34194,60.23528],[20.34055,60.24056],[20.34278,60.24667],[20.34833,60.25166],[20.36611,60.26555],[20.37555,60.26722],[20.39417,60.26694],[20.43639,60.2575],[20.44111,60.25305],[20.4425,60.24806],[20.44139,60.24305],[20.40944,60.20389],[20.39722,60.195],[20.3875,60.19333],[20.34528,60.23083]]],[[[30.30039,61],[30.40869,60.92803],[30.43584,60.90269],[30.44121,60.87363],[30.45586,60.86001],[30.50205,60.84321],[30.52793,60.81172],[30.5332,60.76553],[30.52539,60.73887],[30.50449,60.73164],[30.504,60.70356],[30.52393,60.65459],[30.53389,60.63008],[30.66328,60.59282],[30.72373,60.56177],[30.75859,60.52451],[30.77422,60.49209],[30.77598,60.4481],[30.80332,60.44663],[30.81689,60.45884],[30.83213,60.45752],[30.84912,60.44263],[30.95684,60.26362],[31.01895,60.19292],[31.10898,60.14644],[31.11494,60.13486],[31.09512,60.08374],[31.10596,60.0563],[31.14287,60.03169],[31.14531,60.00552],[31.06318,59.96289],[31.04277,59.95098],[31.06396,59.94321],[31.10625,59.92769],[31.17637,59.92578],[31.27441,59.93765],[31.29754,59.93614],[31.31837,59.59361],[29.99517,59.46346],[29.51795,59.24654],[29.04073,59.28993],[28.17305,58.98624],[28.20296,58.96598],[27.73401,58.92696],[27.68301,58.97964],[27.52373,59.00693],[27.29814,58.99492],[27.10732,58.9542],[26.97412,58.88428],[26.96641,58.80557],[27.15674,58.64795],[27.23662,58.45225],[27.32393,58.4019],[27.42549,58.30308],[27.47266,58.21675],[27.49707,58.18413],[27.62383,58.01426],[27.62872,58.01464],[27.71755,57.6793],[27.72811,57.04177],[27.89792,56.73192],[25.85603,56.5569],[25.69313,56.62196],[24.22638,56.61721],[23.67858,56.87258],[23.76781,56.86588],[24.15838,56.97549],[24.26631,57.03015],[24.3465,57.15972],[24.32294,57.33689],[24.23619,57.72816],[24.32544,57.83747],[24.34565,57.86222],[24.41564,57.94793],[24.4144,58.10589],[24.49679,58.21315],[24.33109,58.30793],[24.05835,58.11153],[23.90807,58.22445],[23.67086,58.24139],[23.69047,58.66548],[23.51187,58.58088],[23.36082,58.76742],[23.43198,58.85808],[23.34015,58.96965],[23.37,58.97305],[23.29194,58.96416],[23.27722,58.96305],[23.18055,58.96111],[23.16472,58.96277],[23.1525,58.96583],[23.14444,58.97083],[23.13805,58.97665],[23.11333,59.01721],[23.11083,59.02471],[23.11722,59.03082],[23.12666,59.035],[23.13778,59.03833],[23.15083,59.04055],[23.18139,59.04222],[23.19217,59.04199],[23.32583,59.0375],[23.33972,59.03527],[23.35194,59.03194],[23.36194,59.02777],[23.37027,59.02305],[23.38722,59.00472],[23.39166,58.99805],[23.39222,58.98972],[23.3875,58.98277],[23.39036,58.98698],[23.45698,59.00549],[23.41576,59.11896],[23.57018,59.13807],[24.03211,59.17574],[24.02956,59.23542],[24.28195,59.28414],[24.34157,59.36888],[24.53757,59.32341],[24.57092,59.37433],[24.71381,59.35183],[24.75122,59.44846],[25.24829,59.3618],[25.44879,59.49396],[25.48999,59.42004],[25.72112,59.45984],[26.34326,59.44665],[26.8619,59.37175],[26.99902,59.31773],[27.26509,59.33804],[27.70204,59.2975],[27.8936,59.34611],[28.01585,59.45415],[28.01309,59.45822],[27.97339,59.51671],[27.89666,59.53378],[27.94169,59.6476],[28.09419,59.66468],[28.1631,59.59068],[28.26634,59.56223],[28.35098,59.60206],[28.3091,59.6644],[28.44436,59.73374],[28.66273,59.64434],[28.79593,59.67222],[28.93627,59.82455],[29.07607,59.90779],[29.41363,59.86003],[29.76545,59.73624],[29.96316,59.73662],[30.12664,59.80605],[29.95287,59.98558],[29.6873,60.131],[29.51074,60.14457],[28.96898,60.10879],[28.69163,60.14998],[28.5694,60.19842],[28.43523,60.33734],[28.55125,60.53264],[28.52151,60.62326],[28.43178,60.60347],[28.01144,60.51073],[27.47362,60.42608],[27.40622,60.34482],[27.17848,60.44239],[26.94557,60.37631],[26.92231,60.31612],[26.61308,60.34783],[26.52588,60.39647],[26.55164,60.5707],[26.44284,60.33334],[26.32271,60.27024],[26.03775,60.2493],[25.8901,60.23584],[25.84553,60.11548],[25.58054,60.26234],[25.44989,60.1384],[25.14579,60.10975],[24.99298,60.02957],[24.96947,60.08683],[24.74298,60.03823],[24.51596,59.9895],[24.42105,59.86975],[24.28136,59.93815],[23.97895,59.88115],[23.96111,59.93245],[23.66466,59.83555],[23.41885,59.82985],[23.20144,59.81846],[22.98213,59.93245],[22.882,60.05556],[23.0052,60.20876],[22.8314,60.20526],[22.82444,60.22722],[22.835,60.19389],[22.84722,60.12472],[22.84805,60.11944],[22.83917,60.09638],[22.83583,60.09111],[22.73611,60.00305],[22.72667,60.00166],[22.68222,59.99777],[22.67611,60.00166],[22.63333,60.00472],[22.60111,59.98333],[22.60133,60],[22.60028,60.005],[22.5725,60.0275],[22.52889,60.0061],[22.52111,60.00305],[22.51167,60.00166],[22.47277,59.99694],[22.46946,60],[22.47113,60.07208],[22.42416,60.10833],[22.41528,60.15222],[22.41964,60.13067],[22.39207,60.1212],[22.42147,60.29319],[22.22065,60.25877],[21.93095,60.38077],[21.74681,60.40827],[21.56015,60.51249],[21.44318,60.69365],[21.428,61],[17.14698,61],[17.14621,60.95283],[17.31763,60.75307],[17.1885,60.67429],[17.60496,60.63754],[17.70646,60.55358],[17.93075,60.59031],[18.22439,60.32297],[18.41687,60.18162],[18.80409,60.1084],[18.89307,59.92569],[19.03732,59.86324],[19.04355,59.71242],[18.86789,59.71242],[18.63925,59.56693],[18.25142,59.43194],[18.03008,59.35928],[17.79528,59.36447],[17.72995,59.41636],[17.36798,59.46827],[17.0706,59.54615],[16.78554,59.57732],[16.72409,59.53057],[16.52321,59.58252],[16.40758,59.4475],[16.77647,59.47866],[16.99984,59.35928],[17.26578,59.33853],[17.35812,59.24518],[17.57492,59.21407],[17.58441,59.27111],[17.86173,59.23999],[17.97764,59.32815],[18.11138,59.32297],[18.32817,59.36967],[18.42956,59.33335],[18.44137,59.40079],[18.51547,59.40079],[18.61133,59.33335],[18.5982,59.29704],[18.27337,59.28667],[18.37196,59.15707],[18.01567,59.03791],[17.94014,58.90849],[17.76647,58.87227],[17.72642,58.91366],[17.7452,58.98613],[17.73911,59.11042],[17.62318,59.10007],[17.58219,58.89297],[17.35668,58.74297],[17.24539,58.71712],[17.083,58.74813],[17.08073,58.64993],[16.44287,58.63442],[16.51319,58.42812],[16.74404,58.31195],[16.77355,58.0379],[16.72459,57.88932],[16.59776,57.86645],[16.45953,57.89521],[16.47653,57.70213],[16.60721,57.66581],[16.55048,57.54515],[16.65868,57.44295],[16.49416,57.27892],[16.39452,57.0743],[16.37617,56.82242],[16.06315,56.39624],[16.03145,56.35307],[15.77054,56.03321],[15.69623,56.06096],[15.49704,56.16724],[15.2208,56.08036],[14.65289,56.12062],[14.60523,55.98078],[14.49183,56.01804],[14.25893,55.89928],[14.12602,55.66658],[14.28635,55.51549],[14.1172,55.34711],[13.90111,55.40515],[13.8233,55.42182],[13.30185,55.3007],[12.80237,55.35291],[12.80192,55.41677],[12.88756,55.45161],[12.85931,55.53292],[12.98587,55.66658],[12.69901,55.9051],[12.51336,56.12062],[12.41441,56.24304],[12.65238,56.29553],[12.61544,56.43561],[12.80481,56.4012],[12.87158,56.51152],[12.78586,56.61668],[12.65748,56.61084],[12.52603,56.7804],[12.28862,56.87986],[12.00514,57.32521],[12,57.32521],[12,59.86346],[12.07703,59.86592],[12.42277,60.03878],[12.43586,60.2781],[12.54796,60.43387],[12.43103,60.62585],[12.17404,60.95641],[12.4296,61],[30.30039,61]]]]}},{"type":"Feature","properties":{"NAME":"Tsardom of Muscovy","SUBJECTO":"Tsardom of Muscovy","PARTOF":"Tsardom of Muscovy","BORDERPRECISION":3},"geometry":{"type":"MultiPolygon","coordinates":[[[[40,61],[40,47.84368],[39.2587,48.43672],[37.88465,49.1862],[36.39939,49.03577],[36.00811,48.99615],[35.51739,48.68084],[35.15334,47.80037],[35.13027,47.84004],[35.10566,47.8416],[35.08564,47.82432],[35.08779,47.67554],[34.99707,47.5876],[34.73066,47.57754],[34.48662,47.59297],[34.43633,47.5689],[34.38027,47.55752],[34.31582,47.5668],[34.26621,47.58989],[34.24033,47.5749],[34.21074,47.53618],[34.14785,47.54229],[34.06699,47.55835],[33.98398,47.55571],[33.93613,47.54146],[33.94387,47.4789],[32.05416,47.5719],[32.00774,48.20952],[32.00267,48.27919],[33.06789,49.01841],[33.07627,49.00435],[33.1625,48.9936],[33.16709,49.01929],[33.18595,49.07169],[33.19395,49.0939],[33.19434,49.11875],[33.1041,49.20015],[33.01543,49.28066],[32.86064,49.40781],[32.75391,49.48477],[32.71201,49.55938],[32.66465,49.53701],[32.65947,49.4644],[32.68242,49.40098],[32.63184,49.38184],[32.46143,49.42607],[32.35,49.46909],[32.18359,49.52095],[32.11445,49.54131],[31.95537,49.56968],[31.91405,49.56034],[31.3477,49.90349],[30.19739,50.30079],[30.52183,50.98349],[30.61032,51.66545],[31.37843,52.05663],[31.29668,52.95591],[31.38344,53.2596],[32.46803,53.08606],[32.20773,54.43096],[31.55698,54.30081],[31.42683,54.90818],[31.73051,54.95156],[31.51359,55.55893],[31.25329,55.60232],[31.22961,55.67337],[30.74821,55.66502],[28.61712,56.09501],[28.04978,56.74494],[27.89792,56.73192],[27.72811,57.04177],[27.71755,57.6793],[27.62872,58.01464],[27.67832,58.01851],[27.80273,57.99023],[27.88164,57.93701],[27.87539,57.92041],[27.91094,57.89575],[27.99209,57.86812],[28.10176,57.85996],[28.16924,57.9145],[28.14922,57.97466],[28.09697,58.04443],[27.97305,58.13262],[27.86514,58.17349],[27.71436,58.16426],[27.5918,58.17461],[27.56855,58.21479],[27.56133,58.25742],[27.58271,58.3064],[27.74785,58.42993],[27.79814,58.44683],[27.82051,58.48491],[27.81367,58.57134],[27.74844,58.91206],[27.73401,58.92696],[28.20296,58.96598],[28.17305,58.98624],[29.04073,59.28993],[29.51795,59.24654],[29.99517,59.46346],[31.31837,59.59361],[31.29754,59.93614],[31.34932,59.93276],[31.40137,59.91133],[31.45479,59.90718],[31.50977,59.92036],[31.54717,59.94014],[31.56719,59.96655],[31.56504,59.99805],[31.54092,60.03452],[31.54824,60.07188],[31.60645,60.13364],[31.60586,60.14229],[31.59688,60.1438],[31.59063,60.15557],[31.59893,60.16963],[31.69941,60.23564],[31.84326,60.24785],[32.05713,60.22651],[32.19609,60.19536],[32.26016,60.15435],[32.36152,60.1481],[32.50039,60.17651],[32.58389,60.20894],[32.6123,60.24536],[32.61436,60.28579],[32.59023,60.33022],[32.59492,60.35459],[32.65586,60.37168],[32.67666,60.39243],[32.66396,60.4271],[32.61787,60.47559],[32.59648,60.51108],[32.5999,60.5335],[32.6417,60.53687],[32.72207,60.52114],[32.78184,60.48823],[32.81572,60.48188],[32.84141,60.49702],[32.90693,60.58594],[32.94434,60.64258],[32.93652,60.67031],[32.90303,60.69351],[32.84355,60.71221],[32.81191,60.75649],[32.80781,60.82637],[32.76543,60.88604],[32.64072,60.96914],[32.6334,60.98672],[32.59258,60.99761],[32.59081,61],[40,61]],[[31.15625,58.17134],[31.39404,58.14199],[31.44648,58.20591],[31.53096,58.23018],[31.63057,58.20728],[31.68828,58.20229],[31.64697,58.3084],[31.6457,58.35142],[31.65342,58.36875],[31.63711,58.38799],[31.51816,58.37256],[31.51074,58.38887],[31.43018,58.41655],[31.37432,58.42925],[31.29834,58.47656],[31.25166,58.42544],[31.17021,58.35947],[31.07998,58.33159],[31.01943,58.31973],[30.95488,58.28438],[30.85703,58.23911],[30.87617,58.21411],[31.15625,58.17134]],[[38.75283,58.54692],[38.60996,58.63657],[38.42734,58.74702],[38.11943,58.95459],[38.04697,58.99419],[37.91992,59.04209],[37.85771,59.07515],[37.86641,59.09409],[37.91016,59.10273],[38.17051,59.06504],[38.23945,59.0627],[38.33154,59.09258],[38.40732,59.15229],[38.41465,59.17344],[38.29404,59.16133],[38.18291,59.20308],[38.14326,59.20977],[38.12402,59.20288],[38.17637,59.14824],[38.18047,59.13213],[38.17969,59.11333],[38.15937,59.10156],[38.11621,59.10259],[38.02725,59.12808],[38.00742,59.14375],[38.00156,59.15977],[37.9873,59.17676],[37.94004,59.17407],[37.84287,59.15527],[37.64492,59.15679],[37.64004,59.1377],[37.67627,59.10234],[37.69561,59.06396],[37.67324,59.0252],[37.60889,58.98896],[37.49912,58.94419],[37.48438,58.9272],[37.46582,58.87456],[37.47129,58.85708],[37.50137,58.84478],[37.58125,58.89883],[37.64238,58.9189],[37.71367,58.92773],[37.77725,58.92622],[37.82832,58.91406],[37.86943,58.89707],[37.91758,58.85825],[37.9959,58.86167],[38.02393,58.7459],[37.96133,58.7436],[37.9417,58.7355],[37.94531,58.72031],[37.98418,58.69238],[37.9877,58.67222],[38.09551,58.63447],[38.10313,58.61948],[38.07383,58.59155],[38.07393,58.54194],[37.99492,58.55044],[37.76777,58.61763],[37.71484,58.61753],[37.63232,58.63623],[37.6209,58.62622],[37.6666,58.57246],[37.66113,58.55747],[37.60869,58.54531],[37.56465,58.55283],[37.5377,58.6127],[37.45918,58.63394],[37.41035,58.66997],[37.41035,58.68906],[37.42285,58.72656],[37.37227,58.73145],[37.30791,58.76001],[37.15078,58.84873],[37.16924,58.72563],[37.15459,58.70654],[37.15527,58.69497],[37.3168,58.65742],[37.41689,58.61309],[37.50713,58.53535],[37.89717,58.2918],[37.94404,58.30088],[38.14873,58.24863],[38.22051,58.2373],[38.25098,58.19873],[38.24961,58.10269],[38.25918,58.0709],[38.28105,58.05386],[38.31016,58.04058],[38.36924,58.03159],[38.41533,58.01558],[38.43711,58.01753],[38.43691,58.03564],[38.35703,58.1001],[38.38311,58.12188],[38.61172,58.11313],[38.68096,58.1082],[38.704,58.11313],[38.69795,58.13296],[38.61924,58.20127],[38.63828,58.22031],[38.6917,58.20703],[38.77949,58.13477],[38.80518,58.12197],[38.81875,58.13481],[38.81211,58.25073],[38.83047,58.29556],[38.8709,58.33105],[39.00527,58.35806],[39.00039,58.38677],[38.97031,58.44082],[39.00371,58.47563],[38.98926,58.49561],[38.75283,58.54692]],[[35.47507,61],[35.49941,60.96982],[35.55059,60.93799],[35.63457,60.91846],[35.71904,60.90454],[35.77158,60.88643],[35.80078,60.87183],[35.82871,60.8665],[35.85508,60.87051],[35.88027,60.87832],[35.89902,60.88979],[35.90986,60.90249],[35.90449,60.91655],[35.88418,60.9311],[35.88027,60.94775],[35.91484,60.96685],[35.97627,60.9939],[35.98659,61],[35.47507,61]]]]}}]}