{"type":"FeatureCollection","name":"Regional historical snapshot 1800","license":"GPL-3.0-only","attribution":"André Ourednik and historical-basemaps contributors","upstream":"https://raw.githubusercontent.com/aourednik/historical-basemaps/62d8f1a03a71f2d3ff17f2d166f7553f256bce68/geojson/world_1800.geojson","revision":"62d8f1a03a71f2d3ff17f2d166f7553f256bce68","modification":"Clipped to 12–40°E / 46–61°N; coordinates rounded to five decimal places. Display precision remains approximate, not five-decimal historical accuracy.","modified":"2026-09-08","features":[{"type":"Feature","properties":{"NAME":"Ottoman Empire","SUBJECTO":"Ottoman Empire","PARTOF":"Ottoman Empire","BORDERPRECISION":3},"geometry":{"type":"MultiPolygon","coordinates":[[[[23.17744,46],[23.25451,46.06606],[23.37342,46],[23.70206,46],[23.79455,46.06606],[24.06457,46.09981],[24.23093,46],[25.48873,46],[25.44842,46.30233],[25.65093,46.40359],[25.85345,46.67361],[26.19097,46.80862],[26.29223,47.21365],[25.68469,47.61868],[25.24591,47.68618],[25.38092,47.85494],[25.78594,47.9562],[26.12347,47.85494],[26.12347,48.12496],[26.35974,48.12496],[26.16266,48.94059],[26.52424,48.82695],[26.9894,48.68076],[27.10773,48.64357],[27.10773,48.83258],[27.48576,48.67057],[27.48576,48.75158],[27.64777,48.75158],[27.70612,48.4397],[27.72314,48.43402],[27.81961,48.3943],[27.88203,48.33756],[27.94444,48.31486],[28.01254,48.30918],[28.05793,48.28081],[28.08063,48.25244],[28.11467,48.21839],[28.16007,48.22407],[28.21681,48.21272],[28.29625,48.22974],[28.34732,48.22974],[28.35867,48.20137],[28.31895,48.15597],[28.30193,48.13328],[28.34732,48.1503],[28.38704,48.13895],[28.38704,48.10491],[28.41542,48.08221],[28.42679,48.09738],[28.90822,47.81839],[29.0106,47.55391],[29.1156,47.28267],[29.42666,46.81608],[29.80685,46.50501],[29.96431,46.36855],[30.06607,46.28036],[30.43285,46.17575],[30.22932,46],[23.17744,46]]]]}},{"type":"Feature","properties":{"NAME":"Anhalt","SUBJECTO":"Anhalt","PARTOF":"Anhalt","BORDERPRECISION":3},"geometry":{"type":"MultiPolygon","coordinates":[[[[12,51.99653],[12.01557,51.97058],[12.06023,51.98919],[12.09,51.98547],[12.08255,51.95942],[12.12349,51.89615],[12.16443,51.89243],[12.16071,51.84033],[12.09744,51.78078],[12.09372,51.74357],[12.06767,51.75473],[12,51.74243],[12,51.99653]]]]}},{"type":"Feature","properties":{"NAME":"Venetia","SUBJECTO":"Venetia","PARTOF":"Venetia","BORDERPRECISION":3},"geometry":{"type":"MultiPolygon","coordinates":[[[[12,46],[12,46.88828],[12.07475,46.92751],[12.21781,46.88432],[12.36185,46.70854],[12.95189,46.59746],[13.35401,46.56066],[13.5689,46.51043],[13.6211,46.42088],[13.34447,46.28451],[13.38871,46.21633],[13.522,46.21557],[13.60634,46.13214],[13.44074,46.00389],[13.45541,46],[12,46]]]]}},{"type":"Feature","properties":{"NAME":"Bavaria","SUBJECTO":"Bavaria","PARTOF":"Bavaria","BORDERPRECISION":3},"geometry":{"type":"MultiPolygon","coordinates":[[[[12.21351,50.00894],[12.48435,49.88885],[12.44831,49.70615],[12.51971,49.66758],[12.5363,49.56258],[12.64578,49.48458],[12.86081,49.36557],[12.94526,49.39792],[13.20311,49.16617],[13.39694,49.08953],[13.47973,48.99918],[13.57815,49.03689],[13.65207,48.9561],[13.74548,48.93995],[13.94668,48.6551],[13.64004,48.53816],[13.44369,48.60633],[13.38414,48.59393],[13.36665,48.44214],[13.29362,48.36472],[12.85825,48.23158],[12.69419,48.12944],[12.93631,47.87266],[12.84753,47.73971],[12.99808,47.73352],[13.023,47.66242],[12.97892,47.50791],[12.94202,47.4832],[12.74373,47.56353],[12.76539,47.6377],[12.70008,47.69025],[12.44609,47.66242],[12.35818,47.72425],[12.16328,47.70879],[12.12203,47.62843],[12,47.62508],[12,49.93684],[12.10338,49.90326],[12.21351,50.00894]]]]}},{"type":"Feature","properties":{"NAME":"Mecklenburg-Schwerin","SUBJECTO":"Mecklenburg-Schwerin","PARTOF":"Mecklenburg-Schwerin","BORDERPRECISION":3},"geometry":{"type":"MultiPolygon","coordinates":[[[[12,54.09137],[12.04107,54.09666],[12.31188,54.20194],[12.46254,54.25479],[12.70633,54.08936],[12.90031,54.0247],[12.85182,53.94388],[12.90031,53.92771],[12.77099,53.70141],[12.88414,53.68524],[12.98113,53.73374],[13.01346,53.73374],[13.14278,53.78223],[13.17511,53.66908],[13.11045,53.62058],[13.11045,53.57209],[13.20744,53.62058],[13.25593,53.57209],[13.40141,53.70141],[13.48224,53.70141],[13.53073,53.63675],[13.56306,53.63675],[13.61155,53.66908],[13.80553,53.60442],[13.7732,53.4751],[13.69238,53.42661],[13.75704,53.42661],[13.72471,53.28112],[13.61155,53.28112],[13.53073,53.08715],[13.4984,53.11948],[13.41758,53.00633],[13.2721,53.02249],[13.19127,52.95783],[13.06196,52.99016],[13.06196,52.9255],[13.14278,52.87701],[13.14278,52.78002],[13.19127,52.79618],[13.30443,52.6507],[13.25593,52.61837],[13.09429,52.66687],[13.02963,52.74769],[13.09429,52.78002],[13.07812,52.82851],[12.93264,52.86084],[12.93264,52.90934],[12.83565,52.94167],[12.78716,52.89317],[12.54469,52.99016],[12.35071,53.07098],[12.30222,53.05482],[12.09208,53.2003],[12,53.2003],[12,54.09137]]]]}},{"type":"Feature","properties":{"NAME":"Saxony","SUBJECTO":"Saxony","PARTOF":"Saxony","BORDERPRECISION":3},"geometry":{"type":"MultiPolygon","coordinates":[[[[12.0837,50.26175],[12,50.28451],[12,50.45534],[12.03969,50.4355],[12.1147,50.48551],[12.02718,50.54802],[12,50.54802],[12,50.84519],[12.12206,50.823],[12.20221,50.77305],[12.30222,50.78555],[12.31473,50.77305],[12.37724,50.81056],[12.35223,50.88557],[12.23972,50.89807],[12.23972,50.94808],[12.14315,50.98946],[12.06469,51.02309],[12,51.01665],[12,51.74243],[12.06767,51.75473],[12.09372,51.74357],[12.09744,51.78078],[12.16071,51.84033],[12.16443,51.89243],[12.12349,51.89615],[12.08255,51.95942],[12.09,51.98547],[12.06023,51.98919],[12.01557,51.97058],[12,51.99653],[12,52.16165],[12.10694,52.20305],[12.13935,52.18685],[12.10694,52.13825],[12.18525,52.07344],[12.36346,52.06264],[12.57947,52.09504],[13.14111,52.04644],[13.10601,52.24085],[13.24642,52.23005],[13.39763,52.25165],[13.38683,52.05184],[13.60284,52.11124],[13.80046,52.06332],[13.85952,52.1477],[14.01141,52.1477],[14.0536,52.3249],[14.13798,52.27427],[14.32362,52.33333],[14.32362,52.27427],[14.55144,52.27427],[14.50925,51.96206],[14.52613,51.88612],[15.20019,51.98526],[15.17405,51.78925],[14.86704,51.76134],[14.86704,51.59388],[15.25779,51.62179],[15.34152,51.28686],[15.26701,51.02298],[15.00929,51.05562],[14.98096,51.01754],[15.00827,50.98489],[14.99727,50.91691],[14.82888,50.91691],[14.76481,50.86526],[14.61032,50.89788],[14.59638,51.02298],[14.4578,51.07738],[14.26166,51.04474],[14.38877,50.94683],[14.27475,50.90876],[14.14649,50.86526],[13.91066,50.84351],[13.85478,50.76742],[13.52416,50.75655],[13.47326,50.65874],[13.39415,50.69134],[13.233,50.66377],[13.1894,50.56098],[13.0175,50.55555],[12.98234,50.47411],[12.78367,50.47411],[12.59385,50.38356],[12.46162,50.39812],[12.20219,50.23968],[12.17726,50.19173],[12.15232,50.2416],[12.0837,50.26175]]]]}},{"type":"Feature","properties":{"NAME":null,"SUBJECTO":null,"PARTOF":null,"BORDERPRECISION":3},"geometry":{"type":"MultiPolygon","coordinates":[[[[19.33444,57.95583],[19.28666,57.93749],[19.2775,57.94028],[19.27444,57.945],[19.26806,57.94861],[19.25666,57.94944],[19.23805,57.94694],[19.17056,57.92944],[19.16278,57.92694],[19.15083,57.91861],[19.14583,57.91361],[19.14167,57.90778],[19.14,57.90167],[19.12611,57.83972],[19.09333,57.85194],[19.07777,57.85833],[19.07306,57.8625],[19.0375,57.89639],[19.03444,57.90111],[19.03444,57.9125],[19.03611,57.91861],[19.08889,57.97028],[19.09583,57.97361],[19.10472,57.97527],[19.28583,57.97666],[19.29639,57.97666],[19.3075,57.97444],[19.3325,57.96527],[19.33555,57.96055],[19.33444,57.95583]]]]}},{"type":"Feature","properties":{"NAME":"Austrian Empire","SUBJECTO":"Austrian Empire","PARTOF":"Austrian Empire","BORDERPRECISION":3},"geometry":{"type":"MultiPolygon","coordinates":[[[[13.45541,46],[13.44074,46.00389],[13.60634,46.13214],[13.522,46.21557],[13.38871,46.21633],[13.34447,46.28451],[13.6211,46.42088],[13.5689,46.51043],[13.35401,46.56066],[12.95189,46.59746],[12.36185,46.70854],[12.21781,46.88432],[12.07475,46.92751],[12,46.88828],[12,47.62508],[12.12203,47.62843],[12.16328,47.70879],[12.35818,47.72425],[12.44609,47.66242],[12.70008,47.69025],[12.76539,47.6377],[12.74373,47.56353],[12.94202,47.4832],[12.97892,47.50791],[13.023,47.66242],[12.99808,47.73352],[12.84753,47.73971],[12.93631,47.87266],[12.69419,48.12944],[12.85825,48.23158],[13.29362,48.36472],[13.36665,48.44214],[13.38414,48.59393],[13.44369,48.60633],[13.64004,48.53816],[13.94668,48.6551],[13.74548,48.93995],[13.65207,48.9561],[13.57815,49.03689],[13.47973,48.99918],[13.39694,49.08953],[13.20311,49.16617],[12.94526,49.39792],[12.86081,49.36557],[12.64578,49.48458],[12.5363,49.56258],[12.51971,49.66758],[12.44831,49.70615],[12.48435,49.88885],[12.21351,50.00894],[12.12777,50.15184],[12.0849,50.15184],[12.0837,50.26175],[12.15232,50.2416],[12.17726,50.19173],[12.20219,50.23968],[12.46162,50.39812],[12.59385,50.38356],[12.78367,50.47411],[12.98234,50.47411],[13.0175,50.55555],[13.1894,50.56098],[13.233,50.66377],[13.39415,50.69134],[13.47326,50.65874],[13.52416,50.75655],[13.85478,50.76742],[13.91066,50.84351],[14.14649,50.86526],[14.27475,50.90876],[14.38877,50.94683],[14.26166,51.04474],[14.4578,51.07738],[14.59638,51.02298],[14.61032,50.89788],[14.76481,50.86526],[14.82888,50.91691],[14.99727,50.91691],[15.00827,50.98489],[14.98096,51.01754],[15.00929,51.05562],[15.26701,51.02298],[15.30875,50.90604],[15.47216,50.83264],[15.5628,50.82129],[15.81834,50.79731],[15.87749,50.71579],[16.00293,50.73209],[16.00086,50.65602],[16.21021,50.68591],[16.23778,50.71579],[16.35315,50.70492],[16.44283,50.62343],[16.39859,50.56912],[16.30475,50.55826],[16.2044,50.46325],[16.45142,50.352],[16.58495,50.18115],[16.72802,50.14862],[16.82706,50.23267],[17.01153,50.2869],[16.88444,50.42255],[16.88559,50.48769],[17.01442,50.47683],[17.24333,50.38999],[17.35975,50.33572],[17.67876,50.33827],[17.59712,50.21098],[17.74557,50.24894],[17.74471,50.13507],[17.75066,50.03598],[17.88249,50.03011],[18.04804,50.10255],[18.18777,50.02126],[18.54872,49.96173],[18.53996,49.84998],[18.62468,49.75661],[18.79632,49.71345],[18.76907,50.17699],[18.74563,50.26604],[19.59786,49.95414],[19.7723,50.19835],[20.01652,50.19835],[20.12118,50.30302],[20.47006,50.30302],[20.57473,50.47746],[21.09805,50.47746],[21.65625,50.79145],[22.00514,51.10544],[22.31913,51.10544],[22.17958,51.00078],[23.01689,50.97985],[23.0448,50.78447],[23.3239,50.95194],[23.29599,51.48223],[23.68674,51.62179],[23.88211,51.3985],[23.96584,51.31477],[24.04958,51.51014],[24.21704,51.51014],[24.30077,51.17522],[24.52405,51.1194],[24.55196,50.8682],[24.80316,50.81238],[24.94271,50.95194],[25.13808,50.92403],[25.47301,50.50537],[25.66838,50.44955],[25.75211,50.53328],[26.11495,50.64492],[26.08704,49.66806],[26.08166,49.1296],[26.16266,48.94059],[26.35974,48.12496],[26.12347,48.12496],[26.12347,47.85494],[25.78594,47.9562],[25.38092,47.85494],[25.24591,47.68618],[25.68469,47.61868],[26.29223,47.21365],[26.19097,46.80862],[25.85345,46.67361],[25.65093,46.40359],[25.44842,46.30233],[25.48873,46],[24.23093,46],[24.06457,46.09981],[23.79455,46.06606],[23.70206,46],[23.37342,46],[23.25451,46.06606],[23.17744,46],[13.45541,46]]]]}},{"type":"Feature","properties":{"NAME":"Swabia","SUBJECTO":"Swabia","PARTOF":"Swabia","BORDERPRECISION":3},"geometry":{"type":"MultiPolygon","coordinates":[[[[12,51.01665],[12.06469,51.02309],[12.14315,50.98946],[12.23972,50.94808],[12.23972,50.89807],[12.35223,50.88557],[12.37724,50.81056],[12.31473,50.77305],[12.30222,50.78555],[12.20221,50.77305],[12.12206,50.823],[12,50.84519],[12,50.54802],[12.02718,50.54802],[12.1147,50.48551],[12.03969,50.4355],[12,50.45534],[12,50.28451],[12.0837,50.26175],[12.0849,50.15184],[12.12777,50.15184],[12.21351,50.00894],[12.10338,49.90326],[12,49.93684],[12,51.01665]]]]}},{"type":"Feature","properties":{"NAME":"Prussia","SUBJECTO":"Prussia","PARTOF":"Prussia","BORDERPRECISION":3},"geometry":{"type":"MultiPolygon","coordinates":[[[[12,53.2003],[12.09208,53.2003],[12.30222,53.05482],[12.35071,53.07098],[12.54469,52.99016],[12.78716,52.89317],[12.83565,52.94167],[12.93264,52.90934],[12.93264,52.86084],[13.07812,52.82851],[13.09429,52.78002],[13.02963,52.74769],[13.09429,52.66687],[13.25593,52.61837],[13.30443,52.6507],[13.19127,52.79618],[13.14278,52.78002],[13.14278,52.87701],[13.06196,52.9255],[13.06196,52.99016],[13.19127,52.95783],[13.2721,53.02249],[13.41758,53.00633],[13.4984,53.11948],[13.53073,53.08715],[13.61155,53.28112],[13.72471,53.28112],[13.75704,53.42661],[13.69238,53.42661],[13.7732,53.4751],[13.80553,53.60442],[13.61155,53.66908],[13.56306,53.63675],[13.53073,53.63675],[13.48224,53.70141],[13.40141,53.70141],[13.25593,53.57209],[13.20744,53.62058],[13.11045,53.57209],[13.11045,53.62058],[13.17511,53.66908],[13.14278,53.78223],[13.01346,53.73374],[12.98113,53.73374],[12.88414,53.68524],[12.77099,53.70141],[12.90031,53.92771],[13.24823,53.96626],[13.55525,53.82671],[13.66761,54.08417],[13.73778,54.03029],[13.76433,53.87719],[13.7805,53.77518],[13.85017,53.72929],[14.00974,53.67321],[14.17686,53.68341],[14.18958,53.62479],[14.28019,53.61342],[14.43316,53.59421],[14.53706,53.53817],[14.4953,53.62479],[14.5653,53.6936],[14.55694,53.75988],[14.48252,53.81853],[14.47294,53.87678],[14.46741,53.91035],[14.58024,53.92902],[14.88576,53.97956],[15.07968,54.00252],[15.31169,54.071],[15.89836,54.1284],[16.11468,54.19961],[16.47325,54.41503],[16.9759,54.54931],[17.65761,54.68546],[18.27945,54.72412],[18.75953,54.53641],[18.36292,54.66889],[18.3385,54.60265],[18.45381,54.52538],[18.51316,54.31578],[18.67308,54.25514],[18.96498,54.22758],[19.255,54.27719],[19.7336,54.46117],[19.75772,54.45917],[19.31761,54.27168],[19.23206,54.22207],[19.23031,54.16697],[19.3281,54.16145],[19.45682,54.21656],[19.73312,54.31027],[19.97754,54.42394],[20.18865,54.52198],[20.32671,54.56401],[20.19423,54.57505],[20.0057,54.54746],[19.93812,54.60817],[19.88181,54.52538],[19.83325,54.5309],[19.86317,54.75173],[19.94257,54.84986],[20.1271,54.84564],[20.79715,54.81798],[20.9852,54.81164],[21.13734,54.84546],[21.19194,54.95958],[21.11335,55.08924],[21.22385,55.11145],[21.19312,55.16635],[21.16232,55.22138],[21.14303,55.25584],[21.20093,55.26139],[21.2163,55.34367],[21.01845,55.63401],[21.01482,55.69706],[20.99596,56.02413],[20.94545,56.06996],[21.27551,55.86109],[21.68397,55.35347],[22.5839,55.00941],[22.63163,54.94866],[22.79351,54.90241],[22.82434,54.78678],[22.72413,54.73283],[22.66246,54.57095],[22.67017,54.49386],[22.69904,54.4149],[22.73969,53.94989],[22.80665,53.8076],[21.53171,53.40109],[23.62193,52.08231],[23.60758,51.59352],[23.29599,51.48223],[23.3239,50.95194],[23.0448,50.78447],[23.01689,50.97985],[22.17958,51.00078],[22.31913,51.10544],[22.00514,51.10544],[21.65625,50.79145],[21.09805,50.47746],[20.57473,50.47746],[20.47006,50.30302],[20.12118,50.30302],[20.01652,50.19835],[19.7723,50.19835],[19.59786,49.95414],[18.74563,50.26604],[18.76907,50.17699],[18.79632,49.71345],[18.62468,49.75661],[18.53996,49.84998],[18.54872,49.96173],[18.18777,50.02126],[18.04804,50.10255],[17.88249,50.03011],[17.75066,50.03598],[17.74471,50.13507],[17.74557,50.24894],[17.59712,50.21098],[17.67876,50.33827],[17.35975,50.33572],[17.24333,50.38999],[17.01442,50.47683],[16.88559,50.48769],[16.88444,50.42255],[17.01153,50.2869],[16.82706,50.23267],[16.72802,50.14862],[16.58495,50.18115],[16.45142,50.352],[16.2044,50.46325],[16.30475,50.55826],[16.39859,50.56912],[16.44283,50.62343],[16.35315,50.70492],[16.23778,50.71579],[16.21021,50.68591],[16.00086,50.65602],[16.00293,50.73209],[15.87749,50.71579],[15.81834,50.79731],[15.5628,50.82129],[15.47216,50.83264],[15.30875,50.90604],[15.26701,51.02298],[15.34152,51.28686],[15.25779,51.62179],[14.86704,51.59388],[14.86704,51.76134],[15.17405,51.78925],[15.20019,51.98526],[14.52613,51.88612],[14.50925,51.96206],[14.55144,52.27427],[14.32362,52.27427],[14.32362,52.33333],[14.13798,52.27427],[14.0536,52.3249],[14.01141,52.1477],[13.85952,52.1477],[13.80046,52.06332],[13.60284,52.11124],[13.38683,52.05184],[13.39763,52.25165],[13.24642,52.23005],[13.10601,52.24085],[13.14111,52.04644],[12.57947,52.09504],[12.36346,52.06264],[12.18525,52.07344],[12.10694,52.13825],[12.13935,52.18685],[12.10694,52.20305],[12,52.16165],[12,53.2003]]],[[[14.42484,53.91502],[14.47294,53.87678],[14.45907,53.81871],[14.33386,53.82972],[14.2479,53.81596],[14.22724,53.90951],[14.30526,53.91502],[14.42484,53.91502]]]]}},{"type":"Feature","properties":{"NAME":"Sweden","SUBJECTO":"Sweden","PARTOF":"Sweden","BORDERPRECISION":3},"geometry":{"type":"MultiPolygon","coordinates":[[[[26.03775,60.2493],[25.8901,60.23584],[25.84553,60.11548],[25.58054,60.26234],[25.44989,60.1384],[25.14579,60.10975],[24.99298,60.02957],[24.96947,60.08683],[24.74298,60.03823],[24.51596,59.9895],[24.42105,59.86975],[24.28136,59.93815],[23.97895,59.88115],[23.96111,59.93245],[23.66466,59.83555],[23.41885,59.82985],[23.20144,59.81846],[22.98213,59.93245],[22.882,60.05556],[23.0052,60.20876],[22.62462,60.2011],[22.39207,60.1212],[22.42147,60.29319],[22.22065,60.25877],[21.93095,60.38077],[21.74681,60.40827],[21.56015,60.51249],[21.44318,60.69365],[21.428,61],[17.14698,61],[17.14621,60.95283],[17.31763,60.75307],[17.1885,60.67429],[17.60496,60.63754],[17.70646,60.55358],[17.93075,60.59031],[18.22439,60.32297],[18.41687,60.18162],[18.80409,60.1084],[18.89307,59.92569],[19.03732,59.86324],[19.04355,59.71242],[18.86789,59.71242],[18.63925,59.56693],[18.25142,59.43194],[18.03008,59.35928],[17.79528,59.36447],[17.72995,59.41636],[17.36798,59.46827],[17.0706,59.54615],[16.78554,59.57732],[16.72409,59.53057],[16.52321,59.58252],[16.40758,59.4475],[16.77647,59.47866],[16.99984,59.35928],[17.26578,59.33853],[17.35812,59.24518],[17.57492,59.21407],[17.58441,59.27111],[17.86173,59.23999],[17.97764,59.32815],[18.11138,59.32297],[18.32817,59.36967],[18.42956,59.33335],[18.44137,59.40079],[18.51547,59.40079],[18.61133,59.33335],[18.5982,59.29704],[18.27337,59.28667],[18.37196,59.15707],[18.01567,59.03791],[17.94014,58.90849],[17.76647,58.87227],[17.72642,58.91366],[17.7452,58.98613],[17.73911,59.11042],[17.62318,59.10007],[17.58219,58.89297],[17.35668,58.74297],[17.24539,58.71712],[17.083,58.74813],[17.08073,58.64993],[16.44287,58.63442],[16.51319,58.42812],[16.74404,58.31195],[16.77355,58.0379],[16.72459,57.88932],[16.59776,57.86645],[16.45953,57.89521],[16.47653,57.70213],[16.60721,57.66581],[16.55048,57.54515],[16.65868,57.44295],[16.49416,57.27892],[16.39452,57.0743],[16.37617,56.82242],[16.03145,56.35307],[15.77054,56.03321],[15.69623,56.06096],[15.49704,56.16724],[15.2208,56.08036],[14.65289,56.12062],[14.60523,55.98078],[14.49183,56.01804],[14.25893,55.89928],[14.12602,55.66658],[14.28635,55.51549],[14.1172,55.34711],[13.90111,55.40515],[13.8233,55.42182],[13.30185,55.3007],[12.80237,55.35291],[12.80192,55.41677],[12.88756,55.45161],[12.85931,55.53292],[12.98587,55.66658],[12.69901,55.9051],[12.51336,56.12062],[12.41441,56.24304],[12.65238,56.29553],[12.61544,56.43561],[12.80481,56.4012],[12.87158,56.51152],[12.78586,56.61668],[12.65748,56.61084],[12.52603,56.7804],[12.28862,56.87986],[12.00514,57.32521],[12,57.32521],[12,59.86346],[12.07703,59.86592],[12.42277,60.03878],[12.43586,60.2781],[12.54796,60.43387],[12.43103,60.62585],[12.17404,60.95641],[12.4296,61],[26.66725,61],[26.53124,60.39348],[26.52588,60.39647],[26.55164,60.5707],[26.44284,60.33334],[26.32271,60.27024],[26.03775,60.2493]],[[13.94541,59.06743],[13.93057,59.08979],[13.94629,59.11294],[13.99375,59.15723],[14.02734,59.2043],[14.04746,59.24121],[14.0543,59.26777],[14.05566,59.28999],[14.05176,59.30483],[14.04551,59.31362],[14.02803,59.32007],[13.99707,59.32905],[13.96172,59.33398],[13.9333,59.33047],[13.9043,59.32773],[13.86738,59.33457],[13.83008,59.34092],[13.80029,59.33706],[13.76602,59.33091],[13.75195,59.33115],[13.74395,59.34146],[13.73848,59.35947],[13.71973,59.37803],[13.67969,59.38975],[13.62832,59.38994],[13.54834,59.3813],[13.46113,59.36997],[13.37822,59.36406],[13.31572,59.36123],[13.27754,59.35732],[13.26113,59.35176],[13.25117,59.34497],[13.24893,59.33574],[13.25098,59.32451],[13.25166,59.31504],[13.2457,59.3103],[13.21787,59.31055],[13.19141,59.32461],[13.17314,59.34751],[13.15488,59.35293],[13.14268,59.34229],[13.13008,59.31904],[13.11816,59.29551],[13.10811,59.28384],[13.10303,59.27397],[13.10332,59.25459],[13.12314,59.19751],[13.17734,59.09692],[13.22109,58.99268],[13.24355,58.93047],[13.23574,58.90508],[13.19512,58.89858],[13.15977,58.90508],[13.12207,58.92085],[13.08809,58.94663],[13.06172,58.97734],[13.04063,59.01426],[12.94531,59.04766],[12.86855,59.07266],[12.81836,59.08198],[12.78408,59.07622],[12.7459,59.06484],[12.7084,59.03555],[12.67578,58.98667],[12.64688,58.93149],[12.61836,58.88691],[12.59971,58.84561],[12.57578,58.82573],[12.55713,58.81895],[12.53525,58.83208],[12.52637,58.84561],[12.51992,58.86738],[12.51025,58.90122],[12.49727,58.92002],[12.48193,58.93062],[12.46855,58.93486],[12.46396,58.9207],[12.47178,58.8769],[12.47383,58.8397],[12.45898,58.81743],[12.43213,58.8125],[12.42549,58.80146],[12.44756,58.78276],[12.47129,58.78276],[12.49971,58.76445],[12.50088,58.72754],[12.50371,58.69458],[12.5252,58.66123],[12.56279,58.6502],[12.61133,58.64131],[12.60693,58.61709],[12.4877,58.51323],[12.3293,58.43394],[12.31328,58.39531],[12.33467,58.37378],[12.375,58.38286],[12.50703,58.39692],[12.5543,58.42983],[12.57109,58.43218],[12.57266,58.41919],[12.5543,58.39438],[12.55059,58.37886],[12.56191,58.37319],[12.57959,58.37212],[12.60195,58.37598],[12.62432,58.38232],[12.64971,58.39688],[12.6792,58.42051],[12.72754,58.4521],[12.79834,58.48569],[12.86865,58.50381],[12.91279,58.54575],[12.95215,58.57163],[13.04063,58.6043],[13.11514,58.60825],[13.14824,58.59717],[13.14893,58.57339],[13.14941,58.55854],[13.13652,58.54131],[13.14756,58.52144],[13.17217,58.51187],[13.19463,58.51099],[13.24023,58.51484],[13.30029,58.56143],[13.35811,58.61709],[13.43662,58.64199],[13.51729,58.66328],[13.63105,58.68413],[13.7373,58.70386],[13.79951,58.72241],[13.82988,58.74434],[13.85928,58.77217],[13.89014,58.80049],[13.92412,58.82339],[13.9541,58.84365],[13.9752,58.86543],[13.98721,58.89814],[13.99521,58.94482],[13.99258,58.98643],[14.01211,59.00366],[14.03867,59.00439],[14.0499,59.01221],[14.05625,59.01689],[14.07168,59.02827],[14.08301,59.06426],[14.09082,59.07939],[14.08945,59.09155],[14.08301,59.0999],[14.06582,59.09722],[14.03838,59.08267],[14.00498,59.06816],[13.97344,59.06577],[13.94541,59.06743]]],[[[18.15805,57.31583],[18.1425,57.40944],[18.11528,57.48083],[18.11028,57.49611],[18.11,57.51305],[18.11138,57.51944],[18.11916,57.53111],[18.13861,57.55111],[18.17917,57.58833],[18.19144,57.59614],[18.21194,57.60583],[18.22778,57.61138],[18.24222,57.61749],[18.24917,57.62083],[18.27611,57.63416],[18.29472,57.64583],[18.33889,57.68166],[18.35583,57.69583],[18.38194,57.71861],[18.40167,57.73861],[18.41972,57.76028],[18.45639,57.80277],[18.46139,57.80778],[18.46722,57.81194],[18.48111,57.8186],[18.68194,57.91361],[18.69,57.91611],[18.71611,57.9211],[18.725,57.92278],[18.88194,57.91972],[18.9025,57.91833],[18.91417,57.9175],[19.00472,57.90861],[19.00611,57.90361],[19.00389,57.89889],[19.03333,57.82694],[18.92944,57.73972],[18.84889,57.72111],[18.80917,57.70361],[18.79333,57.65916],[18.75972,57.50805],[18.76806,57.47222],[18.76944,57.46722],[18.78833,57.44833],[18.71444,57.24694],[18.71194,57.24166],[18.65805,57.22083],[18.55194,57.18278],[18.51472,57.16944],[18.49833,57.16528],[18.45556,57.15694],[18.43944,57.15277],[18.41722,57.14417],[18.39722,57.13416],[18.39139,57.13],[18.38667,57.12499],[18.34555,57.07972],[18.34139,57.07388],[18.33917,57.0686],[18.33555,57.02333],[18.33583,57.01749],[18.34333,57.01444],[18.34666,56.9986],[18.3025,56.93749],[18.295,56.93472],[18.21555,56.91306],[18.20611,56.91194],[18.16889,56.91],[18.14778,56.91194],[18.14027,56.91499],[18.1425,56.92027],[18.15833,56.94167],[18.20916,56.98917],[18.25666,57.03222],[18.25444,57.07916],[18.17333,57.14194],[18.14833,57.23528],[18.15805,57.31583]]],[[[13.34917,54.06349],[13.43102,54.03025],[13.66761,54.08417],[13.55525,53.82671],[13.24823,53.96626],[12.90031,53.92771],[12.85182,53.94388],[12.90031,54.0247],[12.70633,54.08936],[12.46254,54.25479],[12.65252,54.32143],[12.7648,54.27033],[12.94314,54.34698],[13.02581,54.26522],[13.06377,54.19369],[13.34917,54.06349]]],[[[13.591,54.486],[13.585,54.483],[13.581,54.478],[13.578,54.472],[13.576,54.462],[13.577,54.46],[13.578,54.454],[13.584,54.442],[13.617,54.404],[13.621,54.402],[13.631,54.401],[13.646,54.401],[13.667,54.402],[13.676,54.401],[13.702,54.388],[13.707,54.384],[13.714,54.378],[13.731,54.355],[13.744,54.331],[13.731,54.276],[13.727,54.274],[13.715,54.272],[13.711,54.272],[13.696,54.281],[13.694,54.283],[13.696,54.284],[13.711,54.297],[13.713,54.321],[13.712,54.324],[13.689,54.348],[13.684,54.349],[13.508,54.343],[13.504,54.342],[13.469,54.328],[13.359,54.275],[13.357,54.273],[13.355,54.27],[13.357,54.26],[13.403,54.265],[13.408,54.265],[13.413,54.265],[13.42,54.261],[13.422,54.259],[13.426,54.252],[13.429,54.244],[13.429,54.238],[13.424,54.234],[13.398,54.222],[13.393,54.221],[13.319,54.249],[13.268,54.255],[13.257,54.256],[13.25,54.258],[13.156,54.306],[13.122,54.331],[13.118,54.334],[13.117,54.339],[13.118,54.343],[13.129,54.368],[13.131,54.371],[13.134,54.372],[13.142,54.374],[13.151,54.375],[13.157,54.375],[13.201,54.373],[13.217,54.37],[13.223,54.369],[13.236,54.372],[13.261,54.379],[13.265,54.38],[13.268,54.383],[13.239,54.411],[13.208,54.428],[13.165,54.434],[13.229,54.465],[13.232,54.486],[13.167,54.513],[13.147,54.546],[13.231,54.552],[13.256,54.551],[13.304,54.55],[13.338,54.566],[13.367,54.58],[13.378,54.558],[13.395,54.542],[13.42,54.522],[13.447,54.489],[13.484,54.484],[13.503,54.493],[13.517,54.513],[13.503,54.55],[13.459,54.551],[13.426,54.57],[13.384,54.578],[13.375,54.61],[13.355,54.604],[13.33,54.583],[13.311,54.573],[13.286,54.565],[13.282,54.564],[13.251,54.558],[13.246,54.558],[13.245,54.559],[13.225,54.634],[13.225,54.64],[13.226,54.643],[13.231,54.648],[13.245,54.657],[13.263,54.667],[13.279,54.671],[13.292,54.673],[13.364,54.679],[13.384,54.681],[13.424,54.683],[13.43,54.682],[13.438,54.68],[13.443,54.676],[13.444,54.673],[13.442,54.671],[13.429,54.66],[13.422,54.657],[13.397,54.652],[13.391,54.649],[13.386,54.645],[13.383,54.639],[13.391,54.607],[13.407,54.589],[13.433,54.578],[13.456,54.573],[13.482,54.575],[13.516,54.577],[13.593,54.585],[13.618,54.586],[13.634,54.586],[13.639,54.585],[13.647,54.583],[13.672,54.569],[13.677,54.565],[13.678,54.563],[13.679,54.542],[13.678,54.532],[13.675,54.526],[13.67,54.522],[13.667,54.521],[13.647,54.516],[13.641,54.513],[13.591,54.486]]],[[[16.437,56.211],[16.43,56.209],[16.421,56.211],[16.416,56.215],[16.411,56.225],[16.403,56.274],[16.392,56.465],[16.393,56.529],[16.396,56.536],[16.42,56.586],[16.543,56.776],[16.612,56.868],[16.617,56.874],[16.629,56.879],[16.645,56.884],[16.749,56.94],[16.848,57.064],[16.9,57.135],[16.959,57.224],[16.963,57.229],[16.966,57.242],[16.96,57.257],[16.959,57.274],[16.961,57.28],[16.966,57.294],[16.973,57.305],[16.983,57.316],[16.993,57.325],[17.01,57.337],[17.022,57.345],[17.036,57.352],[17.057,57.359],[17.099,57.351],[17.106,57.348],[17.124,57.321],[17.051,57.187],[17.009,57.132],[16.961,57.075],[16.927,57.038],[16.88,56.93],[16.848,56.844],[16.841,56.832],[16.837,56.827],[16.828,56.825],[16.817,56.826],[16.808,56.824],[16.785,56.81],[16.779,56.806],[16.77,56.796],[16.727,56.702],[16.636,56.519],[16.577,56.407],[16.571,56.394],[16.569,56.388],[16.57,56.377],[16.572,56.372],[16.575,56.367],[16.576,56.361],[16.572,56.355],[16.553,56.326],[16.496,56.241],[16.486,56.231],[16.474,56.224],[16.437,56.211]]],[[[20.203,59.977],[20.137,59.992],[20.129,59.995],[20.004,60.051],[19.999,60.055],[20.003,60.062],[20.008,60.067],[20.094,60.093],[20.103,60.096],[20.109,60.092],[20.11,60.088],[20.123,60.081],[20.164,60.069],[20.193,60.065],[20.205,60.064],[20.212,60.06],[20.227,60.003],[20.226,60],[20.211,59.98],[20.203,59.977]]],[[[20.199,60.091],[20.205,60.109],[20.216,60.139],[20.223,60.142],[20.269,60.141],[20.276,60.137],[20.287,60.129],[20.292,60.125],[20.295,60.121],[20.298,60.11],[20.298,60.104],[20.271,60.057],[20.263,60.054],[20.205,60.081],[20.2,60.086],[20.199,60.091]]],[[[19.627,60.244],[19.666,60.193],[19.669,60.189],[19.674,60.173],[19.677,60.157],[19.673,60.15],[19.604,60.153],[19.575,60.122],[19.563,60.123],[19.551,60.125],[19.543,60.128],[19.523,60.151],[19.511,60.175],[19.512,60.181],[19.536,60.225],[19.541,60.23],[19.565,60.249],[19.572,60.252],[19.58,60.255],[19.589,60.257],[19.602,60.256],[19.612,60.253],[19.627,60.244]]],[[[19.914,60.217],[19.914,60.212],[19.927,60.193],[19.931,60.188],[19.937,60.184],[19.946,60.181],[19.987,60.17],[20.026,60.154],[20.051,60.101],[20.053,60.096],[20.051,60.09],[20.044,60.086],[20.022,60.086],[19.999,60.089],[19.968,60.09],[19.958,60.089],[19.951,60.085],[19.948,60.079],[19.944,60.043],[19.939,60.059],[19.928,60.084],[19.925,60.089],[19.918,60.093],[19.908,60.095],[19.895,60.097],[19.875,60.095],[19.869,60.091],[19.87,60.086],[19.873,60.081],[19.868,60.077],[19.859,60.076],[19.848,60.076],[19.772,60.081],[19.751,60.095],[19.722,60.126],[19.699,60.159],[19.696,60.164],[19.648,60.257],[19.649,60.262],[19.749,60.305],[19.783,60.293],[19.777,60.261],[19.768,60.249],[19.762,60.244],[19.761,60.238],[19.793,60.191],[19.796,60.187],[19.809,60.185],[19.817,60.188],[19.931,60.277],[19.935,60.283],[19.937,60.289],[19.937,60.295],[19.931,60.304],[19.899,60.34],[19.892,60.343],[19.883,60.342],[19.878,60.336],[19.874,60.329],[19.872,60.323],[19.868,60.317],[19.862,60.312],[19.839,60.32],[19.834,60.322],[19.78,60.349],[19.783,60.354],[19.808,60.377],[19.825,60.392],[19.857,60.404],[19.869,60.404],[19.906,60.4],[20.085,60.35],[20.277,60.274],[20.218,60.208],[20.172,60.164],[20.162,60.162],[20.092,60.17],[20.086,60.174],[20.082,60.179],[20.101,60.216],[20.106,60.221],[20.123,60.226],[20.12,60.24],[20.067,60.296],[20.062,60.301],[20.047,60.308],[20.037,60.311],[20.025,60.311],[19.914,60.217]]],[[[20.387,60.193],[20.345,60.231],[20.342,60.235],[20.341,60.241],[20.343,60.247],[20.348,60.252],[20.366,60.266],[20.376,60.267],[20.394,60.267],[20.436,60.258],[20.441,60.253],[20.442,60.248],[20.441,60.243],[20.409,60.204],[20.397,60.195],[20.387,60.193]]]]}},{"type":"Feature","properties":{"NAME":"Russian Empire","SUBJECTO":"Russian Empire","PARTOF":"Russian Empire","BORDERPRECISION":3},"geometry":{"type":"MultiPolygon","coordinates":[[[[22.5839,55.00941],[21.68397,55.35347],[21.27551,55.86109],[20.94545,56.06996],[20.91601,56.09667],[20.94905,56.47319],[20.96483,56.60902],[21.02205,56.68388],[21.32438,56.85442],[21.33975,57.17707],[21.45959,57.24961],[21.57951,57.3726],[21.67733,57.46366],[21.81025,57.47538],[22.2854,57.56504],[22.35993,57.58567],[22.43297,57.61556],[22.56364,57.61556],[22.58542,57.50865],[22.88137,57.33414],[23.07089,57.26132],[23.17466,57.04849],[23.21545,56.98067],[23.41447,56.89241],[23.76781,56.86588],[24.15838,56.97549],[24.26631,57.03015],[24.3465,57.15972],[24.32294,57.33689],[24.23619,57.72816],[24.32544,57.83747],[24.34565,57.86222],[24.41564,57.94793],[24.4144,58.10589],[24.49679,58.21315],[24.33109,58.30793],[24.05835,58.11153],[23.90807,58.22445],[23.67086,58.24139],[23.69047,58.66548],[23.51187,58.58088],[23.36082,58.76742],[23.43198,58.85808],[23.33789,58.97239],[23.45698,59.00549],[23.41576,59.11896],[23.57018,59.13807],[24.03211,59.17574],[24.02956,59.23542],[24.28195,59.28414],[24.34157,59.36888],[24.53757,59.32341],[24.57092,59.37433],[24.71381,59.35183],[24.75122,59.44846],[25.24829,59.3618],[25.44879,59.49396],[25.48999,59.42004],[25.72112,59.45984],[26.34326,59.44665],[26.8619,59.37175],[26.99902,59.31773],[27.26509,59.33804],[27.70204,59.2975],[27.8936,59.34611],[28.01585,59.45415],[28.01309,59.45822],[27.97339,59.51671],[27.89666,59.53378],[27.94169,59.6476],[28.09419,59.66468],[28.1631,59.59068],[28.26634,59.56223],[28.35098,59.60206],[28.3091,59.6644],[28.44436,59.73374],[28.66273,59.64434],[28.79593,59.67222],[28.93627,59.82455],[29.07607,59.90779],[29.41363,59.86003],[29.76545,59.73624],[29.96316,59.73662],[30.12664,59.80605],[29.95287,59.98558],[29.6873,60.131],[29.51074,60.14457],[28.96898,60.10879],[28.69163,60.14998],[28.5694,60.19842],[28.43523,60.33734],[28.55125,60.53264],[28.52151,60.62326],[28.43178,60.60347],[28.01144,60.51073],[27.47362,60.42608],[27.40622,60.34482],[27.17848,60.44239],[26.94557,60.37631],[26.92231,60.31612],[26.61308,60.34783],[26.52588,60.39647],[26.53124,60.39348],[26.66725,61],[40,61],[40,46],[37.98615,46],[37.98994,46.00666],[38.22715,46.02009],[38.45898,46.07891],[38.26491,46.31856],[37.97017,46.44128],[37.7571,46.60319],[37.8666,46.65536],[38.03186,46.66868],[38.40109,46.72135],[38.72274,46.87792],[39.28236,47.07403],[39.19409,47.24295],[39.15985,47.26889],[38.80025,47.22917],[38.20973,47.15046],[37.85925,47.10374],[37.42214,47.07688],[37.19263,46.89442],[36.86456,46.80929],[36.35397,46.7758],[35.85056,46.66439],[35.62433,46.52106],[35.4161,46.49469],[35.21237,46.63714],[35.04637,46.35765],[34.90681,46.27302],[34.69235,46.25313],[34.49565,46.2787],[34.06422,46.26487],[33.83908,46.19305],[34.12726,46.0639],[34.25179,46],[33.59966,46],[33.52795,46.13406],[33.33253,46.16611],[32.97293,46.14595],[32.51644,46.12558],[32.20217,46.17036],[32.1141,46.21562],[31.92594,46.40993],[32.18879,46.59224],[31.95127,46.86463],[31.78105,46.70186],[31.53773,46.70138],[31.08723,46.63554],[30.83286,46.57659],[30.52046,46.25141],[30.43285,46.17575],[30.06607,46.28036],[29.96431,46.36855],[29.80685,46.50501],[29.42666,46.81608],[29.1156,47.28267],[29.0106,47.55391],[28.90822,47.81839],[28.42679,48.09738],[28.41542,48.08221],[28.38704,48.10491],[28.38704,48.13895],[28.34732,48.1503],[28.30193,48.13328],[28.31895,48.15597],[28.35867,48.20137],[28.34732,48.22974],[28.29625,48.22974],[28.21681,48.21272],[28.16007,48.22407],[28.11467,48.21839],[28.08063,48.25244],[28.05793,48.28081],[28.01254,48.30918],[27.94444,48.31486],[27.88203,48.33756],[27.81961,48.3943],[27.72314,48.43402],[27.70612,48.4397],[27.64777,48.75158],[27.48576,48.75158],[27.48576,48.67057],[27.10773,48.83258],[27.10773,48.64357],[26.9894,48.68076],[26.52424,48.82695],[26.16266,48.94059],[26.08166,49.1296],[26.08704,49.66806],[26.11495,50.64492],[25.75211,50.53328],[25.66838,50.44955],[25.47301,50.50537],[25.13808,50.92403],[24.94271,50.95194],[24.80316,50.81238],[24.55196,50.8682],[24.52405,51.1194],[24.30077,51.17522],[24.21704,51.51014],[24.04958,51.51014],[23.96584,51.31477],[23.88211,51.3985],[23.68674,51.62179],[23.60758,51.59352],[23.62193,52.08231],[21.53171,53.40109],[22.80665,53.8076],[22.73969,53.94989],[22.69904,54.4149],[22.67017,54.49386],[22.66246,54.57095],[22.72413,54.73283],[22.82434,54.78678],[22.79351,54.90241],[22.63163,54.94866],[22.5839,55.00941]],[[30.30039,61],[30.40869,60.92803],[30.43584,60.90269],[30.44121,60.87363],[30.45586,60.86001],[30.50205,60.84321],[30.52793,60.81172],[30.5332,60.76553],[30.52539,60.73887],[30.50449,60.73164],[30.504,60.70356],[30.52393,60.65459],[30.53389,60.63008],[30.66328,60.59282],[30.72373,60.56177],[30.75859,60.52451],[30.77422,60.49209],[30.77598,60.4481],[30.80332,60.44663],[30.81689,60.45884],[30.83213,60.45752],[30.84912,60.44263],[30.95684,60.26362],[31.01895,60.19292],[31.10898,60.14644],[31.11494,60.13486],[31.09512,60.08374],[31.10596,60.0563],[31.14287,60.03169],[31.14531,60.00552],[31.06318,59.96289],[31.04277,59.95098],[31.06396,59.94321],[31.10625,59.92769],[31.17637,59.92578],[31.27441,59.93765],[31.34932,59.93276],[31.40137,59.91133],[31.45479,59.90718],[31.50977,59.92036],[31.54717,59.94014],[31.56719,59.96655],[31.56504,59.99805],[31.54092,60.03452],[31.54824,60.07188],[31.60645,60.13364],[31.60586,60.14229],[31.59688,60.1438],[31.59063,60.15557],[31.59893,60.16963],[31.69941,60.23564],[31.84326,60.24785],[32.05713,60.22651],[32.19609,60.19536],[32.26016,60.15435],[32.36152,60.1481],[32.50039,60.17651],[32.58389,60.20894],[32.6123,60.24536],[32.61436,60.28579],[32.59023,60.33022],[32.59492,60.35459],[32.65586,60.37168],[32.67666,60.39243],[32.66396,60.4271],[32.61787,60.47559],[32.59648,60.51108],[32.5999,60.5335],[32.6417,60.53687],[32.72207,60.52114],[32.78184,60.48823],[32.81572,60.48188],[32.84141,60.49702],[32.90693,60.58594],[32.94434,60.64258],[32.93652,60.67031],[32.90303,60.69351],[32.84355,60.71221],[32.81191,60.75649],[32.80781,60.82637],[32.76543,60.88604],[32.64072,60.96914],[32.6334,60.98672],[32.59258,60.99761],[32.59081,61],[30.30039,61]],[[35.47507,61],[35.49941,60.96982],[35.55059,60.93799],[35.63457,60.91846],[35.71904,60.90454],[35.77158,60.88643],[35.80078,60.87183],[35.82871,60.8665],[35.85508,60.87051],[35.88027,60.87832],[35.89902,60.88979],[35.90986,60.90249],[35.90449,60.91655],[35.88418,60.9311],[35.88027,60.94775],[35.91484,60.96685],[35.97627,60.9939],[35.98659,61],[35.47507,61]]]]}},{"type":"Feature","properties":{"NAME":"Denmark-Norway","SUBJECTO":"","PARTOF":"","BORDERPRECISION":3},"geometry":{"type":"MultiPolygon","coordinates":[[[[12.4296,61],[12.17404,60.95641],[12.43103,60.62585],[12.54796,60.43387],[12.43586,60.2781],[12.42277,60.03878],[12.07703,59.86592],[12,59.86346],[12,61],[12.4296,61]]],[[[12,55.63196],[12.05262,55.70308],[12.088,55.96698],[12.23772,55.98757],[12.44405,55.96765],[12.46922,55.71063],[12.4091,55.54833],[12.34437,55.50771],[12.15843,55.37909],[12.42972,55.24469],[12.30136,55.17028],[12.07697,54.99469],[12,54.96565],[12,55.63196]]]]}}]}