{"type":"FeatureCollection","name":"Regional historical snapshot 1492","license":"GPL-3.0-only","attribution":"André Ourednik and historical-basemaps contributors","upstream":"https://raw.githubusercontent.com/aourednik/historical-basemaps/62d8f1a03a71f2d3ff17f2d166f7553f256bce68/geojson/world_1492.geojson","revision":"62d8f1a03a71f2d3ff17f2d166f7553f256bce68","modification":"Clipped to 12–40°E / 46–61°N; coordinates rounded to five decimal places. Display precision remains approximate, not five-decimal historical accuracy.","modified":"2026-09-08","features":[{"type":"Feature","properties":{"NAME":"Denmark-Norway","SUBJECTO":"Denmark-Norway","PARTOF":"Denmark-Norway","BORDERPRECISION":1},"geometry":{"type":"MultiPolygon","coordinates":[[[[12,61],[12.4296,61],[12.17404,60.95641],[12.43103,60.62585],[12.54796,60.43387],[12.43586,60.2781],[12.42277,60.03878],[12.4879,58.56292],[12,58.00154],[12,61]]],[[[12,57.42427],[12.318,57.67959],[12.52438,57.39066],[12.73076,57.43194],[12.89586,56.97791],[13.22607,57.10173],[13.43245,56.52387],[14.17541,56.8128],[14.48498,56.6801],[15.42699,56.76574],[16.06315,56.39624],[16.03145,56.35307],[15.77054,56.03321],[15.69623,56.06096],[15.49704,56.16724],[15.2208,56.08036],[14.65289,56.12062],[14.60523,55.98078],[14.49183,56.01804],[14.25893,55.89928],[14.12602,55.66658],[14.28635,55.51549],[14.1172,55.34711],[13.90111,55.40515],[13.8233,55.42182],[13.30185,55.3007],[12.80237,55.35291],[12.80192,55.41677],[12.88756,55.45161],[12.85931,55.53292],[12.98587,55.66658],[12.69901,55.9051],[12.51336,56.12062],[12.41441,56.24304],[12.65238,56.29553],[12.61544,56.43561],[12.80481,56.4012],[12.87158,56.51152],[12.78586,56.61668],[12.65748,56.61084],[12.52603,56.7804],[12.28862,56.87986],[12.00514,57.32521],[12,57.32521],[12,57.42427]]],[[[12,55.63196],[12.05262,55.70308],[12.088,55.96698],[12.23772,55.98757],[12.44405,55.96765],[12.46922,55.71063],[12.4091,55.54833],[12.34437,55.50771],[12.15843,55.37909],[12.42972,55.24469],[12.30136,55.17028],[12.07697,54.99469],[12,54.96565],[12,55.63196]]]]}},{"type":"Feature","properties":{"NAME":"Venice","SUBJECTO":"Venice","PARTOF":"Venice","BORDERPRECISION":1},"geometry":{"type":"MultiPolygon","coordinates":[[[[13.60634,46.13214],[13.53346,46],[12,46],[12,46.88828],[12.07475,46.92751],[12.21781,46.88432],[12.32843,46.9675],[12.40715,46.96408],[12.69768,46.95144],[13.29168,47.06382],[13.51644,46.99961],[13.58066,46.83906],[13.70909,46.83906],[13.72515,46.64641],[13.6211,46.42088],[13.60634,46.13214]]]]}},{"type":"Feature","properties":{"NAME":"Sweden","SUBJECTO":"Sweden","PARTOF":"Sweden","BORDERPRECISION":1},"geometry":{"type":"MultiPolygon","coordinates":[[[[29.51074,60.14457],[28.96898,60.10879],[28.69163,60.14998],[28.5694,60.19842],[28.43523,60.33734],[28.55125,60.53264],[28.52151,60.62326],[28.43178,60.60347],[28.01144,60.51073],[27.47362,60.42608],[27.40622,60.34482],[27.17848,60.44239],[26.94557,60.37631],[26.92231,60.31612],[26.61308,60.34783],[26.52588,60.39647],[26.55164,60.5707],[26.44284,60.33334],[26.32271,60.27024],[26.03775,60.2493],[25.8901,60.23584],[25.84553,60.11548],[25.58054,60.26234],[25.44989,60.1384],[25.14579,60.10975],[24.99298,60.02957],[24.96947,60.08683],[24.74298,60.03823],[24.51596,59.9895],[24.42105,59.86975],[24.28136,59.93815],[23.97895,59.88115],[23.96111,59.93245],[23.66466,59.83555],[23.41885,59.82985],[23.20144,59.81846],[22.98213,59.93245],[22.882,60.05556],[23.0052,60.20876],[22.62462,60.2011],[22.39207,60.1212],[22.42147,60.29319],[22.22065,60.25877],[21.93095,60.38077],[21.74681,60.40827],[21.56015,60.51249],[21.44318,60.69365],[21.428,61],[17.14698,61],[17.14621,60.95283],[17.31763,60.75307],[17.1885,60.67429],[17.60496,60.63754],[17.70646,60.55358],[17.93075,60.59031],[18.22439,60.32297],[18.41687,60.18162],[18.80409,60.1084],[18.89307,59.92569],[19.03732,59.86324],[19.04355,59.71242],[18.86789,59.71242],[18.63925,59.56693],[18.25142,59.43194],[18.03008,59.35928],[17.79528,59.36447],[17.72995,59.41636],[17.36798,59.46827],[17.0706,59.54615],[16.78554,59.57732],[16.72409,59.53057],[16.52321,59.58252],[16.40758,59.4475],[16.77647,59.47866],[16.99984,59.35928],[17.26578,59.33853],[17.35812,59.24518],[17.57492,59.21407],[17.58441,59.27111],[17.86173,59.23999],[17.97764,59.32815],[18.11138,59.32297],[18.32817,59.36967],[18.42956,59.33335],[18.44137,59.40079],[18.51547,59.40079],[18.61133,59.33335],[18.5982,59.29704],[18.27337,59.28667],[18.37196,59.15707],[18.01567,59.03791],[17.94014,58.90849],[17.76647,58.87227],[17.72642,58.91366],[17.7452,58.98613],[17.73911,59.11042],[17.62318,59.10007],[17.58219,58.89297],[17.35668,58.74297],[17.24539,58.71712],[17.083,58.74813],[17.08073,58.64993],[16.44287,58.63442],[16.51319,58.42812],[16.74404,58.31195],[16.77355,58.0379],[16.72459,57.88932],[16.59776,57.86645],[16.45953,57.89521],[16.47653,57.70213],[16.60721,57.66581],[16.55048,57.54515],[16.65868,57.44295],[16.49416,57.27892],[16.39452,57.0743],[16.37617,56.82242],[16.06315,56.39624],[15.42699,56.76574],[14.48498,56.6801],[14.17541,56.8128],[13.43245,56.52387],[13.22607,57.10173],[12.89586,56.97791],[12.73076,57.43194],[12.52438,57.39066],[12.318,57.67959],[12,57.42427],[12,58.00154],[12.4879,58.56292],[12.42277,60.03878],[12.43586,60.2781],[12.54796,60.43387],[12.43103,60.62585],[12.17404,60.95641],[12.4296,61],[29.26003,61],[29.6873,60.131],[29.51074,60.14457]]]]}},{"type":"Feature","properties":{"NAME":"Ryazan","SUBJECTO":"Ryazan","PARTOF":"Ryazan","BORDERPRECISION":1},"geometry":{"type":"MultiPolygon","coordinates":[[[[40,51.56514],[37.69931,52.7364],[36.86001,52.09459],[36.5982,54.25549],[37.25497,54.21751],[37.45246,55.10617],[38.39049,55.0568],[38.68671,55.45176],[39.37789,55.84672],[40,55.66898],[40,51.56514]]]]}},{"type":"Feature","properties":{"NAME":"Teutonic Knights","SUBJECTO":"Teutonic Knights","PARTOF":"Teutonic Knights","BORDERPRECISION":1},"geometry":{"type":"MultiPolygon","coordinates":[[[[27.65084,56.27996],[27.37053,55.71934],[26.24543,55.89609],[25.3074,56.48854],[24.71496,56.34042],[22.74543,56.35004],[21.9045,56.35004],[21.1418,56.1273],[21.31028,55.51306],[21.6696,55.51306],[22.02893,55.2564],[21.92626,54.9484],[22.13159,54.79441],[22.08026,54.58908],[22.18292,54.53775],[22.23425,54.12709],[21.46427,53.8191],[21.10495,53.8191],[20.80981,53.63757],[20.7094,53.75807],[20.42825,53.77815],[20.3863,53.5111],[20.0783,53.5111],[20.0783,53.6651],[19.56498,53.45977],[19.20566,53.25444],[18.949,53.25444],[18.58967,53.10045],[18.28168,53.35711],[18.68493,54.25402],[18.96498,54.22758],[19.255,54.27719],[19.7336,54.46117],[19.75772,54.45917],[19.31761,54.27168],[19.23206,54.22207],[19.23031,54.16697],[19.3281,54.16145],[19.45682,54.21656],[19.5704,54.25508],[19.73312,54.31027],[19.91458,54.39466],[19.97754,54.42394],[20.18865,54.52198],[20.32671,54.56401],[20.19423,54.57505],[20.0057,54.54746],[19.93812,54.60817],[19.88181,54.52538],[19.83325,54.5309],[19.86317,54.75173],[19.94257,54.84986],[20.1271,54.84564],[20.79715,54.81798],[20.9852,54.81164],[21.13734,54.84546],[21.19194,54.95958],[21.11335,55.08924],[21.22385,55.11145],[21.19312,55.16635],[21.16232,55.22138],[21.14303,55.25584],[21.20093,55.26139],[21.2163,55.34367],[21.01845,55.63401],[21.01482,55.69706],[20.99596,56.02413],[20.94545,56.06996],[20.91601,56.09667],[20.94905,56.47319],[20.96483,56.60902],[21.02205,56.68388],[21.32438,56.85442],[21.33975,57.17707],[21.45959,57.24961],[21.57951,57.3726],[21.67733,57.46366],[21.81025,57.47538],[22.2854,57.56504],[22.35993,57.58567],[22.43297,57.61556],[22.56364,57.61556],[22.58542,57.50865],[22.88137,57.33414],[23.07089,57.26132],[23.17466,57.04849],[23.21545,56.98067],[23.41447,56.89241],[23.76781,56.86588],[24.15838,56.97549],[24.26631,57.03015],[24.3465,57.15972],[24.32294,57.33689],[24.23619,57.72816],[24.32544,57.83747],[24.34565,57.86222],[24.41564,57.94793],[24.4144,58.10589],[24.49679,58.21315],[24.33109,58.30793],[24.05835,58.11153],[23.90807,58.22445],[23.67086,58.24139],[23.69047,58.66548],[23.51187,58.58088],[23.36082,58.76742],[23.43198,58.85808],[23.33789,58.97239],[23.45698,59.00549],[23.41576,59.11896],[23.57018,59.13807],[24.03211,59.17574],[24.02956,59.23542],[24.28195,59.28414],[24.34157,59.36888],[24.53757,59.32341],[24.57092,59.37433],[24.71381,59.35183],[24.75122,59.44846],[25.24829,59.3618],[25.44879,59.49396],[25.48999,59.42004],[25.72112,59.45984],[26.34326,59.44665],[26.8619,59.37175],[26.99902,59.31773],[27.26509,59.33804],[27.70204,59.2975],[27.66119,58.93756],[27.51069,57.61143],[27.6059,56.70689],[27.65084,56.27996]]]]}},{"type":"Feature","properties":{"NAME":"Pskov","SUBJECTO":"Pskov","PARTOF":"Pskov","BORDERPRECISION":1},"geometry":{"type":"MultiPolygon","coordinates":[[[[28.31898,58.66082],[28.41772,57.92027],[28.81268,57.57468],[28.81268,56.8835],[28.09257,56.7924],[28.01741,56.56692],[27.82271,56.72547],[27.6059,56.70689],[27.51069,57.61143],[27.66119,58.93756],[28.31898,58.66082]]]]}},{"type":"Feature","properties":{"NAME":"Grand Duchy of Moscow","SUBJECTO":"Grand Duchy of Moscow","PARTOF":"Grand Duchy of Moscow","BORDERPRECISION":1},"geometry":{"type":"MultiPolygon","coordinates":[[[[27.66119,58.93756],[27.70204,59.2975],[27.8936,59.34611],[28.01585,59.45415],[28.01309,59.45822],[27.97339,59.51671],[27.89666,59.53378],[27.94169,59.6476],[28.09419,59.66468],[28.1631,59.59068],[28.26634,59.56223],[28.35098,59.60206],[28.3091,59.6644],[28.44436,59.73374],[28.66273,59.64434],[28.79593,59.67222],[28.93627,59.82455],[29.07607,59.90779],[29.41363,59.86003],[29.76545,59.73624],[29.96316,59.73662],[30.12664,59.80605],[29.95287,59.98558],[29.6873,60.131],[29.26003,61],[40,61],[40,55.66898],[39.37789,55.84672],[38.68671,55.45176],[38.39049,55.0568],[37.45246,55.10617],[37.25497,54.21751],[36.5982,54.25549],[36.2182,54.26688],[36.16883,54.76058],[34.49025,54.71121],[34.09528,55.10617],[34.44088,56.24168],[33.25599,56.48854],[32.4167,57.27846],[31.28119,57.27846],[30.73811,56.98224],[30.9356,56.38979],[30.68874,55.89609],[29.94819,56.53791],[29.05953,56.53791],[28.81268,56.8835],[28.81268,57.57468],[28.41772,57.92027],[28.31898,58.66082],[27.66119,58.93756]],[[35.55114,61],[35.54781,60.99798],[35.50082,60.99951],[35.49763,60.97739],[35.53824,60.93161],[35.67166,60.92228],[35.89787,60.9494],[36.03324,60.99291],[36.03851,61],[35.55114,61]],[[30.26608,61],[30.43678,60.87872],[30.52508,60.76437],[30.51392,60.66908],[30.55077,60.61076],[30.63564,60.58941],[30.74843,60.48368],[30.88915,60.29358],[30.98222,60.19298],[31.02764,60.1819],[31.06603,60.14055],[31.09739,60.06892],[31.09204,60.01392],[31.04999,59.97555],[31.04414,59.94855],[31.0745,59.93292],[31.19899,59.9248],[31.41763,59.92418],[31.53559,59.94003],[31.55288,59.97235],[31.53947,60.01125],[31.49536,60.05671],[31.53451,60.1207],[31.65692,60.20322],[31.82386,60.2356],[32.03532,60.21783],[32.16582,60.18679],[32.21538,60.14247],[32.31998,60.13458],[32.47963,60.16313],[32.57774,60.19444],[32.61431,60.22853],[32.62091,60.27226],[32.59755,60.32563],[32.61241,60.36296],[32.66551,60.38424],[32.66499,60.42397],[32.61085,60.48216],[32.64754,60.51321],[32.77504,60.5171],[32.85039,60.52414],[32.87359,60.53432],[32.89157,60.54385],[32.90433,60.55273],[32.92346,60.57573],[32.94894,60.61285],[32.92643,60.65107],[32.85592,60.69041],[32.81785,60.74253],[32.81221,60.80745],[32.75348,60.87672],[32.64167,60.95034],[32.59096,61],[30.26608,61]]]]}},{"type":"Feature","properties":{"NAME":"Poland-Lithuania","SUBJECTO":"Poland-Lithuania","PARTOF":"Poland-Lithuania","BORDERPRECISION":1},"geometry":{"type":"MultiPolygon","coordinates":[[[[37.60057,51.40341],[38.29175,51.20593],[38.13611,49.04904],[37.69931,48.9349],[37.50183,48.4412],[36.07009,47.89813],[32.01552,46.88075],[31.95127,46.86463],[30.88622,47.4538],[29.16195,46],[26.54628,46],[25.90191,46.87634],[25.66633,48.69198],[24.16083,48.9866],[23.88853,49.2589],[21.77068,49.59171],[21.77068,49.74298],[21.31685,49.864],[21.2866,49.77324],[21.13532,49.83375],[20.98405,49.74298],[20.89328,49.83375],[20.80252,49.83375],[20.89328,49.74298],[20.6815,49.65222],[20.53022,49.80349],[20.34869,49.74298],[20.01589,49.80349],[19.89487,49.47069],[19.71334,49.5312],[19.56206,49.5312],[19.56206,49.71273],[19.38053,49.80349],[19.13849,49.71273],[19.10824,49.59171],[18.92671,49.62196],[18.89645,49.71273],[18.79632,49.71345],[18.76907,50.17699],[18.74563,50.26604],[18.64604,50.64451],[18.14006,50.98766],[17.63977,51.43688],[17.55255,51.65493],[17.29089,51.78576],[17.20367,51.61132],[16.85479,51.65493],[16.85479,51.91659],[16.50591,52.17825],[16.50591,52.00381],[16.0951,52.12417],[15.76453,52.26547],[15.76017,52.57074],[15.81599,52.57074],[15.84391,52.71029],[16.05312,52.71645],[16.20376,53.34333],[16.41554,53.52486],[16.20376,53.70639],[16.65758,53.85766],[16.80886,53.46435],[16.80886,53.85766],[16.68784,54.03919],[16.99039,54.19047],[17.11141,54.12996],[17.74676,54.43251],[17.65761,54.68546],[18.27945,54.72412],[18.75953,54.53641],[18.36292,54.66889],[18.3385,54.60265],[18.45381,54.52538],[18.51316,54.31578],[18.67308,54.25514],[18.68493,54.25402],[18.28168,53.35711],[18.58967,53.10045],[18.949,53.25444],[19.20566,53.25444],[19.56498,53.45977],[20.0783,53.6651],[20.0783,53.5111],[20.3863,53.5111],[20.42825,53.77815],[20.7094,53.75807],[20.80981,53.63757],[21.10495,53.8191],[21.46427,53.8191],[22.23425,54.12709],[22.18292,54.53775],[22.08026,54.58908],[22.13159,54.79441],[21.92626,54.9484],[22.02893,55.2564],[21.6696,55.51306],[21.31028,55.51306],[21.1418,56.1273],[21.9045,56.35004],[22.74543,56.35004],[24.71496,56.34042],[25.3074,56.48854],[26.24543,55.89609],[27.37053,55.71934],[27.65084,56.27996],[27.6059,56.70689],[27.82271,56.72547],[28.01741,56.56692],[28.09257,56.7924],[28.81268,56.8835],[29.05953,56.53791],[29.94819,56.53791],[30.68874,55.89609],[30.9356,56.38979],[30.73811,56.98224],[31.28119,57.27846],[32.4167,57.27846],[33.25599,56.48854],[34.44088,56.24168],[34.09528,55.10617],[34.49025,54.71121],[36.16883,54.76058],[36.2182,54.26688],[36.5982,54.25549],[36.86001,52.09459],[37.60057,51.40341]]]]}},{"type":"Feature","properties":{"NAME":"Imperial Hungary","SUBJECTO":"Imperial Hungary","PARTOF":"Imperial Hungary","BORDERPRECISION":1},"geometry":{"type":"MultiPolygon","coordinates":[[[[16.13552,46],[16.20913,46.14722],[16.44832,46.10373],[16.53529,46.36466],[16.29611,46.40815],[16.51355,46.62559],[16.44832,46.7778],[16.44832,46.93001],[16.55704,47.06048],[16.55704,47.19095],[16.64402,47.29967],[16.55704,47.49537],[16.62227,47.73455],[16.79622,47.84327],[17.40778,47.82153],[17.46214,48.06615],[17.21752,48.06615],[17.19034,48.44668],[17.35342,48.9631],[17.86985,48.80002],[18.11447,48.85438],[18.11447,48.99028],[18.22319,48.99028],[18.25037,49.18055],[18.52218,49.56107],[18.92671,49.62196],[19.10824,49.59171],[19.13849,49.71273],[19.38053,49.80349],[19.56206,49.71273],[19.56206,49.5312],[19.71334,49.5312],[19.89487,49.47069],[20.01589,49.80349],[20.34869,49.74298],[20.53022,49.80349],[20.6815,49.65222],[20.89328,49.74298],[20.80252,49.83375],[20.89328,49.83375],[20.98405,49.74298],[21.13532,49.83375],[21.2866,49.77324],[21.31685,49.864],[21.77068,49.74298],[21.77068,49.59171],[23.88853,49.2589],[24.16083,48.9866],[25.66633,48.69198],[25.90191,46.87634],[26.54628,46],[16.13552,46]],[[17.1267,46.10718],[17.17259,46.18789],[17.13598,46.19071],[17.1267,46.10718]]]]}},{"type":"Feature","properties":{"NAME":"Golden Horde","SUBJECTO":"Golden Horde","PARTOF":"Golden Horde","BORDERPRECISION":1},"geometry":{"type":"MultiPolygon","coordinates":[[[[40,49.07993],[38.13611,49.04904],[38.29175,51.20593],[37.60057,51.40341],[36.86001,52.09459],[37.69931,52.7364],[40,51.56514],[40,49.07993]]]]}},{"type":"Feature","properties":{"NAME":"Holy Roman Empire","SUBJECTO":"Holy Roman Empire","PARTOF":"Holy Roman Empire","BORDERPRECISION":1},"geometry":{"type":"MultiPolygon","coordinates":[[[[14.20541,53.81321],[14.14543,53.82645],[14.06835,53.84347],[14.02872,53.86548],[13.82777,53.82972],[13.7774,53.94862],[13.77841,54.04441],[14.06995,53.91777],[14.17417,53.90676],[14.20541,53.81321]]],[[[17.13598,46.19071],[17.17259,46.18789],[17.1267,46.10718],[17.13598,46.19071]]],[[[14.33386,53.82972],[14.2479,53.81596],[14.22724,53.90951],[14.30526,53.91502],[14.42484,53.91502],[14.47294,53.87678],[14.45907,53.81871],[14.33386,53.82972]]],[[[12,46],[12,54.09137],[12.04107,54.09666],[12.31188,54.20194],[12.46254,54.25479],[12.65252,54.32143],[12.7648,54.27033],[12.94314,54.34698],[13.02581,54.26522],[13.06377,54.19369],[13.34917,54.06349],[13.43102,54.03025],[13.66761,54.08417],[13.73778,54.03029],[13.76433,53.87719],[13.7805,53.77518],[13.85017,53.72929],[14.00974,53.67321],[14.17686,53.68341],[14.18958,53.62479],[14.28019,53.61342],[14.43316,53.59421],[14.53706,53.53817],[14.4953,53.62479],[14.5653,53.6936],[14.55694,53.75988],[14.48252,53.81853],[14.47294,53.87678],[14.46741,53.91035],[14.58024,53.92902],[14.88576,53.97956],[15.07968,54.00252],[15.31169,54.071],[15.89836,54.1284],[16.11468,54.19961],[16.47325,54.41503],[16.9759,54.54931],[17.65761,54.68546],[17.74676,54.43251],[17.11141,54.12996],[16.99039,54.19047],[16.68784,54.03919],[16.80886,53.85766],[16.80886,53.46435],[16.65758,53.85766],[16.20376,53.70639],[16.41554,53.52486],[16.20376,53.34333],[16.05312,52.71645],[15.84391,52.71029],[15.81599,52.57074],[15.76017,52.57074],[15.76453,52.26547],[16.0951,52.12417],[16.50591,52.00381],[16.50591,52.17825],[16.85479,51.91659],[16.85479,51.65493],[17.20367,51.61132],[17.29089,51.78576],[17.55255,51.65493],[17.63977,51.43688],[18.14006,50.98766],[18.64604,50.64451],[18.74563,50.26604],[18.76907,50.17699],[18.79632,49.71345],[18.89645,49.71273],[18.92671,49.62196],[18.52218,49.56107],[18.25037,49.18055],[18.22319,48.99028],[18.11447,48.99028],[18.11447,48.85438],[17.86985,48.80002],[17.35342,48.9631],[17.19034,48.44668],[17.21752,48.06615],[17.46214,48.06615],[17.40778,47.82153],[16.79622,47.84327],[16.62227,47.73455],[16.55704,47.49537],[16.64402,47.29967],[16.55704,47.19095],[16.55704,47.06048],[16.44832,46.93001],[16.44832,46.7778],[16.51355,46.62559],[16.29611,46.40815],[16.53529,46.36466],[16.44832,46.10373],[16.20913,46.14722],[16.13552,46],[13.53346,46],[13.60634,46.13214],[13.6211,46.42088],[13.72515,46.64641],[13.70909,46.83906],[13.58066,46.83906],[13.51644,46.99961],[13.29168,47.06382],[12.69768,46.95144],[12.40715,46.96408],[12.32843,46.9675],[12.21781,46.88432],[12.07475,46.92751],[12,46.88828],[12,46]]]]}},{"type":"Feature","properties":{"NAME":null,"SUBJECTO":null,"PARTOF":null,"BORDERPRECISION":1},"geometry":{"type":"MultiPolygon","coordinates":[[[[19.33444,57.95583],[19.28666,57.93749],[19.2775,57.94028],[19.27444,57.945],[19.26806,57.94861],[19.25666,57.94944],[19.23805,57.94694],[19.17056,57.92944],[19.16278,57.92694],[19.15083,57.91861],[19.14583,57.91361],[19.14167,57.90778],[19.14,57.90167],[19.12611,57.83972],[19.09333,57.85194],[19.07777,57.85833],[19.07306,57.8625],[19.0375,57.89639],[19.03444,57.90111],[19.03444,57.9125],[19.03611,57.91861],[19.08889,57.97028],[19.09583,57.97361],[19.10472,57.97527],[19.28583,57.97666],[19.29639,57.97666],[19.3075,57.97444],[19.3325,57.96527],[19.33555,57.96055],[19.33444,57.95583]]]]}},{"type":"Feature","properties":{"NAME":null,"SUBJECTO":null,"PARTOF":null,"BORDERPRECISION":1},"geometry":{"type":"MultiPolygon","coordinates":[[[[18.20611,56.91194],[18.16889,56.91],[18.14778,56.91194],[18.14027,56.91499],[18.1425,56.92027],[18.15833,56.94167],[18.20916,56.98917],[18.25666,57.03222],[18.25444,57.07916],[18.17333,57.14194],[18.14833,57.23528],[18.15805,57.31583],[18.1425,57.40944],[18.11528,57.48083],[18.11028,57.49611],[18.11,57.51305],[18.11138,57.51944],[18.11916,57.53111],[18.13861,57.55111],[18.17917,57.58833],[18.19144,57.59614],[18.21194,57.60583],[18.22778,57.61138],[18.24222,57.61749],[18.24917,57.62083],[18.27611,57.63416],[18.29472,57.64583],[18.33889,57.68166],[18.35583,57.69583],[18.38194,57.71861],[18.40167,57.73861],[18.41972,57.76028],[18.45639,57.80277],[18.46139,57.80778],[18.46722,57.81194],[18.48111,57.8186],[18.68194,57.91361],[18.69,57.91611],[18.71611,57.9211],[18.725,57.92278],[18.88194,57.91972],[18.9025,57.91833],[18.91417,57.9175],[19.00472,57.90861],[19.00611,57.90361],[19.00389,57.89889],[19.03333,57.82694],[18.92944,57.73972],[18.84889,57.72111],[18.80917,57.70361],[18.79333,57.65916],[18.75972,57.50805],[18.76806,57.47222],[18.76944,57.46722],[18.78833,57.44833],[18.71444,57.24694],[18.71194,57.24166],[18.65805,57.22083],[18.55194,57.18278],[18.51472,57.16944],[18.49833,57.16528],[18.45556,57.15694],[18.43944,57.15277],[18.41722,57.14417],[18.39722,57.13416],[18.39139,57.13],[18.38667,57.12499],[18.34555,57.07972],[18.34139,57.07388],[18.33917,57.0686],[18.33555,57.02333],[18.33583,57.01749],[18.34333,57.01444],[18.34666,56.9986],[18.3025,56.93749],[18.295,56.93472],[18.21555,56.91306],[18.20611,56.91194]]]]}},{"type":"Feature","properties":{"NAME":"Crimean Khanate","SUBJECTO":"Ottoman Empire","PARTOF":"Ottoman Empire","BORDERPRECISION":1},"geometry":{"type":"MultiPolygon","coordinates":[[[[31.97657,46.83561],[32.01552,46.88075],[36.07009,47.89813],[37.50183,48.4412],[37.69931,48.9349],[38.13611,49.04904],[40,49.07993],[40,46],[37.98615,46],[37.98994,46.00666],[38.22715,46.02009],[38.45898,46.07891],[38.26491,46.31856],[37.97017,46.44128],[37.7571,46.60319],[37.8666,46.65536],[38.03186,46.66868],[38.40109,46.72135],[38.72274,46.87792],[39.28236,47.07403],[39.19409,47.24295],[39.15985,47.26889],[38.80025,47.22917],[38.20973,47.15046],[37.85925,47.10374],[37.42214,47.07688],[37.19263,46.89442],[36.86456,46.80929],[36.35397,46.7758],[35.85056,46.66439],[35.62433,46.52106],[35.4161,46.49469],[35.21237,46.63714],[35.04637,46.35765],[34.90681,46.27302],[34.69235,46.25313],[34.49565,46.2787],[34.06422,46.26487],[33.83908,46.19305],[34.12726,46.0639],[34.25179,46],[33.59966,46],[33.52795,46.13406],[33.33253,46.16611],[32.97293,46.14595],[32.51644,46.12558],[32.20217,46.17036],[32.1141,46.21562],[31.92594,46.40993],[32.18879,46.59224],[31.97657,46.83561]]]]}},{"type":"Feature","properties":{"NAME":"Ottoman Empire","SUBJECTO":"Ottoman Empire","PARTOF":"Ottoman Empire","BORDERPRECISION":1},"geometry":{"type":"MultiPolygon","coordinates":[[[[29.16195,46],[30.88622,47.4538],[31.95127,46.86463],[31.78105,46.70186],[31.53773,46.70138],[31.08723,46.63554],[30.83286,46.57659],[30.52046,46.25141],[30.43285,46.17575],[30.22932,46],[29.16195,46]]]]}}]}