{"type":"FeatureCollection","name":"Regional historical snapshot 1994","license":"GPL-3.0-only","attribution":"André Ourednik and historical-basemaps contributors","upstream":"https://raw.githubusercontent.com/aourednik/historical-basemaps/62d8f1a03a71f2d3ff17f2d166f7553f256bce68/geojson/world_1994.geojson","revision":"62d8f1a03a71f2d3ff17f2d166f7553f256bce68","modification":"Clipped to 12–40°E / 46–61°N; coordinates rounded to five decimal places. Display precision remains approximate, not five-decimal historical accuracy.","modified":"2026-09-08","features":[{"type":"Feature","properties":{"NAME":"Estonia","SUBJECTO":"Estonia","PARTOF":"Estonia","BORDERPRECISION":3},"geometry":{"type":"MultiPolygon","coordinates":[[[[28.01309,59.45822],[28.07843,59.43415],[28.15048,59.3752],[28.13083,59.2966],[28.05223,59.27695],[27.96709,59.27695],[27.91469,59.27695],[27.87539,59.2573],[27.84919,59.19836],[27.77059,59.07391],[27.67235,58.98222],[27.52825,58.92327],[27.43656,58.86432],[27.39726,58.79227],[27.41036,58.72023],[27.46931,58.52374],[27.50206,58.43859],[27.51515,58.36654],[27.43656,58.3076],[27.43656,58.229],[27.51515,58.12421],[27.60685,58.08491],[27.64615,58.05216],[27.64615,58.01941],[27.6527,57.98011],[27.67235,57.91462],[27.75095,57.89497],[27.77714,57.86877],[27.69855,57.83602],[27.58065,57.81637],[27.50861,57.79017],[27.48241,57.74432],[27.44311,57.69192],[27.38416,57.69192],[27.37106,57.63953],[27.36451,57.60023],[27.31211,57.57403],[27.34886,57.52636],[27.29246,57.51508],[27.25317,57.52163],[27.11562,57.54128],[27.04358,57.56748],[26.96498,57.60023],[26.87328,57.61988],[26.81434,57.57403],[26.72264,57.58713],[26.66369,57.56748],[26.59165,57.52818],[26.52615,57.52163],[26.46065,57.56093],[26.40825,57.57403],[26.32966,57.57403],[26.23796,57.62643],[26.18556,57.70502],[26.09387,57.75742],[26.02837,57.77707],[25.99562,57.82947],[25.91048,57.82947],[25.79913,57.84912],[25.70743,57.90152],[25.69434,57.90152],[25.56989,57.90807],[25.52404,57.95391],[25.4127,57.97356],[25.3603,58.01941],[25.27515,58.05871],[25.27515,58.02596],[25.22276,57.98666],[25.16381,58.01286],[25.15726,58.04561],[25.11796,58.05871],[25.07211,58.05871],[24.94767,58.00631],[24.90182,57.99321],[24.84287,57.98666],[24.74463,57.98011],[24.67913,57.96046],[24.56123,57.94736],[24.43679,57.90807],[24.38439,57.86222],[24.34565,57.86222],[24.41564,57.94793],[24.4144,58.10589],[24.49679,58.21315],[24.33109,58.30793],[24.05835,58.11153],[23.90807,58.22445],[23.67086,58.24139],[23.69047,58.66548],[23.51187,58.58088],[23.36082,58.76742],[23.43198,58.85808],[23.33789,58.97239],[23.45698,59.00549],[23.41576,59.11896],[23.57018,59.13807],[24.03211,59.17574],[24.02956,59.23542],[24.28195,59.28414],[24.34157,59.36888],[24.53757,59.32341],[24.57092,59.37433],[24.71381,59.35183],[24.75122,59.44846],[25.24829,59.3618],[25.44879,59.49396],[25.48999,59.42004],[25.72112,59.45984],[26.34326,59.44665],[26.8619,59.37175],[26.99902,59.31773],[27.26509,59.33804],[27.70204,59.2975],[27.8936,59.34611],[28.01585,59.45415],[28.01309,59.45822]]]]}},{"type":"Feature","properties":{"NAME":"Latvia","SUBJECTO":"Latvia","PARTOF":"Latvia","BORDERPRECISION":3},"geometry":{"type":"MultiPolygon","coordinates":[[[[27.34886,57.52636],[27.51515,57.52818],[27.50861,57.47578],[27.50861,57.42339],[27.6134,57.39064],[27.7051,57.35134],[27.7444,57.31859],[27.83609,57.29239],[27.82954,57.25309],[27.81644,57.20069],[27.80989,57.1614],[27.76404,57.12865],[27.72475,57.1221],[27.6789,57.109],[27.73785,57.0697],[27.7051,57.01075],[27.7182,56.95835],[27.68545,56.91906],[27.6396,56.88631],[27.61995,56.84046],[27.71165,56.86666],[27.77714,56.87321],[27.83609,56.84046],[27.87539,56.83391],[27.90814,56.81426],[27.88194,56.77496],[27.86229,56.74221],[27.91469,56.69636],[27.97364,56.67017],[27.98674,56.59812],[28.05223,56.55227],[28.12428,56.53262],[28.09808,56.49332],[28.15703,56.44093],[28.15048,56.35578],[28.18978,56.25099],[28.17013,56.21169],[28.16358,56.15929],[28.13642,56.14042],[28.02756,56.12035],[27.91964,56.09722],[27.86568,56.04327],[27.76547,56.02785],[27.7038,55.95847],[27.64214,55.91993],[27.6113,55.87368],[27.58047,55.78118],[27.49568,55.76576],[27.38776,55.78118],[27.27984,55.79659],[27.13338,55.81201],[26.9715,55.81201],[26.89442,55.78118],[26.84816,55.71951],[26.74795,55.68097],[26.67858,55.68097],[26.63233,55.68867],[26.59378,55.66555],[26.4242,55.68097],[26.30086,55.7118],[26.23149,55.78888],[26.16982,55.85826],[26.02336,55.91993],[25.79981,56.02014],[25.64564,56.12806],[25.47606,56.14347],[25.21397,56.15889],[25.06751,56.21285],[24.93646,56.29765],[24.89792,56.41327],[24.81313,56.40556],[24.73604,56.37473],[24.57416,56.29765],[24.39687,56.28994],[24.28895,56.28994],[24.16562,56.25139],[24.0577,56.28994],[23.91894,56.33619],[23.64915,56.34389],[23.5181,56.31306],[23.35623,56.34389],[23.22518,56.36702],[23.15581,56.3516],[23.03247,56.32077],[22.98622,56.34389],[22.93226,56.40556],[22.86288,56.40556],[22.74726,56.37473],[22.66246,56.37473],[22.32329,56.38244],[22.12287,56.42098],[21.7837,56.34389],[21.5139,56.27452],[21.32119,56.22827],[21.20556,56.1666],[21.18244,56.08181],[20.94545,56.06996],[20.91601,56.09667],[20.94905,56.47319],[20.96483,56.60902],[21.02205,56.68388],[21.32438,56.85442],[21.33975,57.17707],[21.45959,57.24961],[21.57951,57.3726],[21.67733,57.46366],[21.81025,57.47538],[22.2854,57.56504],[22.35993,57.58567],[22.43297,57.61556],[22.56364,57.61556],[22.58542,57.50865],[22.88137,57.33414],[23.07089,57.26132],[23.17466,57.04849],[23.21545,56.98067],[23.41447,56.89241],[23.76781,56.86588],[24.15838,56.97549],[24.26631,57.03015],[24.3465,57.15972],[24.32294,57.33689],[24.23619,57.72816],[24.32544,57.83747],[24.34565,57.86222],[24.38439,57.86222],[24.43679,57.90807],[24.56123,57.94736],[24.67913,57.96046],[24.74463,57.98011],[24.84287,57.98666],[24.90182,57.99321],[24.94767,58.00631],[25.07211,58.05871],[25.11796,58.05871],[25.15726,58.04561],[25.16381,58.01286],[25.22276,57.98666],[25.27515,58.02596],[25.27515,58.05871],[25.3603,58.01941],[25.4127,57.97356],[25.52404,57.95391],[25.56989,57.90807],[25.69434,57.90152],[25.70743,57.90152],[25.79913,57.84912],[25.91048,57.82947],[25.99562,57.82947],[26.02837,57.77707],[26.09387,57.75742],[26.18556,57.70502],[26.23796,57.62643],[26.32966,57.57403],[26.40825,57.57403],[26.46065,57.56093],[26.52615,57.52163],[26.59165,57.52818],[26.66369,57.56748],[26.72264,57.58713],[26.81434,57.57403],[26.87328,57.61988],[26.96498,57.60023],[27.04358,57.56748],[27.11562,57.54128],[27.25317,57.52163],[27.29246,57.51508],[27.34886,57.52636]]]]}},{"type":"Feature","properties":{"NAME":"Lithuania","SUBJECTO":"Lithuania","PARTOF":"Lithuania","BORDERPRECISION":3},"geometry":{"type":"MultiPolygon","coordinates":[[[[22.69904,54.4149],[22.68559,54.43219],[22.67017,54.49386],[22.66246,54.57095],[22.6933,54.66345],[22.72413,54.73283],[22.82434,54.78678],[22.80122,54.84074],[22.79351,54.90241],[22.71642,54.93325],[22.63163,54.94866],[22.58538,54.99491],[22.54684,55.05658],[22.44663,55.04887],[22.331,55.04887],[22.13058,55.04887],[22.03037,55.02574],[21.99183,55.072],[21.76057,55.10283],[21.64495,55.13367],[21.54474,55.18763],[21.43682,55.18763],[21.39827,55.21075],[21.37515,55.28012],[21.32119,55.26471],[21.16232,55.22138],[21.14303,55.25584],[21.20093,55.26139],[21.2163,55.34367],[21.01845,55.63401],[21.01482,55.69706],[20.99596,56.02413],[20.94545,56.06996],[21.18244,56.08181],[21.20556,56.1666],[21.32119,56.22827],[21.5139,56.27452],[21.7837,56.34389],[22.12287,56.42098],[22.32329,56.38244],[22.66246,56.37473],[22.74726,56.37473],[22.86288,56.40556],[22.93226,56.40556],[22.98622,56.34389],[23.03247,56.32077],[23.15581,56.3516],[23.22518,56.36702],[23.35623,56.34389],[23.5181,56.31306],[23.64915,56.34389],[23.91894,56.33619],[24.0577,56.28994],[24.16562,56.25139],[24.28895,56.28994],[24.39687,56.28994],[24.57416,56.29765],[24.73604,56.37473],[24.81313,56.40556],[24.89792,56.41327],[24.93646,56.29765],[25.06751,56.21285],[25.21397,56.15889],[25.47606,56.14347],[25.64564,56.12806],[25.79981,56.02014],[26.02336,55.91993],[26.16982,55.85826],[26.23149,55.78888],[26.30086,55.7118],[26.4242,55.68097],[26.59378,55.66555],[26.58608,55.58847],[26.54753,55.51909],[26.53212,55.46513],[26.47816,55.40346],[26.43961,55.34179],[26.59378,55.32638],[26.71712,55.30325],[26.75566,55.28012],[26.7017,55.257],[26.66316,55.257],[26.61691,55.18763],[26.6092,55.11825],[26.53212,55.11054],[26.47816,55.14908],[26.4242,55.12596],[26.31628,55.14137],[26.2469,55.12596],[26.20836,55.05658],[26.16211,54.98721],[26.04648,54.95637],[25.85377,54.95637],[25.7921,54.8947],[25.73814,54.84074],[25.72273,54.77137],[25.68418,54.69428],[25.73044,54.6172],[25.6996,54.55553],[25.59168,54.48615],[25.59168,54.42448],[25.56085,54.38594],[25.53002,54.32428],[25.6071,54.30886],[25.6996,54.30886],[25.76127,54.21636],[25.72273,54.13156],[25.59939,54.12386],[25.49918,54.15469],[25.49918,54.22406],[25.48376,54.26261],[25.44522,54.29344],[25.36814,54.27032],[25.31418,54.23177],[25.18313,54.24719],[25.1523,54.18552],[25.04438,54.13156],[24.97501,54.13156],[24.89021,54.14698],[24.76688,54.10073],[24.80542,54.02364],[24.77458,53.96968],[24.6975,53.95427],[24.63583,53.96968],[24.54333,53.94656],[24.37374,53.87719],[24.2427,53.87719],[24.21187,53.92343],[24.15791,53.94656],[24.04999,53.92343],[23.8804,53.91573],[23.77248,53.90031],[23.64144,53.91573],[23.57206,53.90031],[23.5305,53.91629],[23.48981,53.99313],[23.48289,54.00618],[23.43854,54.08992],[23.31062,54.30889],[23.00508,54.41826],[22.98706,54.42471],[22.69904,54.4149]]]]}},{"type":"Feature","properties":{"NAME":"Byelarus","SUBJECTO":"Byelarus","PARTOF":"Byelarus","BORDERPRECISION":3},"geometry":{"type":"MultiPolygon","coordinates":[[[[23.5305,53.91629],[23.57206,53.90031],[23.64144,53.91573],[23.77248,53.90031],[23.8804,53.91573],[24.04999,53.92343],[24.15791,53.94656],[24.21187,53.92343],[24.2427,53.87719],[24.37374,53.87719],[24.54333,53.94656],[24.63583,53.96968],[24.6975,53.95427],[24.77458,53.96968],[24.80542,54.02364],[24.76688,54.10073],[24.89021,54.14698],[24.97501,54.13156],[25.04438,54.13156],[25.1523,54.18552],[25.18313,54.24719],[25.31418,54.23177],[25.36814,54.27032],[25.44522,54.29344],[25.48376,54.26261],[25.49918,54.22406],[25.49918,54.15469],[25.59939,54.12386],[25.72273,54.13156],[25.76127,54.21636],[25.6996,54.30886],[25.6071,54.30886],[25.53002,54.32428],[25.56085,54.38594],[25.59168,54.42448],[25.59168,54.48615],[25.6996,54.55553],[25.73044,54.6172],[25.68418,54.69428],[25.72273,54.77137],[25.73814,54.84074],[25.7921,54.8947],[25.85377,54.95637],[26.04648,54.95637],[26.16211,54.98721],[26.20836,55.05658],[26.2469,55.12596],[26.31628,55.14137],[26.4242,55.12596],[26.47816,55.14908],[26.53212,55.11054],[26.6092,55.11825],[26.61691,55.18763],[26.66316,55.257],[26.7017,55.257],[26.75566,55.28012],[26.71712,55.30325],[26.59378,55.32638],[26.43961,55.34179],[26.47816,55.40346],[26.53212,55.46513],[26.54753,55.51909],[26.58608,55.58847],[26.59378,55.66555],[26.63233,55.68867],[26.67858,55.68097],[26.74795,55.68097],[26.84816,55.71951],[26.89442,55.78118],[26.9715,55.81201],[27.13338,55.81201],[27.27984,55.79659],[27.38776,55.78118],[27.49568,55.76576],[27.58047,55.78118],[27.6113,55.87368],[27.64214,55.91993],[27.7038,55.95847],[27.76547,56.02785],[27.86568,56.04327],[27.91964,56.09722],[28.02756,56.12035],[28.13642,56.14042],[28.21037,56.07386],[28.31391,56.04428],[28.40266,56.10344],[28.48401,56.09605],[28.62452,56.08125],[28.68369,56.01469],[28.72066,55.94813],[28.80941,55.96292],[28.90555,55.99251],[29.06825,56.01469],[29.20877,55.99251],[29.34189,55.96292],[29.40844,55.95553],[29.40844,55.90376],[29.33449,55.85939],[29.32709,55.81502],[29.35668,55.74845],[29.43063,55.6819],[29.51938,55.6819],[29.61552,55.77064],[29.74124,55.77804],[29.8152,55.77804],[29.88176,55.82241],[29.98529,55.85939],[30.04446,55.8372],[30.08883,55.81502],[30.19976,55.8372],[30.44381,55.78543],[30.50298,55.72627],[30.6287,55.6819],[30.67308,55.63752],[30.73963,55.59315],[30.81359,55.57836],[30.88015,55.59315],[30.90234,55.54138],[30.87275,55.48961],[30.87275,55.45264],[30.85796,55.37868],[30.7988,55.30473],[30.88755,55.19379],[30.9541,55.14942],[30.97629,55.07547],[30.94671,55.0163],[30.89494,55.0163],[30.89494,54.97932],[30.84317,54.94235],[30.7988,54.92016],[30.78401,54.84621],[30.76182,54.77965],[30.91713,54.75746],[30.97629,54.67611],[31.01327,54.62434],[31.09462,54.64653],[31.15378,54.63174],[31.10941,54.57997],[31.07983,54.5208],[31.08722,54.47643],[31.18336,54.46904],[31.25732,54.35071],[31.30909,54.24717],[31.50877,54.15103],[31.6123,54.12145],[31.73803,54.08447],[31.81198,54.0401],[31.84156,53.97354],[31.79719,53.88479],[31.76761,53.80344],[31.84896,53.77386],[32.01166,53.80344],[32.18176,53.77386],[32.34446,53.72948],[32.46279,53.6999],[32.44799,53.67032],[32.41841,53.64814],[32.38143,53.64074],[32.42581,53.55939],[32.55893,53.49283],[32.68465,53.46325],[32.69944,53.40408],[32.66986,53.33013],[32.53674,53.33013],[32.47018,53.29315],[32.44799,53.26357],[32.24832,53.15264],[32.01166,53.10826],[31.7824,53.11566],[31.69365,53.17482],[31.54574,53.19701],[31.38304,53.18961],[31.32388,53.11566],[31.27951,53.0565],[31.2869,52.98254],[31.41263,52.86421],[31.54574,52.79026],[31.54574,52.7163],[31.48658,52.68672],[31.53095,52.62016],[31.59751,52.561],[31.56053,52.51662],[31.57533,52.44267],[31.59012,52.33913],[31.57533,52.29476],[31.64928,52.25778],[31.68626,52.20601],[31.76021,52.17643],[31.76131,52.1127],[31.52797,52.1148],[31.29275,52.0896],[31.24235,52.03079],[31.14994,52.056],[31.06593,52.0728],[30.91472,52.0392],[30.88952,51.98039],[30.83911,51.92998],[30.6963,51.84598],[30.61229,51.72837],[30.49468,51.62756],[30.46948,51.53515],[30.57869,51.44274],[30.60389,51.37553],[30.54508,51.28313],[30.42748,51.29153],[30.36027,51.31673],[30.29306,51.40914],[30.24266,51.43434],[30.15865,51.46794],[30.05784,51.48474],[29.95703,51.46794],[29.84782,51.43434],[29.71341,51.42594],[29.6462,51.48474],[29.5454,51.45114],[29.46139,51.40914],[29.31858,51.38393],[29.23457,51.40914],[29.21777,51.50154],[29.16736,51.56035],[29.09176,51.61916],[29.03295,51.60236],[28.97414,51.56875],[28.89854,51.56875],[28.76413,51.50154],[28.70532,51.43434],[28.62971,51.43434],[28.58771,51.51835],[28.5289,51.55195],[28.4365,51.55195],[28.33569,51.50154],[28.27688,51.58555],[28.17607,51.62756],[28.11727,51.57715],[27.95765,51.55195],[27.84004,51.60236],[27.78964,51.60236],[27.78124,51.50994],[27.70563,51.46794],[27.66363,51.49314],[27.68883,51.59396],[27.57962,51.61076],[27.49561,51.63596],[27.25199,51.58555],[27.25199,51.65276],[27.16798,51.65276],[27.17638,51.75357],[27.05037,51.77037],[26.94116,51.73677],[26.70594,51.78717],[26.44552,51.81237],[26.41192,51.83758],[26.17669,51.83758],[26.08429,51.91318],[25.96668,51.90478],[25.73145,51.94678],[25.52144,51.91318],[25.30302,51.91318],[25.1434,51.93838],[24.98379,51.91318],[24.82417,51.88798],[24.60575,51.90478],[24.38733,51.89638],[24.29492,51.81237],[24.27812,51.73677],[24.11011,51.66116],[23.94209,51.56875],[23.89169,51.61916],[23.77408,51.61916],[23.60606,51.62756],[23.58926,51.56875],[23.58926,51.54843],[23.53266,51.61027],[23.67438,51.94868],[23.66863,52.06129],[23.57069,52.12706],[23.50338,52.20634],[23.31397,52.27196],[23.18414,52.27757],[23.24143,52.40868],[23.37263,52.55645],[23.62949,52.66594],[23.82786,52.67932],[23.94606,52.773],[23.95681,52.87941],[23.8792,53.10521],[23.60259,53.7802],[23.5305,53.91629]]]]}},{"type":"Feature","properties":{"NAME":"Ukraine","SUBJECTO":"Ukraine","PARTOF":"Ukraine","BORDERPRECISION":3},"geometry":{"type":"MultiPolygon","coordinates":[[[[23.58926,51.54843],[23.58926,51.56875],[23.60606,51.62756],[23.77408,51.61916],[23.89169,51.61916],[23.94209,51.56875],[24.11011,51.66116],[24.27812,51.73677],[24.29492,51.81237],[24.38733,51.89638],[24.60575,51.90478],[24.82417,51.88798],[24.98379,51.91318],[25.1434,51.93838],[25.30302,51.91318],[25.52144,51.91318],[25.73145,51.94678],[25.96668,51.90478],[26.08429,51.91318],[26.17669,51.83758],[26.41192,51.83758],[26.44552,51.81237],[26.70594,51.78717],[26.94116,51.73677],[27.05037,51.77037],[27.17638,51.75357],[27.16798,51.65276],[27.25199,51.65276],[27.25199,51.58555],[27.49561,51.63596],[27.57962,51.61076],[27.68883,51.59396],[27.66363,51.49314],[27.70563,51.46794],[27.78124,51.50994],[27.78964,51.60236],[27.84004,51.60236],[27.95765,51.55195],[28.11727,51.57715],[28.17607,51.62756],[28.27688,51.58555],[28.33569,51.50154],[28.4365,51.55195],[28.5289,51.55195],[28.58771,51.51835],[28.62971,51.43434],[28.70532,51.43434],[28.76413,51.50154],[28.89854,51.56875],[28.97414,51.56875],[29.03295,51.60236],[29.09176,51.61916],[29.16736,51.56035],[29.21777,51.50154],[29.23457,51.40914],[29.31858,51.38393],[29.46139,51.40914],[29.5454,51.45114],[29.6462,51.48474],[29.71341,51.42594],[29.84782,51.43434],[29.95703,51.46794],[30.05784,51.48474],[30.15865,51.46794],[30.24266,51.43434],[30.29306,51.40914],[30.36027,51.31673],[30.42748,51.29153],[30.54508,51.28313],[30.60389,51.37553],[30.57869,51.44274],[30.46948,51.53515],[30.49468,51.62756],[30.61229,51.72837],[30.6963,51.84598],[30.83911,51.92998],[30.88952,51.98039],[30.91472,52.0392],[31.06593,52.0728],[31.14994,52.056],[31.24235,52.03079],[31.29275,52.0896],[31.52797,52.1148],[31.76131,52.1127],[31.92215,52.07249],[32.13325,52.06243],[32.27398,52.1328],[32.3544,52.26348],[32.41471,52.38411],[32.65597,52.27353],[32.89722,52.28358],[33.19879,52.38411],[33.51041,52.33385],[33.74161,52.39416],[33.83208,52.27353],[33.97282,52.21322],[34.08339,52.06243],[34.14371,51.97197],[34.25428,51.9016],[34.39501,51.83123],[34.39501,51.71061],[34.25428,51.72066],[34.11355,51.66034],[34.17387,51.52966],[34.22412,51.36883],[34.34475,51.23815],[34.63627,51.23815],[34.70663,51.18788],[34.93784,51.21804],[35.10873,51.20799],[35.10873,51.06726],[35.28967,51.06726],[35.28967,50.90642],[35.39019,50.7858],[35.4304,50.67522],[35.39019,50.5948],[35.4304,50.49428],[35.51082,50.45407],[35.6415,50.32339],[35.76213,50.40381],[35.97322,50.43396],[36.09385,50.40381],[36.30495,50.27313],[36.39542,50.30328],[36.47584,50.29323],[36.55625,50.22287],[36.74725,50.27313],[36.88798,50.32339],[37.00861,50.32339],[37.24987,50.3837],[37.4107,50.41386],[37.46096,50.34349],[37.58159,50.26308],[37.58159,50.20276],[37.67206,50.12234],[37.68211,50.06203],[37.86306,50.04192],[37.94347,49.96151],[38.04399,49.91125],[38.17467,49.97156],[38.19478,50.04192],[38.2953,50.07208],[38.42598,49.95145],[38.61698,49.9213],[38.82807,49.87104],[38.9487,49.82077],[39.10954,49.85093],[39.20001,49.77051],[39.33069,49.7303],[39.54179,49.72025],[39.59205,49.61973],[39.75288,49.54936],[39.87351,49.54936],[39.93383,49.56947],[40,49.59888],[40,49.16701],[39.95393,49.14727],[39.79309,49.0568],[39.65236,49.0367],[39.75288,48.92612],[39.87351,48.88591],[40,48.86645],[40,48.86092],[39.94388,48.79544],[39.80315,48.79544],[39.69257,48.79544],[39.67247,48.71502],[39.65236,48.6145],[39.72273,48.58434],[39.80315,48.55419],[39.82325,48.49387],[39.84336,48.41346],[39.88356,48.32298],[39.91372,48.29283],[39.84336,48.07168],[39.77299,47.941],[39.77299,47.87063],[39.62221,47.81032],[39.26032,47.88068],[38.9286,47.86058],[38.80797,47.86058],[38.79792,47.78016],[38.69739,47.69974],[38.52651,47.63943],[38.36567,47.62938],[38.26515,47.58916],[38.22494,47.35796],[38.22494,47.25744],[38.21488,47.20718],[38.20973,47.15046],[37.85925,47.10374],[37.42214,47.07688],[37.19263,46.89442],[36.86456,46.80929],[36.35397,46.7758],[35.85056,46.66439],[35.62433,46.52106],[35.4161,46.49469],[35.21237,46.63714],[35.04637,46.35765],[34.90681,46.27302],[34.69235,46.25313],[34.49565,46.2787],[34.06422,46.26487],[33.83908,46.19305],[34.12726,46.0639],[34.25179,46],[33.59966,46],[33.52795,46.13406],[33.33253,46.16611],[32.97293,46.14595],[32.51644,46.12558],[32.20217,46.17036],[32.1141,46.21562],[31.92594,46.40993],[32.18879,46.59224],[31.95127,46.86463],[31.78105,46.70186],[31.53773,46.70138],[31.08723,46.63554],[30.83286,46.57659],[30.52046,46.25141],[30.22932,46],[28.94342,46],[28.95448,46.01106],[28.94313,46.05078],[28.91476,46.0905],[28.97151,46.14157],[28.98853,46.16994],[28.98285,46.20966],[28.93178,46.26073],[28.95448,46.30613],[28.91476,46.37422],[28.88639,46.41962],[28.97718,46.48771],[29.08499,46.49906],[29.14174,46.53878],[29.19281,46.52743],[29.19848,46.48771],[29.19281,46.39125],[29.22118,46.38557],[29.27225,46.38557],[29.27225,46.42529],[29.26657,46.45366],[29.31197,46.43664],[29.34034,46.41394],[29.35169,46.44799],[29.38574,46.46501],[29.44815,46.47069],[29.44815,46.43664],[29.48787,46.40827],[29.52192,46.40827],[29.57866,46.3345],[29.61271,46.36855],[29.64676,46.4026],[29.65243,46.42529],[29.69783,46.43664],[29.77727,46.43664],[29.76024,46.35152],[29.83968,46.34018],[29.85671,46.3572],[29.87373,46.37422],[29.93615,46.36855],[30.03829,46.36855],[30.05531,46.37989],[30.08936,46.41394],[30.03261,46.41962],[29.95885,46.47636],[29.91345,46.49906],[29.87941,46.52175],[29.88508,46.53878],[29.93048,46.56715],[29.91913,46.61822],[29.93615,46.66362],[29.93048,46.72036],[29.90778,46.78278],[29.86238,46.81115],[29.78294,46.8452],[29.74889,46.8452],[29.6808,46.90194],[29.61271,46.93031],[29.54462,46.94733],[29.56732,47.01543],[29.58434,47.05515],[29.56732,47.07785],[29.51057,47.06082],[29.4822,47.11189],[29.53327,47.12891],[29.52759,47.21403],[29.56732,47.24808],[29.55597,47.29347],[29.53894,47.33319],[29.48787,47.33319],[29.44248,47.31049],[29.40276,47.2878],[29.35169,47.32752],[29.31197,47.37291],[29.22685,47.41831],[29.16443,47.42966],[29.11904,47.49207],[29.09634,47.55449],[29.17578,47.61691],[29.17578,47.70203],[29.18713,47.7531],[29.20983,47.77579],[29.15308,47.80416],[29.22685,47.87226],[29.17578,47.88361],[29.14174,47.91198],[29.11336,47.96872],[29.05095,47.9744],[29.02257,47.929],[28.96583,47.94035],[28.86937,47.9517],[28.81262,48.03682],[28.78993,48.12193],[28.60267,48.15597],[28.47783,48.1503],[28.44946,48.12761],[28.41542,48.08221],[28.38704,48.10491],[28.38704,48.13895],[28.34732,48.1503],[28.30193,48.13328],[28.31895,48.15597],[28.35867,48.20137],[28.34732,48.22974],[28.29625,48.22974],[28.21681,48.21272],[28.16007,48.22407],[28.11467,48.21839],[28.08063,48.25244],[28.05793,48.28081],[28.01254,48.30918],[27.94444,48.31486],[27.88203,48.33756],[27.81961,48.3943],[27.72314,48.43402],[27.70612,48.4397],[27.64937,48.42835],[27.62668,48.417],[27.57561,48.4397],[27.53589,48.45105],[27.47347,48.4397],[27.39403,48.417],[27.31459,48.42835],[27.28622,48.41132],[27.22947,48.36025],[27.13868,48.36025],[27.01952,48.37728],[26.96278,48.35458],[26.82092,48.40565],[26.7812,48.36025],[26.78687,48.30918],[26.73013,48.30918],[26.69608,48.33756],[26.63934,48.28649],[26.6128,48.2629],[26.32733,48.22716],[26.25952,48.08704],[26.13426,48.00687],[25.23746,47.92094],[25.15422,47.82429],[25.04451,47.77061],[24.89216,47.74376],[24.80777,47.84576],[24.6607,47.84386],[24.64923,47.94778],[24.48564,47.92762],[23.98369,47.9575],[23.55292,48.04447],[23.44439,47.99612],[23.0902,48.05048],[23.02893,48.01223],[22.72394,48.18614],[22.47471,48.27612],[22.17416,48.41149],[22.09947,48.40459],[22.57044,49.06668],[22.86446,49.05843],[22.70777,49.23084],[22.68796,49.4793],[22.72464,49.61692],[23.40381,50.16484],[23.67317,50.34394],[23.80173,50.42526],[23.9947,50.43123],[24.1093,50.53926],[24.11354,50.68048],[23.96585,50.81633],[24.00387,50.87613],[24.13828,50.89788],[23.99563,50.98489],[23.62837,51.36051],[23.66152,51.46949],[23.58926,51.54843]]]]}},{"type":"Feature","properties":{"NAME":"Slovakia","SUBJECTO":"Slovakia","PARTOF":"Slovakia","BORDERPRECISION":3},"geometry":{"type":"MultiPolygon","coordinates":[[[[16.93879,48.66104],[16.95656,48.68079],[16.9862,48.72821],[16.99212,48.78749],[17.03362,48.81713],[17.09882,48.87047],[17.11067,48.88826],[17.18773,48.91197],[17.22923,48.92382],[17.27072,48.90011],[17.32999,48.8764],[17.40112,48.8764],[17.43076,48.88826],[17.47225,48.88826],[17.50189,48.8764],[17.53153,48.86455],[17.57302,48.8764],[17.63823,48.89418],[17.6975,48.89418],[17.75085,48.91789],[17.78642,48.9416],[17.81605,48.95346],[17.86347,48.96531],[17.88126,48.96531],[17.90497,49.00088],[17.92275,49.04237],[17.95832,49.07794],[17.99981,49.06608],[18.04723,49.08387],[18.11243,49.1135],[18.13614,49.16092],[18.15985,49.19649],[18.17171,49.25576],[18.18356,49.29726],[18.20727,49.33875],[18.26062,49.34468],[18.30804,49.3506],[18.36732,49.38617],[18.42066,49.40988],[18.47401,49.45137],[18.49772,49.48694],[18.557,49.51658],[18.58664,49.53436],[18.63999,49.54029],[18.70519,49.53436],[18.75261,49.52251],[18.78225,49.54029],[18.81188,49.56993],[18.8442,49.56454],[18.97213,49.54621],[18.98603,49.44375],[19.17931,49.46532],[19.26157,49.57318],[19.34842,49.56617],[19.37623,49.61634],[19.49344,49.62712],[19.58111,49.51924],[19.61372,49.44326],[19.76291,49.45454],[19.79279,49.37366],[19.7809,49.33593],[19.78216,49.2443],[19.9571,49.28204],[20.03809,49.22814],[20.10538,49.28886],[20.15238,49.36828],[20.40308,49.45993],[20.47884,49.4348],[20.69609,49.45559],[20.90317,49.34132],[21.07112,49.42218],[21.10421,49.48392],[21.33275,49.46552],[21.58501,49.49958],[21.64289,49.44101],[21.95916,49.35749],[22.00581,49.26047],[22.19643,49.21504],[22.57044,49.06668],[22.09947,48.40459],[21.81626,48.37044],[21.62014,48.43465],[21.37954,48.5965],[20.90172,48.58092],[20.57907,48.55958],[20.11807,48.21783],[19.92614,48.18954],[19.66032,48.22188],[19.4361,48.1946],[19.09354,48.13407],[18.97897,48.13346],[18.82847,47.87797],[18.08561,47.89397],[17.89911,47.906],[17.62151,47.98273],[17.44179,48.05999],[17.33122,47.99468],[16.98897,48.24063],[16.91925,48.35768],[16.9629,48.61903],[16.93879,48.66104]]]]}},{"type":"Feature","properties":{"NAME":"Hungary","SUBJECTO":"Hungary","PARTOF":"Hungary","BORDERPRECISION":3},"geometry":{"type":"MultiPolygon","coordinates":[[[[17.47304,46],[17.2924,46.10868],[16.65675,46.38427],[16.56009,46.47294],[16.39637,46.62312],[16.25957,46.8888],[16.41522,47.02314],[16.4845,47.15577],[16.3929,47.24019],[16.41081,47.40908],[16.59506,47.43725],[16.66548,47.52978],[16.60452,47.6183],[16.40087,47.64648],[16.50116,47.73504],[16.64744,47.73504],[16.72155,47.67466],[17.03687,47.69881],[17.04519,47.86388],[17.33122,47.99468],[17.44179,48.05999],[17.62151,47.98273],[17.89911,47.906],[18.08561,47.89397],[18.82847,47.87797],[18.97897,48.13346],[19.09354,48.13407],[19.4361,48.1946],[19.66032,48.22188],[19.92614,48.18954],[20.11807,48.21783],[20.57907,48.55958],[20.90172,48.58092],[21.37954,48.5965],[21.62014,48.43465],[21.81626,48.37044],[22.09947,48.40459],[22.17416,48.41149],[22.47471,48.27612],[22.72394,48.18614],[23.02893,48.01223],[22.8263,47.86007],[22.32001,47.74009],[22.05867,47.55637],[21.623,46.90353],[21.33972,46.52525],[21.00062,46.27027],[20.83825,46.19802],[20.51258,46.1768],[20.39403,46.13076],[20.31473,46.13151],[19.90642,46.16173],[19.50673,46.12713],[19.13782,46],[17.47304,46]]]]}},{"type":"Feature","properties":{"NAME":"Moldova","SUBJECTO":"Moldova","PARTOF":"Moldova","BORDERPRECISION":3},"geometry":{"type":"MultiPolygon","coordinates":[[[[26.6128,48.2629],[26.63934,48.28649],[26.69608,48.33756],[26.73013,48.30918],[26.78687,48.30918],[26.7812,48.36025],[26.82092,48.40565],[26.96278,48.35458],[27.01952,48.37728],[27.13868,48.36025],[27.22947,48.36025],[27.28622,48.41132],[27.31459,48.42835],[27.39403,48.417],[27.47347,48.4397],[27.53589,48.45105],[27.57561,48.4397],[27.62668,48.417],[27.64937,48.42835],[27.70612,48.4397],[27.72314,48.43402],[27.81961,48.3943],[27.88203,48.33756],[27.94444,48.31486],[28.01254,48.30918],[28.05793,48.28081],[28.08063,48.25244],[28.11467,48.21839],[28.16007,48.22407],[28.21681,48.21272],[28.29625,48.22974],[28.34732,48.22974],[28.35867,48.20137],[28.31895,48.15597],[28.30193,48.13328],[28.34732,48.1503],[28.38704,48.13895],[28.38704,48.10491],[28.41542,48.08221],[28.44946,48.12761],[28.47783,48.1503],[28.60267,48.15597],[28.78993,48.12193],[28.81262,48.03682],[28.86937,47.9517],[28.96583,47.94035],[29.02257,47.929],[29.05095,47.9744],[29.11336,47.96872],[29.14174,47.91198],[29.17578,47.88361],[29.22685,47.87226],[29.15308,47.80416],[29.20983,47.77579],[29.18713,47.7531],[29.17578,47.70203],[29.17578,47.61691],[29.09634,47.55449],[29.11904,47.49207],[29.16443,47.42966],[29.22685,47.41831],[29.31197,47.37291],[29.35169,47.32752],[29.40276,47.2878],[29.44248,47.31049],[29.48787,47.33319],[29.53894,47.33319],[29.55597,47.29347],[29.56732,47.24808],[29.52759,47.21403],[29.53327,47.12891],[29.4822,47.11189],[29.51057,47.06082],[29.56732,47.07785],[29.58434,47.05515],[29.56732,47.01543],[29.54462,46.94733],[29.61271,46.93031],[29.6808,46.90194],[29.74889,46.8452],[29.78294,46.8452],[29.86238,46.81115],[29.90778,46.78278],[29.93048,46.72036],[29.93615,46.66362],[29.91913,46.61822],[29.93048,46.56715],[29.88508,46.53878],[29.87941,46.52175],[29.91345,46.49906],[29.95885,46.47636],[30.03261,46.41962],[30.08936,46.41394],[30.05531,46.37989],[30.03829,46.36855],[29.93615,46.36855],[29.87373,46.37422],[29.85671,46.3572],[29.83968,46.34018],[29.76024,46.35152],[29.77727,46.43664],[29.69783,46.43664],[29.65243,46.42529],[29.64676,46.4026],[29.61271,46.36855],[29.57866,46.3345],[29.52192,46.40827],[29.48787,46.40827],[29.44815,46.43664],[29.44815,46.47069],[29.38574,46.46501],[29.35169,46.44799],[29.34034,46.41394],[29.31197,46.43664],[29.26657,46.45366],[29.27225,46.42529],[29.27225,46.38557],[29.22118,46.38557],[29.19281,46.39125],[29.19848,46.48771],[29.19281,46.52743],[29.14174,46.53878],[29.08499,46.49906],[28.97718,46.48771],[28.88639,46.41962],[28.91476,46.37422],[28.95448,46.30613],[28.93178,46.26073],[28.98285,46.20966],[28.98853,46.16994],[28.97151,46.14157],[28.91476,46.0905],[28.94313,46.05078],[28.95448,46.01106],[28.94342,46],[28.08404,46],[28.07973,46.02317],[28.22481,46.46307],[28.23714,46.645],[28.07869,47.03054],[27.80695,47.15915],[27.34018,47.66288],[26.99535,48.18954],[26.7137,48.27553],[26.6128,48.2629]]]]}},{"type":"Feature","properties":{"NAME":"Romania","SUBJECTO":"Romania","PARTOF":"Romania","BORDERPRECISION":3},"geometry":{"type":"MultiPolygon","coordinates":[[[[20.31473,46.13151],[20.39403,46.13076],[20.51258,46.1768],[20.83825,46.19802],[21.00062,46.27027],[21.33972,46.52525],[21.623,46.90353],[22.05867,47.55637],[22.32001,47.74009],[22.8263,47.86007],[23.02893,48.01223],[23.0902,48.05048],[23.44439,47.99612],[23.55292,48.04447],[23.98369,47.9575],[24.48564,47.92762],[24.64923,47.94778],[24.6607,47.84386],[24.80777,47.84576],[24.89216,47.74376],[25.04451,47.77061],[25.15422,47.82429],[25.23746,47.92094],[26.13426,48.00687],[26.25952,48.08704],[26.32733,48.22716],[26.6128,48.2629],[26.7137,48.27553],[26.99535,48.18954],[27.34018,47.66288],[27.80695,47.15915],[28.07869,47.03054],[28.23714,46.645],[28.22481,46.46307],[28.07973,46.02317],[28.08404,46],[20.33792,46],[20.31473,46.13151]]]]}},{"type":"Feature","properties":{"NAME":"Slovenia","SUBJECTO":"Slovenia","PARTOF":"Slovenia","BORDERPRECISION":3},"geometry":{"type":"MultiPolygon","coordinates":[[[[13.5689,46.51043],[14.03665,46.48106],[14.11742,46.43292],[14.39295,46.43693],[14.52177,46.36873],[14.81286,46.59343],[15.06786,46.64159],[15.45004,46.60548],[15.58399,46.69379],[15.98458,46.64159],[15.94739,46.81827],[16.25957,46.8888],[16.39637,46.62312],[16.56009,46.47294],[16.54425,46.47726],[16.49948,46.50982],[16.43436,46.5261],[16.35703,46.5261],[16.29191,46.52203],[16.26749,46.49354],[16.26749,46.46098],[16.27563,46.42028],[16.2797,46.38365],[16.25121,46.37958],[16.19016,46.38365],[16.14132,46.39993],[16.10062,46.37144],[16.08027,46.33481],[16.04364,46.30632],[16.00701,46.28597],[15.97039,46.2819],[15.89713,46.26562],[15.84422,46.24934],[15.79538,46.23306],[15.77096,46.21271],[15.70177,46.21678],[15.64479,46.18422],[15.6163,46.1598],[15.60816,46.12317],[15.62444,46.09061],[15.66107,46.0662],[15.68956,46.04177],[15.70991,46.02143],[15.71603,46],[13.45541,46],[13.44074,46.00389],[13.60634,46.13214],[13.522,46.21557],[13.38871,46.21633],[13.34447,46.28451],[13.6211,46.42088],[13.5689,46.51043]]]]}},{"type":"Feature","properties":{"NAME":"Croatia","SUBJECTO":"Croatia","PARTOF":"Croatia","BORDERPRECISION":3},"geometry":{"type":"MultiPolygon","coordinates":[[[[15.71603,46],[15.70991,46.02143],[15.68956,46.04177],[15.66107,46.0662],[15.62444,46.09061],[15.60816,46.12317],[15.6163,46.1598],[15.64479,46.18422],[15.70177,46.21678],[15.77096,46.21271],[15.79538,46.23306],[15.84422,46.24934],[15.89713,46.26562],[15.97039,46.2819],[16.00701,46.28597],[16.04364,46.30632],[16.08027,46.33481],[16.10062,46.37144],[16.14132,46.39993],[16.19016,46.38365],[16.25121,46.37958],[16.2797,46.38365],[16.27563,46.42028],[16.26749,46.46098],[16.26749,46.49354],[16.29191,46.52203],[16.35703,46.5261],[16.43436,46.5261],[16.49948,46.50982],[16.54425,46.47726],[16.56009,46.47294],[16.65675,46.38427],[17.2924,46.10868],[17.47304,46],[15.71603,46]]]]}},{"type":"Feature","properties":{"NAME":"Serbia","SUBJECTO":"Serbia","PARTOF":"Serbia","BORDERPRECISION":3},"geometry":{"type":"MultiPolygon","coordinates":[[[[19.13782,46],[19.50673,46.12713],[19.90642,46.16173],[20.31473,46.13151],[20.33792,46],[19.13782,46]]]]}},{"type":"Feature","properties":{"NAME":"Denmark","SUBJECTO":"Denmark","PARTOF":"Denmark","BORDERPRECISION":3},"geometry":{"type":"MultiPolygon","coordinates":[[[[12,55.63196],[12.05262,55.70308],[12.088,55.96698],[12.23772,55.98757],[12.44405,55.96765],[12.46922,55.71063],[12.4091,55.54833],[12.34437,55.50771],[12.15843,55.37909],[12.42972,55.24469],[12.30136,55.17028],[12.07697,54.99469],[12,54.96565],[12,55.63196]]]]}},{"type":"Feature","properties":{"NAME":"Poland","SUBJECTO":"Poland","PARTOF":"Poland","BORDERPRECISION":3},"geometry":{"type":"MultiPolygon","coordinates":[[[[22.57044,49.06668],[22.19643,49.21504],[22.00581,49.26047],[21.95916,49.35749],[21.64289,49.44101],[21.58501,49.49958],[21.33275,49.46552],[21.10421,49.48392],[21.07112,49.42218],[20.90317,49.34132],[20.69609,49.45559],[20.47884,49.4348],[20.40308,49.45993],[20.15238,49.36828],[20.10538,49.28886],[20.03809,49.22814],[19.9571,49.28204],[19.78216,49.2443],[19.7809,49.33593],[19.79279,49.37366],[19.76291,49.45454],[19.61372,49.44326],[19.58111,49.51924],[19.49344,49.62712],[19.37623,49.61634],[19.34842,49.56617],[19.26157,49.57318],[19.17931,49.46532],[18.98603,49.44375],[18.97213,49.54621],[18.8442,49.56454],[18.79632,49.71345],[18.62468,49.75661],[18.53996,49.84998],[18.54872,49.96173],[18.18777,50.02126],[18.04804,50.10255],[17.88249,50.03011],[17.75066,50.03598],[17.74471,50.13507],[17.74557,50.24894],[17.59712,50.21098],[17.67876,50.33827],[17.35975,50.33572],[17.24333,50.38999],[17.01442,50.47683],[16.88559,50.48769],[16.88444,50.42255],[17.01153,50.2869],[16.82706,50.23267],[16.72802,50.14862],[16.58495,50.18115],[16.45142,50.352],[16.2044,50.46325],[16.30475,50.55826],[16.39859,50.56912],[16.44283,50.62343],[16.35315,50.70492],[16.23778,50.71579],[16.21021,50.68591],[16.00086,50.65602],[16.00293,50.73209],[15.87749,50.71579],[15.81834,50.79731],[15.5628,50.82129],[15.47216,50.83264],[15.30875,50.90604],[15.26701,51.02298],[15.17189,51.06379],[15.00929,51.05562],[14.98096,51.01754],[15.00827,50.98489],[14.99727,50.91691],[14.82888,50.91691],[15.0242,51.23097],[14.8975,51.44927],[14.68734,51.53399],[14.73875,51.65024],[14.59212,51.77161],[14.59532,51.85762],[14.69141,51.91328],[14.74487,52.04491],[14.68579,52.09048],[14.69495,52.22727],[14.55443,52.29316],[14.51213,52.37427],[14.60974,52.5518],[14.30256,52.7447],[14.12681,52.79041],[14.14986,52.93775],[14.32562,53.00383],[14.42389,53.23778],[14.28019,53.61342],[14.43316,53.59421],[14.53706,53.53817],[14.4953,53.62479],[14.5653,53.6936],[14.55694,53.75988],[14.48252,53.81853],[14.47294,53.87678],[14.46741,53.91035],[14.88576,53.97956],[15.07968,54.00252],[15.31169,54.071],[15.89836,54.1284],[16.11468,54.19961],[16.47325,54.41503],[16.9759,54.54931],[17.65761,54.68546],[18.27945,54.72412],[18.75953,54.53641],[18.36292,54.66889],[18.3385,54.60265],[18.45381,54.52538],[18.51316,54.31578],[18.67308,54.25514],[18.96498,54.22758],[19.255,54.27719],[19.7336,54.46117],[19.75772,54.45917],[19.31761,54.27168],[19.23206,54.22207],[19.23031,54.16697],[19.3281,54.16145],[19.45682,54.21656],[19.73312,54.31027],[19.97754,54.42394],[20.35627,54.42146],[21.36674,54.36954],[22.69904,54.4149],[22.98706,54.42471],[23.00508,54.41826],[23.31062,54.30889],[23.43854,54.08992],[23.48289,54.00618],[23.48981,53.99313],[23.5305,53.91629],[23.60259,53.7802],[23.8792,53.10521],[23.95681,52.87941],[23.94606,52.773],[23.82786,52.67932],[23.62949,52.66594],[23.37263,52.55645],[23.24143,52.40868],[23.18414,52.27757],[23.31397,52.27196],[23.50338,52.20634],[23.57069,52.12706],[23.66863,52.06129],[23.67438,51.94868],[23.53266,51.61027],[23.58926,51.54843],[23.66152,51.46949],[23.62837,51.36051],[23.99563,50.98489],[24.13828,50.89788],[24.00387,50.87613],[23.96585,50.81633],[24.11354,50.68048],[24.1093,50.53926],[23.9947,50.43123],[23.80173,50.42526],[23.67317,50.34394],[23.40381,50.16484],[22.72464,49.61692],[22.68796,49.4793],[22.70777,49.23084],[22.86446,49.05843],[22.57044,49.06668]]],[[[14.06995,53.91777],[14.17417,53.90676],[14.20541,53.81321],[14.14543,53.82645],[14.06995,53.91777]]],[[[14.47294,53.87678],[14.45907,53.81871],[14.33386,53.82972],[14.2479,53.81596],[14.22724,53.90951],[14.30526,53.91502],[14.42484,53.91502],[14.47294,53.87678]]]]}},{"type":"Feature","properties":{"NAME":"Czech Republic","SUBJECTO":"Czech Republic","PARTOF":"Czech Republic","BORDERPRECISION":3},"geometry":{"type":"MultiPolygon","coordinates":[[[[13.94668,48.6551],[13.74548,48.93995],[13.65207,48.9561],[13.57815,49.03689],[13.47973,48.99918],[13.39694,49.08953],[13.20311,49.16617],[12.94526,49.39792],[12.86081,49.36557],[12.64578,49.48458],[12.5363,49.56258],[12.51971,49.66758],[12.44831,49.70615],[12.48435,49.88885],[12.55416,50.00162],[12.36839,50.04564],[12.25234,50.21589],[12.23536,50.24081],[12.34475,50.31674],[12.46162,50.39812],[12.59385,50.38356],[12.78367,50.47411],[12.98234,50.47411],[13.0175,50.55555],[13.1894,50.56098],[13.233,50.66377],[13.39415,50.69134],[13.47326,50.65874],[13.52416,50.75655],[13.85478,50.76742],[13.91066,50.84351],[14.14649,50.86526],[14.27475,50.90876],[14.38877,50.94683],[14.26166,51.04474],[14.4578,51.07738],[14.59638,51.02298],[14.61032,50.89788],[14.76481,50.86526],[14.82888,50.91691],[14.99727,50.91691],[15.00827,50.98489],[14.98096,51.01754],[15.00929,51.05562],[15.17189,51.06379],[15.26701,51.02298],[15.30875,50.90604],[15.47216,50.83264],[15.5628,50.82129],[15.81834,50.79731],[15.87749,50.71579],[16.00293,50.73209],[16.00086,50.65602],[16.21021,50.68591],[16.23778,50.71579],[16.35315,50.70492],[16.44283,50.62343],[16.39859,50.56912],[16.30475,50.55826],[16.2044,50.46325],[16.45142,50.352],[16.58495,50.18115],[16.72802,50.14862],[16.82706,50.23267],[17.01153,50.2869],[16.88444,50.42255],[16.88559,50.48769],[17.01442,50.47683],[17.24333,50.38999],[17.35975,50.33572],[17.67876,50.33827],[17.59712,50.21098],[17.74557,50.24894],[17.74471,50.13507],[17.75066,50.03598],[17.88249,50.03011],[18.04804,50.10255],[18.18777,50.02126],[18.54872,49.96173],[18.53996,49.84998],[18.62468,49.75661],[18.79632,49.71345],[18.8442,49.56454],[18.81188,49.56993],[18.78225,49.54029],[18.75261,49.52251],[18.70519,49.53436],[18.63999,49.54029],[18.58664,49.53436],[18.557,49.51658],[18.49772,49.48694],[18.47401,49.45137],[18.42066,49.40988],[18.36732,49.38617],[18.30804,49.3506],[18.26062,49.34468],[18.20727,49.33875],[18.18356,49.29726],[18.17171,49.25576],[18.15985,49.19649],[18.13614,49.16092],[18.11243,49.1135],[18.04723,49.08387],[17.99981,49.06608],[17.95832,49.07794],[17.92275,49.04237],[17.90497,49.00088],[17.88126,48.96531],[17.86347,48.96531],[17.81605,48.95346],[17.78642,48.9416],[17.75085,48.91789],[17.6975,48.89418],[17.63823,48.89418],[17.57302,48.8764],[17.53153,48.86455],[17.50189,48.8764],[17.47225,48.88826],[17.43076,48.88826],[17.40112,48.8764],[17.32999,48.8764],[17.27072,48.90011],[17.22923,48.92382],[17.18773,48.91197],[17.11067,48.88826],[17.09882,48.87047],[17.03362,48.81713],[16.99212,48.78749],[16.9862,48.72821],[16.95656,48.68079],[16.93879,48.66104],[16.91433,48.70365],[16.66915,48.79378],[16.06963,48.7122],[15.61152,48.81425],[14.99314,48.96779],[14.65748,48.61972],[14.38851,48.54648],[14.17094,48.591],[14.01181,48.64891],[13.94668,48.6551]]]]}},{"type":"Feature","properties":{"NAME":"Norway","SUBJECTO":"Norway","PARTOF":"Norway","BORDERPRECISION":3},"geometry":{"type":"MultiPolygon","coordinates":[[[[12,61],[12.4296,61],[12.17404,60.95641],[12.43103,60.62585],[12.54796,60.43387],[12.43586,60.2781],[12.42277,60.03878],[12.07703,59.86592],[12,59.86346],[12,61]]]]}},{"type":"Feature","properties":{"NAME":"Finland","SUBJECTO":"Finland","PARTOF":"Finland","BORDERPRECISION":3},"geometry":{"type":"MultiPolygon","coordinates":[[[[28.96641,61],[28.51004,60.73181],[28.43178,60.60347],[28.01144,60.51073],[27.47362,60.42608],[27.40622,60.34482],[27.17848,60.44239],[26.94557,60.37631],[26.92231,60.31612],[26.61308,60.34783],[26.52588,60.39647],[26.55164,60.5707],[26.44284,60.33334],[26.32271,60.27024],[26.03775,60.2493],[25.8901,60.23584],[25.84553,60.11548],[25.58054,60.26234],[25.44989,60.1384],[25.14579,60.10975],[24.99298,60.02957],[24.96947,60.08683],[24.74298,60.03823],[24.51596,59.9895],[24.42105,59.86975],[24.28136,59.93815],[23.97895,59.88115],[23.96111,59.93245],[23.66466,59.83555],[23.41885,59.82985],[23.20144,59.81846],[22.98213,59.93245],[22.882,60.05556],[23.0052,60.20876],[22.62462,60.2011],[22.39207,60.1212],[22.42147,60.29319],[22.22065,60.25877],[21.93095,60.38077],[21.74681,60.40827],[21.56015,60.51249],[21.44318,60.69365],[21.428,61],[28.96641,61]]]]}},{"type":"Feature","properties":{"NAME":"Sweden","SUBJECTO":"Sweden","PARTOF":"Sweden","BORDERPRECISION":3},"geometry":{"type":"MultiPolygon","coordinates":[[[[17.14698,61],[17.14621,60.95283],[17.31763,60.75307],[17.1885,60.67429],[17.60496,60.63754],[17.70646,60.55358],[17.93075,60.59031],[18.22439,60.32297],[18.41687,60.18162],[18.80409,60.1084],[18.89307,59.92569],[19.03732,59.86324],[19.04355,59.71242],[18.86789,59.71242],[18.63925,59.56693],[18.25142,59.43194],[18.03008,59.35928],[17.79528,59.36447],[17.72995,59.41636],[17.36798,59.46827],[17.0706,59.54615],[16.78554,59.57732],[16.72409,59.53057],[16.52321,59.58252],[16.40758,59.4475],[16.77647,59.47866],[16.99984,59.35928],[17.26578,59.33853],[17.35812,59.24518],[17.57492,59.21407],[17.58441,59.27111],[17.86173,59.23999],[17.97764,59.32815],[18.11138,59.32297],[18.32817,59.36967],[18.42956,59.33335],[18.44137,59.40079],[18.51547,59.40079],[18.61133,59.33335],[18.5982,59.29704],[18.27337,59.28667],[18.37196,59.15707],[18.01567,59.03791],[17.94014,58.90849],[17.76647,58.87227],[17.72642,58.91366],[17.7452,58.98613],[17.73911,59.11042],[17.62318,59.10007],[17.58219,58.89297],[17.35668,58.74297],[17.24539,58.71712],[17.083,58.74813],[17.08073,58.64993],[16.44287,58.63442],[16.51319,58.42812],[16.74404,58.31195],[16.77355,58.0379],[16.72459,57.88932],[16.59776,57.86645],[16.45953,57.89521],[16.47653,57.70213],[16.60721,57.66581],[16.55048,57.54515],[16.65868,57.44295],[16.49416,57.27892],[16.39452,57.0743],[16.37617,56.82242],[16.03145,56.35307],[15.77054,56.03321],[15.69623,56.06096],[15.49704,56.16724],[15.2208,56.08036],[14.65289,56.12062],[14.60523,55.98078],[14.49183,56.01804],[14.25893,55.89928],[14.12602,55.66658],[14.28635,55.51549],[14.1172,55.34711],[13.90111,55.40515],[13.8233,55.42182],[13.30185,55.3007],[12.80237,55.35291],[12.80192,55.41677],[12.88756,55.45161],[12.85931,55.53292],[12.98587,55.66658],[12.69901,55.9051],[12.51336,56.12062],[12.41441,56.24304],[12.65238,56.29553],[12.61544,56.43561],[12.80481,56.4012],[12.87158,56.51152],[12.78586,56.61668],[12.65748,56.61084],[12.52603,56.7804],[12.28862,56.87986],[12.00514,57.32521],[12,57.32521],[12,59.86346],[12.07703,59.86592],[12.42277,60.03878],[12.43586,60.2781],[12.54796,60.43387],[12.43103,60.62585],[12.17404,60.95641],[12.4296,61],[17.14698,61]]]]}},{"type":"Feature","properties":{"NAME":null,"SUBJECTO":null,"PARTOF":null,"BORDERPRECISION":3},"geometry":{"type":"MultiPolygon","coordinates":[[[[19.33444,57.95583],[19.28666,57.93749],[19.2775,57.94028],[19.27444,57.945],[19.26806,57.94861],[19.25666,57.94944],[19.23805,57.94694],[19.17056,57.92944],[19.16278,57.92694],[19.15083,57.91861],[19.14583,57.91361],[19.14167,57.90778],[19.14,57.90167],[19.12611,57.83972],[19.09333,57.85194],[19.07777,57.85833],[19.07306,57.8625],[19.0375,57.89639],[19.03444,57.90111],[19.03444,57.9125],[19.03611,57.91861],[19.08889,57.97028],[19.09583,57.97361],[19.10472,57.97527],[19.28583,57.97666],[19.29639,57.97666],[19.3075,57.97444],[19.3325,57.96527],[19.33555,57.96055],[19.33444,57.95583]]]]}},{"type":"Feature","properties":{"NAME":null,"SUBJECTO":null,"PARTOF":null,"BORDERPRECISION":3},"geometry":{"type":"MultiPolygon","coordinates":[[[[18.20611,56.91194],[18.16889,56.91],[18.14778,56.91194],[18.14027,56.91499],[18.1425,56.92027],[18.15833,56.94167],[18.20916,56.98917],[18.25666,57.03222],[18.25444,57.07916],[18.17333,57.14194],[18.14833,57.23528],[18.15805,57.31583],[18.1425,57.40944],[18.11528,57.48083],[18.11028,57.49611],[18.11,57.51305],[18.11138,57.51944],[18.11916,57.53111],[18.13861,57.55111],[18.17917,57.58833],[18.19144,57.59614],[18.21194,57.60583],[18.22778,57.61138],[18.24222,57.61749],[18.24917,57.62083],[18.27611,57.63416],[18.29472,57.64583],[18.33889,57.68166],[18.35583,57.69583],[18.38194,57.71861],[18.40167,57.73861],[18.41972,57.76028],[18.45639,57.80277],[18.46139,57.80778],[18.46722,57.81194],[18.48111,57.8186],[18.68194,57.91361],[18.69,57.91611],[18.71611,57.9211],[18.725,57.92278],[18.88194,57.91972],[18.9025,57.91833],[18.91417,57.9175],[19.00472,57.90861],[19.00611,57.90361],[19.00389,57.89889],[19.03333,57.82694],[18.92944,57.73972],[18.84889,57.72111],[18.80917,57.70361],[18.79333,57.65916],[18.75972,57.50805],[18.76806,57.47222],[18.76944,57.46722],[18.78833,57.44833],[18.71444,57.24694],[18.71194,57.24166],[18.65805,57.22083],[18.55194,57.18278],[18.51472,57.16944],[18.49833,57.16528],[18.45556,57.15694],[18.43944,57.15277],[18.41722,57.14417],[18.39722,57.13416],[18.39139,57.13],[18.38667,57.12499],[18.34555,57.07972],[18.34139,57.07388],[18.33917,57.0686],[18.33555,57.02333],[18.33583,57.01749],[18.34333,57.01444],[18.34666,56.9986],[18.3025,56.93749],[18.295,56.93472],[18.21555,56.91306],[18.20611,56.91194]]]]}},{"type":"Feature","properties":{"NAME":"Austria","SUBJECTO":"Austria","PARTOF":"Austria","BORDERPRECISION":3},"geometry":{"type":"MultiPolygon","coordinates":[[[[12,47.62508],[12.12203,47.62843],[12.16328,47.70879],[12.35818,47.72425],[12.44609,47.66242],[12.70008,47.69025],[12.76539,47.6377],[12.74373,47.56353],[12.94202,47.4832],[12.97892,47.50791],[13.023,47.66242],[12.99808,47.73352],[12.84753,47.73971],[12.93631,47.87266],[12.69419,48.12944],[12.85825,48.23158],[13.29362,48.36472],[13.36665,48.44214],[13.38414,48.59393],[13.44369,48.60633],[13.64004,48.53816],[13.94668,48.6551],[14.01181,48.64891],[14.17094,48.591],[14.38851,48.54648],[14.65748,48.61972],[14.99314,48.96779],[15.61152,48.81425],[16.06963,48.7122],[16.66915,48.79378],[16.91433,48.70365],[16.93879,48.66104],[16.9629,48.61903],[16.91925,48.35768],[16.98897,48.24063],[17.33122,47.99468],[17.04519,47.86388],[17.03687,47.69881],[16.72155,47.67466],[16.64744,47.73504],[16.50116,47.73504],[16.40087,47.64648],[16.60452,47.6183],[16.66548,47.52978],[16.59506,47.43725],[16.41081,47.40908],[16.3929,47.24019],[16.4845,47.15577],[16.41522,47.02314],[16.25957,46.8888],[15.94739,46.81827],[15.98458,46.64159],[15.58399,46.69379],[15.45004,46.60548],[15.06786,46.64159],[14.81286,46.59343],[14.52177,46.36873],[14.39295,46.43693],[14.11742,46.43292],[14.03665,46.48106],[13.5689,46.51043],[13.35401,46.56066],[12.95189,46.59746],[12.36185,46.70854],[12.21781,46.88432],[12.07475,46.92751],[12.06433,47.09104],[12,47.07406],[12,47.62508]]]]}},{"type":"Feature","properties":{"NAME":"Germany","SUBJECTO":"Germany","PARTOF":"Germany","BORDERPRECISION":3},"geometry":{"type":"MultiPolygon","coordinates":[[[[12,54.09137],[12.04107,54.09666],[12.31188,54.20194],[12.65252,54.32143],[12.7648,54.27033],[12.94314,54.34698],[13.02581,54.26522],[13.06377,54.19369],[13.34917,54.06349],[13.43102,54.03025],[13.66761,54.08417],[13.73778,54.03029],[13.76433,53.87719],[13.7805,53.77518],[13.85017,53.72929],[14.00974,53.67321],[14.17686,53.68341],[14.18958,53.62479],[14.28019,53.61342],[14.42389,53.23778],[14.32562,53.00383],[14.14986,52.93775],[14.12681,52.79041],[14.30256,52.7447],[14.60974,52.5518],[14.51213,52.37427],[14.55443,52.29316],[14.69495,52.22727],[14.68579,52.09048],[14.74487,52.04491],[14.69141,51.91328],[14.59532,51.85762],[14.59212,51.77161],[14.73875,51.65024],[14.68734,51.53399],[14.8975,51.44927],[15.0242,51.23097],[14.82888,50.91691],[14.76481,50.86526],[14.61032,50.89788],[14.59638,51.02298],[14.4578,51.07738],[14.26166,51.04474],[14.38877,50.94683],[14.27475,50.90876],[14.14649,50.86526],[13.91066,50.84351],[13.85478,50.76742],[13.52416,50.75655],[13.47326,50.65874],[13.39415,50.69134],[13.233,50.66377],[13.1894,50.56098],[13.0175,50.55555],[12.98234,50.47411],[12.78367,50.47411],[12.59385,50.38356],[12.46162,50.39812],[12.34475,50.31674],[12.23536,50.24081],[12.25234,50.21589],[12.36839,50.04564],[12.55416,50.00162],[12.48435,49.88885],[12.44831,49.70615],[12.51971,49.66758],[12.5363,49.56258],[12.64578,49.48458],[12.86081,49.36557],[12.94526,49.39792],[13.20311,49.16617],[13.39694,49.08953],[13.47973,48.99918],[13.57815,49.03689],[13.65207,48.9561],[13.74548,48.93995],[13.94668,48.6551],[13.64004,48.53816],[13.44369,48.60633],[13.38414,48.59393],[13.36665,48.44214],[13.29362,48.36472],[12.85825,48.23158],[12.69419,48.12944],[12.93631,47.87266],[12.84753,47.73971],[12.99808,47.73352],[13.023,47.66242],[12.97892,47.50791],[12.94202,47.4832],[12.74373,47.56353],[12.76539,47.6377],[12.70008,47.69025],[12.44609,47.66242],[12.35818,47.72425],[12.16328,47.70879],[12.12203,47.62843],[12,47.62508],[12,54.09137]]],[[[14.06995,53.91777],[14.14543,53.82645],[14.06835,53.84347],[14.02872,53.86548],[13.82777,53.82972],[13.7774,53.94862],[13.77841,54.04441],[14.06995,53.91777]]]]}},{"type":"Feature","properties":{"NAME":"Italy","SUBJECTO":"Italy","PARTOF":"Italy","BORDERPRECISION":3},"geometry":{"type":"MultiPolygon","coordinates":[[[[12,46],[12,47.07406],[12.06433,47.09104],[12.07475,46.92751],[12.21781,46.88432],[12.36185,46.70854],[12.95189,46.59746],[13.35401,46.56066],[13.5689,46.51043],[13.6211,46.42088],[13.34447,46.28451],[13.38871,46.21633],[13.522,46.21557],[13.60634,46.13214],[13.44074,46.00389],[13.45541,46],[12,46]]]]}},{"type":"Feature","properties":{"NAME":"Russia","SUBJECTO":"Russia","PARTOF":"Russia","BORDERPRECISION":3},"geometry":{"type":"MultiPolygon","coordinates":[[[[31.56053,52.51662],[31.59751,52.561],[31.53095,52.62016],[31.48658,52.68672],[31.54574,52.7163],[31.54574,52.79026],[31.41263,52.86421],[31.2869,52.98254],[31.27951,53.0565],[31.32388,53.11566],[31.38304,53.18961],[31.54574,53.19701],[31.69365,53.17482],[31.7824,53.11566],[32.01166,53.10826],[32.24832,53.15264],[32.44799,53.26357],[32.47018,53.29315],[32.53674,53.33013],[32.66986,53.33013],[32.69944,53.40408],[32.68465,53.46325],[32.55893,53.49283],[32.42581,53.55939],[32.38143,53.64074],[32.41841,53.64814],[32.44799,53.67032],[32.46279,53.6999],[32.34446,53.72948],[32.18176,53.77386],[32.01166,53.80344],[31.84896,53.77386],[31.76761,53.80344],[31.79719,53.88479],[31.84156,53.97354],[31.81198,54.0401],[31.73803,54.08447],[31.6123,54.12145],[31.50877,54.15103],[31.30909,54.24717],[31.25732,54.35071],[31.18336,54.46904],[31.08722,54.47643],[31.07983,54.5208],[31.10941,54.57997],[31.15378,54.63174],[31.09462,54.64653],[31.01327,54.62434],[30.97629,54.67611],[30.91713,54.75746],[30.76182,54.77965],[30.78401,54.84621],[30.7988,54.92016],[30.84317,54.94235],[30.89494,54.97932],[30.89494,55.0163],[30.94671,55.0163],[30.97629,55.07547],[30.9541,55.14942],[30.88755,55.19379],[30.7988,55.30473],[30.85796,55.37868],[30.87275,55.45264],[30.87275,55.48961],[30.90234,55.54138],[30.88015,55.59315],[30.81359,55.57836],[30.73963,55.59315],[30.67308,55.63752],[30.6287,55.6819],[30.50298,55.72627],[30.44381,55.78543],[30.19976,55.8372],[30.08883,55.81502],[30.04446,55.8372],[29.98529,55.85939],[29.88176,55.82241],[29.8152,55.77804],[29.74124,55.77804],[29.61552,55.77064],[29.51938,55.6819],[29.43063,55.6819],[29.35668,55.74845],[29.32709,55.81502],[29.33449,55.85939],[29.40844,55.90376],[29.40844,55.95553],[29.34189,55.96292],[29.20877,55.99251],[29.06825,56.01469],[28.90555,55.99251],[28.80941,55.96292],[28.72066,55.94813],[28.68369,56.01469],[28.62452,56.08125],[28.48401,56.09605],[28.40266,56.10344],[28.31391,56.04428],[28.21037,56.07386],[28.13642,56.14042],[28.16358,56.15929],[28.17013,56.21169],[28.18978,56.25099],[28.15048,56.35578],[28.15703,56.44093],[28.09808,56.49332],[28.12428,56.53262],[28.05223,56.55227],[27.98674,56.59812],[27.97364,56.67017],[27.91469,56.69636],[27.86229,56.74221],[27.88194,56.77496],[27.90814,56.81426],[27.87539,56.83391],[27.83609,56.84046],[27.77714,56.87321],[27.71165,56.86666],[27.61995,56.84046],[27.6396,56.88631],[27.68545,56.91906],[27.7182,56.95835],[27.7051,57.01075],[27.73785,57.0697],[27.6789,57.109],[27.72475,57.1221],[27.76404,57.12865],[27.80989,57.1614],[27.81644,57.20069],[27.82954,57.25309],[27.83609,57.29239],[27.7444,57.31859],[27.7051,57.35134],[27.6134,57.39064],[27.50861,57.42339],[27.50861,57.47578],[27.51515,57.52818],[27.34886,57.52636],[27.31211,57.57403],[27.36451,57.60023],[27.37106,57.63953],[27.38416,57.69192],[27.44311,57.69192],[27.48241,57.74432],[27.50861,57.79017],[27.58065,57.81637],[27.69855,57.83602],[27.77714,57.86877],[27.75095,57.89497],[27.67235,57.91462],[27.6527,57.98011],[27.64615,58.01941],[27.64615,58.05216],[27.60685,58.08491],[27.51515,58.12421],[27.43656,58.229],[27.43656,58.3076],[27.51515,58.36654],[27.50206,58.43859],[27.46931,58.52374],[27.41036,58.72023],[27.39726,58.79227],[27.43656,58.86432],[27.52825,58.92327],[27.67235,58.98222],[27.77059,59.07391],[27.84919,59.19836],[27.87539,59.2573],[27.91469,59.27695],[27.96709,59.27695],[28.05223,59.27695],[28.13083,59.2966],[28.15048,59.3752],[28.07843,59.43415],[28.01309,59.45822],[27.97339,59.51671],[27.89666,59.53378],[27.94169,59.6476],[28.09419,59.66468],[28.1631,59.59068],[28.26634,59.56223],[28.35098,59.60206],[28.3091,59.6644],[28.44436,59.73374],[28.66273,59.64434],[28.79593,59.67222],[28.93627,59.82455],[29.07607,59.90779],[29.41363,59.86003],[29.76545,59.73624],[29.96316,59.73662],[30.12664,59.80605],[29.95287,59.98558],[29.6873,60.131],[29.51074,60.14457],[28.96898,60.10879],[28.69163,60.14998],[28.5694,60.19842],[28.43523,60.33734],[28.55125,60.53264],[28.52151,60.62326],[28.43178,60.60347],[28.51004,60.73181],[28.96641,61],[40,61],[40,46],[37.98615,46],[37.98994,46.00666],[38.22715,46.02009],[38.45898,46.07891],[38.26491,46.31856],[37.97017,46.44128],[37.7571,46.60319],[37.8666,46.65536],[38.03186,46.66868],[38.40109,46.72135],[38.72274,46.87792],[39.28236,47.07403],[39.19409,47.24295],[39.15985,47.26889],[38.80025,47.22917],[38.20973,47.15046],[38.21488,47.20718],[38.22494,47.25744],[38.22494,47.35796],[38.26515,47.58916],[38.36567,47.62938],[38.52651,47.63943],[38.69739,47.69974],[38.79792,47.78016],[38.80797,47.86058],[38.9286,47.86058],[39.26032,47.88068],[39.62221,47.81032],[39.77299,47.87063],[39.77299,47.941],[39.84336,48.07168],[39.91372,48.29283],[39.88356,48.32298],[39.84336,48.41346],[39.82325,48.49387],[39.80315,48.55419],[39.72273,48.58434],[39.65236,48.6145],[39.67247,48.71502],[39.69257,48.79544],[39.80315,48.79544],[39.94388,48.79544],[40,48.86092],[40,48.86645],[39.87351,48.88591],[39.75288,48.92612],[39.65236,49.0367],[39.79309,49.0568],[39.95393,49.14727],[40,49.16701],[40,49.59888],[39.93383,49.56947],[39.87351,49.54936],[39.75288,49.54936],[39.59205,49.61973],[39.54179,49.72025],[39.33069,49.7303],[39.20001,49.77051],[39.10954,49.85093],[38.9487,49.82077],[38.82807,49.87104],[38.61698,49.9213],[38.42598,49.95145],[38.2953,50.07208],[38.19478,50.04192],[38.17467,49.97156],[38.04399,49.91125],[37.94347,49.96151],[37.86306,50.04192],[37.68211,50.06203],[37.67206,50.12234],[37.58159,50.20276],[37.58159,50.26308],[37.46096,50.34349],[37.4107,50.41386],[37.24987,50.3837],[37.00861,50.32339],[36.88798,50.32339],[36.74725,50.27313],[36.55625,50.22287],[36.47584,50.29323],[36.39542,50.30328],[36.30495,50.27313],[36.09385,50.40381],[35.97322,50.43396],[35.76213,50.40381],[35.6415,50.32339],[35.51082,50.45407],[35.4304,50.49428],[35.39019,50.5948],[35.4304,50.67522],[35.39019,50.7858],[35.28967,50.90642],[35.28967,51.06726],[35.10873,51.06726],[35.10873,51.20799],[34.93784,51.21804],[34.70663,51.18788],[34.63627,51.23815],[34.34475,51.23815],[34.22412,51.36883],[34.17387,51.52966],[34.11355,51.66034],[34.25428,51.72066],[34.39501,51.71061],[34.39501,51.83123],[34.25428,51.9016],[34.14371,51.97197],[34.08339,52.06243],[33.97282,52.21322],[33.83208,52.27353],[33.74161,52.39416],[33.51041,52.33385],[33.19879,52.38411],[32.89722,52.28358],[32.65597,52.27353],[32.41471,52.38411],[32.3544,52.26348],[32.27398,52.1328],[32.13325,52.06243],[31.92215,52.07249],[31.76131,52.1127],[31.76021,52.17643],[31.68626,52.20601],[31.64928,52.25778],[31.57533,52.29476],[31.59012,52.33913],[31.57533,52.44267],[31.56053,52.51662]],[[35.55114,61],[35.54781,60.99798],[35.50082,60.99951],[35.49763,60.97739],[35.53824,60.93161],[35.67166,60.92228],[35.89787,60.9494],[36.03324,60.99291],[36.03851,61],[35.55114,61]],[[30.26608,61],[30.43678,60.87872],[30.52508,60.76437],[30.51392,60.66908],[30.55077,60.61076],[30.63564,60.58941],[30.74843,60.48368],[30.88915,60.29358],[30.98222,60.19298],[31.02764,60.1819],[31.06603,60.14055],[31.09739,60.06892],[31.09204,60.01392],[31.04999,59.97555],[31.04414,59.94855],[31.0745,59.93292],[31.19899,59.9248],[31.41763,59.92418],[31.53559,59.94003],[31.55288,59.97235],[31.53947,60.01125],[31.49536,60.05671],[31.53451,60.1207],[31.65692,60.20322],[31.82386,60.2356],[32.03532,60.21783],[32.16582,60.18679],[32.21538,60.14247],[32.31998,60.13458],[32.47963,60.16313],[32.57774,60.19444],[32.61431,60.22853],[32.62091,60.27226],[32.59755,60.32563],[32.61241,60.36296],[32.66551,60.38424],[32.66499,60.42397],[32.61085,60.48216],[32.64754,60.51321],[32.77504,60.5171],[32.85039,60.52414],[32.87359,60.53432],[32.89157,60.54385],[32.90433,60.55273],[32.92346,60.57573],[32.94894,60.61285],[32.92643,60.65107],[32.85592,60.69041],[32.81785,60.74253],[32.81221,60.80745],[32.75348,60.87672],[32.64167,60.95034],[32.59096,61],[30.26608,61]]],[[[19.88181,54.52538],[19.83325,54.5309],[19.86317,54.75173],[19.94257,54.84986],[20.1271,54.84564],[20.79715,54.81798],[20.9852,54.81164],[21.13734,54.84546],[21.19194,54.95958],[21.11335,55.08924],[21.22385,55.11145],[21.19312,55.16635],[21.16232,55.22138],[21.32119,55.26471],[21.37515,55.28012],[21.39827,55.21075],[21.43682,55.18763],[21.54474,55.18763],[21.64495,55.13367],[21.76057,55.10283],[21.99183,55.072],[22.03037,55.02574],[22.13058,55.04887],[22.331,55.04887],[22.44663,55.04887],[22.54684,55.05658],[22.58538,54.99491],[22.63163,54.94866],[22.71642,54.93325],[22.79351,54.90241],[22.80122,54.84074],[22.82434,54.78678],[22.72413,54.73283],[22.6933,54.66345],[22.66246,54.57095],[22.67017,54.49386],[22.68559,54.43219],[22.69904,54.4149],[21.36674,54.36954],[20.35627,54.42146],[19.97754,54.42394],[20.18865,54.52198],[20.32671,54.56401],[20.19423,54.57505],[20.0057,54.54746],[19.93812,54.60817],[19.88181,54.52538]]]]}}]}